{
"type": "FeatureCollection",
"name": "geo_21_4",
"crs": { "type": "name", "properties": { "name": "urn:ogc:def:crs:OGC:1.3:CRS84" } },
"features": [
{ "type": "Feature", "properties": { "ID": 2141344000006, "正式名称": "アミューズ母乳育児相談室", "機関区分": 4, "都道府県コード": 21, "市区町村コード": 201, "所在地": "岐阜県岐阜市薮田南", "緯度": 35.389797, "経度": 136.716832, "url": "https://www.iryou.teikyouseido.mhlw.go.jp/znk-web/juminkanja/S2430/initialize?prefCd=21&kikanCd=1344000006&kikanKbn=4", "url2": "https:/www.oketani.or.jp", "内容": "アミューズ母乳育児相談室【4:助産院】岐阜県岐阜市薮田南" }, "geometry": { "type": "Point", "coordinates": [ 136.716832, 35.389797 ] } },
{ "type": "Feature", "properties": { "ID": 2141344000010, "正式名称": "永縄　光子", "機関区分": 4, "都道府県コード": 21, "市区町村コード": 201, "所在地": "岐阜県岐阜市溝口上９５", "緯度": 35.480604, "経度": 136.834574, "url": "https://www.iryou.teikyouseido.mhlw.go.jp/znk-web/juminkanja/S2430/initialize?prefCd=21&kikanCd=1344000010&kikanKbn=4", "url2": null, "内容": "永縄　光子【4:助産院】岐阜県岐阜市溝口上９５" }, "geometry": { "type": "Point", "coordinates": [ 136.834574, 35.480604 ] } },
{ "type": "Feature", "properties": { "ID": 2141344000031, "正式名称": "愛助産院", "機関区分": 4, "都道府県コード": 21, "市区町村コード": 201, "所在地": "岐阜県岐阜市西改田字川向８７－１", "緯度": 35.449336, "経度": 136.704199, "url": "https://www.iryou.teikyouseido.mhlw.go.jp/znk-web/juminkanja/S2430/initialize?prefCd=21&kikanCd=1344000031&kikanKbn=4", "url2": null, "内容": "愛助産院【4:助産院】岐阜県岐阜市西改田字川向８７－１" }, "geometry": { "type": "Point", "coordinates": [ 136.704199, 35.449336 ] } },
{ "type": "Feature", "properties": { "ID": 2141344001361, "正式名称": "三和母乳育児相談室", "機関区分": 4, "都道府県コード": 21, "市区町村コード": 201, "所在地": "岐阜県岐阜市三輪宮西２６０の１", "緯度": 35.503544, "経度": 136.840421, "url": "https://www.iryou.teikyouseido.mhlw.go.jp/znk-web/juminkanja/S2430/initialize?prefCd=21&kikanCd=1344001361&kikanKbn=4", "url2": null, "内容": "三和母乳育児相談室【4:助産院】岐阜県岐阜市三輪宮西２６０の１" }, "geometry": { "type": "Point", "coordinates": [ 136.840421, 35.503544 ] } },
{ "type": "Feature", "properties": { "ID": 2141344001490, "正式名称": "助産院　芽出", "機関区分": 4, "都道府県コード": 21, "市区町村コード": 201, "所在地": "岐阜県岐阜市早田東町３丁目５９番地", "緯度": 35.43785, "経度": 136.762944, "url": "https://www.iryou.teikyouseido.mhlw.go.jp/znk-web/juminkanja/S2430/initialize?prefCd=21&kikanCd=1344001490&kikanKbn=4", "url2": null, "内容": "助産院　芽出【4:助産院】岐阜県岐阜市早田東町３丁目５９番地" }, "geometry": { "type": "Point", "coordinates": [ 136.762944, 35.43785 ] } },
{ "type": "Feature", "properties": { "ID": 2141344001578, "正式名称": "マタニティホームあいｓｕｎ", "機関区分": 4, "都道府県コード": 21, "市区町村コード": 201, "所在地": "岐阜県岐阜市東鶉２－１３－１", "緯度": 35.383376, "経度": 136.743878, "url": "https://www.iryou.teikyouseido.mhlw.go.jp/znk-web/juminkanja/S2430/initialize?prefCd=21&kikanCd=1344001578&kikanKbn=4", "url2": "https://www.maternityhome-aisun.com/", "内容": "マタニティホームあいｓｕｎ【4:助産院】岐阜県岐阜市東鶉２－１３－１" }, "geometry": { "type": "Point", "coordinates": [ 136.743878, 35.383376 ] } },
{ "type": "Feature", "properties": { "ID": 2141344001618, "正式名称": "助産院芽出", "機関区分": 4, "都道府県コード": 21, "市区町村コード": 201, "所在地": "岐阜県岐阜市福光東３丁目１１番４号", "緯度": 35.455976, "経度": 136.773812, "url": "https://www.iryou.teikyouseido.mhlw.go.jp/znk-web/juminkanja/S2430/initialize?prefCd=21&kikanCd=1344001618&kikanKbn=4", "url2": null, "内容": "助産院芽出【4:助産院】岐阜県岐阜市福光東３丁目１１番４号" }, "geometry": { "type": "Point", "coordinates": [ 136.773812, 35.455976 ] } },
{ "type": "Feature", "properties": { "ID": 2141564006291, "正式名称": "はっとり助産院", "機関区分": 4, "都道府県コード": 21, "市区町村コード": 205, "所在地": "岐阜県関市倉知２６５ー１", "緯度": 35.477255, "経度": 136.903761, "url": "https://www.iryou.teikyouseido.mhlw.go.jp/znk-web/juminkanja/S2430/initialize?prefCd=21&kikanCd=1564006291&kikanKbn=4", "url2": null, "内容": "はっとり助産院【4:助産院】岐阜県関市倉知２６５ー１" }, "geometry": { "type": "Point", "coordinates": [ 136.903761, 35.477255 ] } },
{ "type": "Feature", "properties": { "ID": 2141564009572, "正式名称": "すみれ助産所", "機関区分": 4, "都道府県コード": 21, "市区町村コード": 205, "所在地": "岐阜県関市武芸川町八幡８１０－１", "緯度": 35.53125, "経度": 136.849071, "url": "https://www.iryou.teikyouseido.mhlw.go.jp/znk-web/juminkanja/S2430/initialize?prefCd=21&kikanCd=1564009572&kikanKbn=4", "url2": null, "内容": "すみれ助産所【4:助産院】岐阜県関市武芸川町八幡８１０－１" }, "geometry": { "type": "Point", "coordinates": [ 136.849071, 35.53125 ] } },
{ "type": "Feature", "properties": { "ID": 2141594003254, "正式名称": "助産院・はじめの一歩", "機関区分": 4, "都道府県コード": 21, "市区町村コード": 208, "所在地": "岐阜県瑞浪市上野町２ー１０６", "緯度": 35.363716, "経度": 137.248616, "url": "https://www.iryou.teikyouseido.mhlw.go.jp/znk-web/juminkanja/S2430/initialize?prefCd=21&kikanCd=1594003254&kikanKbn=4", "url2": null, "内容": "助産院・はじめの一歩【4:助産院】岐阜県瑞浪市上野町２ー１０６" }, "geometry": { "type": "Point", "coordinates": [ 137.248616, 35.363716 ] } },
{ "type": "Feature", "properties": { "ID": 2141594006016, "正式名称": "岩鼻助産院", "機関区分": 4, "都道府県コード": 21, "市区町村コード": 204, "所在地": "岐阜県多治見市宮前町２ー５０ー３", "緯度": 35.338025, "経度": 137.127636, "url": "https://www.iryou.teikyouseido.mhlw.go.jp/znk-web/juminkanja/S2430/initialize?prefCd=21&kikanCd=1594006016&kikanKbn=4", "url2": "http://www.asahi-net.or.jp/~dj9t-iwhn/", "内容": "岩鼻助産院【4:助産院】岐阜県多治見市宮前町２ー５０ー３" }, "geometry": { "type": "Point", "coordinates": [ 137.127636, 35.338025 ] } },
{ "type": "Feature", "properties": { "ID": 2141594006081, "正式名称": "横井真理子助産所", "機関区分": 4, "都道府県コード": 21, "市区町村コード": 204, "所在地": "岐阜県多治見市小名田町１－８８メゾンエイト１０２", "緯度": 35.360671, "経度": 137.129591, "url": "https://www.iryou.teikyouseido.mhlw.go.jp/znk-web/juminkanja/S2430/initialize?prefCd=21&kikanCd=1594006081&kikanKbn=4", "url2": null, "内容": "横井真理子助産所【4:助産院】岐阜県多治見市小名田町１－８８メゾンエイト１０２" }, "geometry": { "type": "Point", "coordinates": [ 137.129591, 35.360671 ] } },
{ "type": "Feature", "properties": { "ID": 2141594009751, "正式名称": "はるかぜ助産院", "機関区分": 4, "都道府県コード": 21, "市区町村コード": 208, "所在地": "岐阜県瑞浪市学園台４丁目１３ー２", "緯度": 35.355719, "経度": 137.261511, "url": "https://www.iryou.teikyouseido.mhlw.go.jp/znk-web/juminkanja/S2430/initialize?prefCd=21&kikanCd=1594009751&kikanKbn=4", "url2": null, "内容": "はるかぜ助産院【4:助産院】岐阜県瑞浪市学園台４丁目１３ー２" }, "geometry": { "type": "Point", "coordinates": [ 137.261511, 35.355719 ] } },
{ "type": "Feature", "properties": { "ID": 2141604009739, "正式名称": "けいこ助産院", "機関区分": 4, "都道府県コード": 21, "市区町村コード": 206, "所在地": "岐阜県中津川市落合３０７４－１", "緯度": 35.508033, "経度": 137.530217, "url": "https://www.iryou.teikyouseido.mhlw.go.jp/znk-web/juminkanja/S2430/initialize?prefCd=21&kikanCd=1604009739&kikanKbn=4", "url2": "https://keiko-midwifery.jp", "内容": "けいこ助産院【4:助産院】岐阜県中津川市落合３０７４－１" }, "geometry": { "type": "Point", "coordinates": [ 137.530217, 35.508033 ] } },
{ "type": "Feature", "properties": { "ID": 2141634006270, "正式名称": "空助産院", "機関区分": 4, "都道府県コード": 21, "市区町村コード": 209, "所在地": "岐阜県羽島市下中町加賀野井４８３", "緯度": 35.296334, "経度": 136.717291, "url": "https://www.iryou.teikyouseido.mhlw.go.jp/znk-web/juminkanja/S2430/initialize?prefCd=21&kikanCd=1634006270&kikanKbn=4", "url2": "ku-jyosanin.com", "内容": "空助産院【4:助産院】岐阜県羽島市下中町加賀野井４８３" }, "geometry": { "type": "Point", "coordinates": [ 136.717291, 35.296334 ] } },
{ "type": "Feature", "properties": { "ID": 2141634006389, "正式名称": "野村助産院", "機関区分": 4, "都道府県コード": 21, "市区町村コード": 213, "所在地": "岐阜県各務原市那加幸町２２１ー１", "緯度": 35.403486, "経度": 136.832695, "url": "https://www.iryou.teikyouseido.mhlw.go.jp/znk-web/juminkanja/S2430/initialize?prefCd=21&kikanCd=1634006389&kikanKbn=4", "url2": "http://nomurajosan.web.fc2.com/", "内容": "野村助産院【4:助産院】岐阜県各務原市那加幸町２２１ー１" }, "geometry": { "type": "Point", "coordinates": [ 136.832695, 35.403486 ] } },
{ "type": "Feature", "properties": { "ID": 2141634006395, "正式名称": "母乳・育児相談室　Ｍａｍｍａ　Ｍａｍａ", "機関区分": 4, "都道府県コード": 21, "市区町村コード": 216, "所在地": "岐阜県瑞穂市本田１１１６ー１", "緯度": 35.402402, "経度": 136.679533, "url": "https://www.iryou.teikyouseido.mhlw.go.jp/znk-web/juminkanja/S2430/initialize?prefCd=21&kikanCd=1634006395&kikanKbn=4", "url2": "http://mammamama.family", "内容": "母乳・育児相談室　Ｍａｍｍａ　Ｍａｍａ【4:助産院】岐阜県瑞穂市本田１１１６ー１" }, "geometry": { "type": "Point", "coordinates": [ 136.679533, 35.402402 ] } },
{ "type": "Feature", "properties": { "ID": 2141634007015, "正式名称": "ゆりかご助産院", "機関区分": 4, "都道府県コード": 21, "市区町村コード": 213, "所在地": "岐阜県各務原市蘇原大島町１丁目４９番地", "緯度": 35.415677, "経度": 136.845196, "url": "https://www.iryou.teikyouseido.mhlw.go.jp/znk-web/juminkanja/S2430/initialize?prefCd=21&kikanCd=1634007015&kikanKbn=4", "url2": "http://www.yurikago-j.com", "内容": "ゆりかご助産院【4:助産院】岐阜県各務原市蘇原大島町１丁目４９番地" }, "geometry": { "type": "Point", "coordinates": [ 136.845196, 35.415677 ] } },
{ "type": "Feature", "properties": { "ID": 2141634008088, "正式名称": "やぶき助産院　桶谷式母乳育児相談室", "機関区分": 4, "都道府県コード": 21, "市区町村コード": 215, "所在地": "岐阜県山県市高富２７５８番地５", "緯度": 35.504337, "経度": 136.791804, "url": "https://www.iryou.teikyouseido.mhlw.go.jp/znk-web/juminkanja/S2430/initialize?prefCd=21&kikanCd=1634008088&kikanKbn=4", "url2": "yabukijosanin.blog.jp", "内容": "やぶき助産院　桶谷式母乳育児相談室【4:助産院】岐阜県山県市高富２７５８番地５" }, "geometry": { "type": "Point", "coordinates": [ 136.791804, 35.504337 ] } },
{ "type": "Feature", "properties": { "ID": 2141634008359, "正式名称": "ママ・ベビーサポート　おくむら", "機関区分": 4, "都道府県コード": 21, "市区町村コード": 303, "所在地": "岐阜県羽島郡笠松町清住町４１番地３", "緯度": 35.369185, "経度": 136.757097, "url": "https://www.iryou.teikyouseido.mhlw.go.jp/znk-web/juminkanja/S2430/initialize?prefCd=21&kikanCd=1634008359&kikanKbn=4", "url2": "http://www.mama-baby.jp", "内容": "ママ・ベビーサポート　おくむら【4:助産院】岐阜県羽島郡笠松町清住町４１番地３" }, "geometry": { "type": "Point", "coordinates": [ 136.757097, 35.369185 ] } },
{ "type": "Feature", "properties": { "ID": 2141634008482, "正式名称": "ひだまり助産院", "機関区分": 4, "都道府県コード": 21, "市区町村コード": 216, "所在地": "岐阜県瑞穂市呂久１０４１番地", "緯度": 35.389744, "経度": 136.639959, "url": "https://www.iryou.teikyouseido.mhlw.go.jp/znk-web/juminkanja/S2430/initialize?prefCd=21&kikanCd=1634008482&kikanKbn=4", "url2": "http://peraichi.com/landing-pages/view/hidamari0409", "内容": "ひだまり助産院【4:助産院】岐阜県瑞穂市呂久１０４１番地" }, "geometry": { "type": "Point", "coordinates": [ 136.639959, 35.389744 ] } },
{ "type": "Feature", "properties": { "ID": 2141634009117, "正式名称": "安藤母乳育児相談室", "機関区分": 4, "都道府県コード": 21, "市区町村コード": 421, "所在地": "岐阜県本巣郡北方町北方１８８４ー８", "緯度": 35.436791, "経度": 136.684932, "url": "https://www.iryou.teikyouseido.mhlw.go.jp/znk-web/juminkanja/S2430/initialize?prefCd=21&kikanCd=1634009117&kikanKbn=4", "url2": null, "内容": "安藤母乳育児相談室【4:助産院】岐阜県本巣郡北方町北方１８８４ー８" }, "geometry": { "type": "Point", "coordinates": [ 136.684932, 35.436791 ] } },
{ "type": "Feature", "properties": { "ID": 2141634009569, "正式名称": "すずらん助産院", "機関区分": 4, "都道府県コード": 21, "市区町村コード": 213, "所在地": "岐阜県各務原市那加桜町一丁目１９番地", "緯度": 35.399581, "経度": 136.847131, "url": "https://www.iryou.teikyouseido.mhlw.go.jp/znk-web/juminkanja/S2430/initialize?prefCd=21&kikanCd=1634009569&kikanKbn=4", "url2": "https://suzuran-group.com/josanin/", "内容": "すずらん助産院【4:助産院】岐阜県各務原市那加桜町一丁目１９番地" }, "geometry": { "type": "Point", "coordinates": [ 136.847131, 35.399581 ] } },
{ "type": "Feature", "properties": { "ID": 2141634009718, "正式名称": "にこ助産院", "機関区分": 4, "都道府県コード": 21, "市区町村コード": 213, "所在地": "岐阜県各務原市川島渡町６１６番地２", "緯度": 35.361364, "経度": 136.810966, "url": "https://www.iryou.teikyouseido.mhlw.go.jp/znk-web/juminkanja/S2430/initialize?prefCd=21&kikanCd=1634009718&kikanKbn=4", "url2": "http://noco-jyosanin.com/", "内容": "にこ助産院【4:助産院】岐阜県各務原市川島渡町６１６番地２" }, "geometry": { "type": "Point", "coordinates": [ 136.810966, 35.361364 ] } },
{ "type": "Feature", "properties": { "ID": 2141634010128, "正式名称": "すずらん助産院", "機関区分": 4, "都道府県コード": 21, "市区町村コード": 213, "所在地": "岐阜県各務原市那加門前町３丁目３９番地シャトー８８　２Ｂ", "緯度": 35.399331, "経度": 136.844153, "url": "https://www.iryou.teikyouseido.mhlw.go.jp/znk-web/juminkanja/S2430/initialize?prefCd=21&kikanCd=1634010128&kikanKbn=4", "url2": "https://suzuran-group.com/jyosanin/", "内容": "すずらん助産院【4:助産院】岐阜県各務原市那加門前町３丁目３９番地シャトー８８　２Ｂ" }, "geometry": { "type": "Point", "coordinates": [ 136.844153, 35.399331 ] } },
{ "type": "Feature", "properties": { "ID": 2141644006435, "正式名称": "ママケアいとう助産所", "機関区分": 4, "都道府県コード": 21, "市区町村コード": 341, "所在地": "岐阜県養老郡養老町高田９２６ー１ヴィラ丸吉Ｐａｒｔ２", "緯度": 35.309224, "経度": 136.561813, "url": "https://www.iryou.teikyouseido.mhlw.go.jp/znk-web/juminkanja/S2430/initialize?prefCd=21&kikanCd=1644006435&kikanKbn=4", "url2": null, "内容": "ママケアいとう助産所【4:助産院】岐阜県養老郡養老町高田９２６ー１ヴィラ丸吉Ｐａｒｔ２" }, "geometry": { "type": "Point", "coordinates": [ 136.561813, 35.309224 ] } },
{ "type": "Feature", "properties": { "ID": 2141644008416, "正式名称": "母乳・育児相談室　さんばさん", "機関区分": 4, "都道府県コード": 21, "市区町村コード": 202, "所在地": "岐阜県大垣市熊野町４ー８６", "緯度": 35.376931, "経度": 136.587218, "url": "https://www.iryou.teikyouseido.mhlw.go.jp/znk-web/juminkanja/S2430/initialize?prefCd=21&kikanCd=1644008416&kikanKbn=4", "url2": "https://sun-ba-sun.com/", "内容": "母乳・育児相談室　さんばさん【4:助産院】岐阜県大垣市熊野町４ー８６" }, "geometry": { "type": "Point", "coordinates": [ 136.587218, 35.376931 ] } },
{ "type": "Feature", "properties": { "ID": 2141644008687, "正式名称": "母乳育児相談　まんまるケア", "機関区分": 4, "都道府県コード": 21, "市区町村コード": 404, "所在地": "岐阜県揖斐郡池田町田畑７４７－１４", "緯度": 35.429533, "経度": 136.566878, "url": "https://www.iryou.teikyouseido.mhlw.go.jp/znk-web/juminkanja/S2430/initialize?prefCd=21&kikanCd=1644008687&kikanKbn=4", "url2": "http://manmaru-care7.webnode.jp/", "内容": "母乳育児相談　まんまるケア【4:助産院】岐阜県揖斐郡池田町田畑７４７－１４" }, "geometry": { "type": "Point", "coordinates": [ 136.566878, 35.429533 ] } },
{ "type": "Feature", "properties": { "ID": 2141644009644, "正式名称": "ふくまる母乳育児相談室", "機関区分": 4, "都道府県コード": 21, "市区町村コード": 202, "所在地": "岐阜県大垣市中川町", "緯度": 35.38093, "経度": 136.617204, "url": "https://www.iryou.teikyouseido.mhlw.go.jp/znk-web/juminkanja/S2430/initialize?prefCd=21&kikanCd=1644009644&kikanKbn=4", "url2": "https://fukumaru-breastfeeding.com", "内容": "ふくまる母乳育児相談室【4:助産院】岐阜県大垣市中川町" }, "geometry": { "type": "Point", "coordinates": [ 136.617204, 35.38093 ] } },
{ "type": "Feature", "properties": { "ID": 2141644010070, "正式名称": "Ｍａｍａ’ｓ　ケアルーム　あすなろ", "機関区分": 4, "都道府県コード": 21, "市区町村コード": 202, "所在地": "岐阜県大垣市寺内町４丁目１６番地", "緯度": 35.356978, "経度": 136.614214, "url": "https://www.iryou.teikyouseido.mhlw.go.jp/znk-web/juminkanja/S2430/initialize?prefCd=21&kikanCd=1644010070&kikanKbn=4", "url2": null, "内容": "Ｍａｍａ’ｓ　ケアルーム　あすなろ【4:助産院】岐阜県大垣市寺内町４丁目１６番地" }, "geometry": { "type": "Point", "coordinates": [ 136.614214, 35.356978 ] } },
{ "type": "Feature", "properties": { "ID": 2141654003239, "正式名称": "東白川母子健康センター", "機関区分": 4, "都道府県コード": 21, "市区町村コード": 507, "所在地": "岐阜県加茂郡東白川村神土６９２ー２", "緯度": 35.644852, "経度": 137.33136, "url": "https://www.iryou.teikyouseido.mhlw.go.jp/znk-web/juminkanja/S2430/initialize?prefCd=21&kikanCd=1654003239&kikanKbn=4", "url2": null, "内容": "東白川母子健康センター【4:助産院】岐阜県加茂郡東白川村神土６９２ー２" }, "geometry": { "type": "Point", "coordinates": [ 137.33136, 35.644852 ] } },
{ "type": "Feature", "properties": { "ID": 2141654007033, "正式名称": "若尾助産院", "機関区分": 4, "都道府県コード": 21, "市区町村コード": 211, "所在地": "岐阜県美濃加茂市森山町３ー１０ー７", "緯度": 35.458144, "経度": 137.051146, "url": "https://www.iryou.teikyouseido.mhlw.go.jp/znk-web/juminkanja/S2430/initialize?prefCd=21&kikanCd=1654007033&kikanKbn=4", "url2": null, "内容": "若尾助産院【4:助産院】岐阜県美濃加茂市森山町３ー１０ー７" }, "geometry": { "type": "Point", "coordinates": [ 137.051146, 35.458144 ] } },
{ "type": "Feature", "properties": { "ID": 2141654007623, "正式名称": "助産院　凮のいろ", "機関区分": 4, "都道府県コード": 21, "市区町村コード": 503, "所在地": "岐阜県加茂郡川辺町比久見１２７８－８", "緯度": 35.499337, "経度": 137.082268, "url": "https://www.iryou.teikyouseido.mhlw.go.jp/znk-web/juminkanja/S2430/initialize?prefCd=21&kikanCd=1654007623&kikanKbn=4", "url2": null, "内容": "助産院　凮のいろ【4:助産院】岐阜県加茂郡川辺町比久見１２７８－８" }, "geometry": { "type": "Point", "coordinates": [ 137.082268, 35.499337 ] } },
{ "type": "Feature", "properties": { "ID": 2141654007830, "正式名称": "田村母乳ケアハウス", "機関区分": 4, "都道府県コード": 21, "市区町村コード": 214, "所在地": "岐阜県可児市光陽台５丁目６５", "緯度": 35.383592, "経度": 137.012927, "url": "https://www.iryou.teikyouseido.mhlw.go.jp/znk-web/juminkanja/S2430/initialize?prefCd=21&kikanCd=1654007830&kikanKbn=4", "url2": "http://tamuracarehouse.com", "内容": "田村母乳ケアハウス【4:助産院】岐阜県可児市光陽台５丁目６５" }, "geometry": { "type": "Point", "coordinates": [ 137.012927, 35.383592 ] } },
{ "type": "Feature", "properties": { "ID": 2141664003266, "正式名称": "水川助産院", "機関区分": 4, "都道府県コード": 21, "市区町村コード": 203, "所在地": "岐阜県高山市名田町３ー８６", "緯度": 36.137631, "経度": 137.255121, "url": "https://www.iryou.teikyouseido.mhlw.go.jp/znk-web/juminkanja/S2430/initialize?prefCd=21&kikanCd=1664003266&kikanKbn=4", "url2": "http://mizukawa-oketani.com", "内容": "水川助産院【4:助産院】岐阜県高山市名田町３ー８６" }, "geometry": { "type": "Point", "coordinates": [ 137.255121, 36.137631 ] } },
{ "type": "Feature", "properties": { "ID": 2141664003267, "正式名称": "吉川母乳相談室", "機関区分": 4, "都道府県コード": 21, "市区町村コード": 203, "所在地": "岐阜県高山市清見町牧ケ洞４４４６－７", "緯度": 36.136724, "経度": 137.178193, "url": "https://www.iryou.teikyouseido.mhlw.go.jp/znk-web/juminkanja/S2430/initialize?prefCd=21&kikanCd=1664003267&kikanKbn=4", "url2": null, "内容": "吉川母乳相談室【4:助産院】岐阜県高山市清見町牧ケ洞４４４６－７" }, "geometry": { "type": "Point", "coordinates": [ 137.178193, 36.136724 ] } },
{ "type": "Feature", "properties": { "ID": 2141664007859, "正式名称": "かまむら母乳育児相談室", "機関区分": 4, "都道府県コード": 21, "市区町村コード": 217, "所在地": "岐阜県飛騨市古川町増島町１ー１３", "緯度": 36.23231, "経度": 137.19135, "url": "https://www.iryou.teikyouseido.mhlw.go.jp/znk-web/juminkanja/S2430/initialize?prefCd=21&kikanCd=1664007859&kikanKbn=4", "url2": null, "内容": "かまむら母乳育児相談室【4:助産院】岐阜県飛騨市古川町増島町１ー１３" }, "geometry": { "type": "Point", "coordinates": [ 137.19135, 36.23231 ] } },
{ "type": "Feature", "properties": { "ID": 2141664008307, "正式名称": "こばやし母乳育児相談室", "機関区分": 4, "都道府県コード": 21, "市区町村コード": 220, "所在地": "岐阜県下呂市萩原町桜洞１６２７－６", "緯度": 35.878716, "経度": 137.214261, "url": "https://www.iryou.teikyouseido.mhlw.go.jp/znk-web/juminkanja/S2430/initialize?prefCd=21&kikanCd=1664008307&kikanKbn=4", "url2": null, "内容": "こばやし母乳育児相談室【4:助産院】岐阜県下呂市萩原町桜洞１６２７－６" }, "geometry": { "type": "Point", "coordinates": [ 137.214261, 35.878716 ] } },
{ "type": "Feature", "properties": { "ID": 2141664008585, "正式名称": "助産院　なお", "機関区分": 4, "都道府県コード": 21, "市区町村コード": 203, "所在地": "岐阜県高山市国府町宇津江２２４３番地１４", "緯度": 36.21603, "経度": 137.199811, "url": "https://www.iryou.teikyouseido.mhlw.go.jp/znk-web/juminkanja/S2430/initialize?prefCd=21&kikanCd=1664008585&kikanKbn=4", "url2": "https://josaninnao.com", "内容": "助産院　なお【4:助産院】岐阜県高山市国府町宇津江２２４３番地１４" }, "geometry": { "type": "Point", "coordinates": [ 137.199811, 36.21603 ] } },
{ "type": "Feature", "properties": { "ID": 2141664008807, "正式名称": "江名子助産院", "機関区分": 4, "都道府県コード": 21, "市区町村コード": 203, "所在地": "岐阜県高山市島川原町４６", "緯度": 36.141228, "経度": 137.264778, "url": "https://www.iryou.teikyouseido.mhlw.go.jp/znk-web/juminkanja/S2430/initialize?prefCd=21&kikanCd=1664008807&kikanKbn=4", "url2": null, "内容": "江名子助産院【4:助産院】岐阜県高山市島川原町４６" }, "geometry": { "type": "Point", "coordinates": [ 137.264778, 36.141228 ] } },
{ "type": "Feature", "properties": { "ID": 2141664009364, "正式名称": "さるぼぼ助産院", "機関区分": 4, "都道府県コード": 21, "市区町村コード": 203, "所在地": "岐阜県高山市松之木町２９５ー３", "緯度": 36.150781, "経度": 137.270799, "url": "https://www.iryou.teikyouseido.mhlw.go.jp/znk-web/juminkanja/S2430/initialize?prefCd=21&kikanCd=1664009364&kikanKbn=4", "url2": null, "内容": "さるぼぼ助産院【4:助産院】岐阜県高山市松之木町２９５ー３" }, "geometry": { "type": "Point", "coordinates": [ 137.270799, 36.150781 ] } },
{ "type": "Feature", "properties": { "ID": 2141664009378, "正式名称": "助産院なお分院", "機関区分": 4, "都道府県コード": 21, "市区町村コード": 217, "所在地": "岐阜県飛騨市古川町向町３丁目６−１２", "緯度": 36.23302, "経度": 137.186867, "url": "https://www.iryou.teikyouseido.mhlw.go.jp/znk-web/juminkanja/S2430/initialize?prefCd=21&kikanCd=1664009378&kikanKbn=4", "url2": null, "内容": "助産院なお分院【4:助産院】岐阜県飛騨市古川町向町３丁目６−１２" }, "geometry": { "type": "Point", "coordinates": [ 137.186867, 36.23302 ] } },
{ "type": "Feature", "properties": { "ID": 2141664010159, "正式名称": "助産院　ママのひととき", "機関区分": 4, "都道府県コード": 21, "市区町村コード": 220, "所在地": "岐阜県下呂市乗政", "緯度": 35.804837, "経度": 137.302166, "url": "https://www.iryou.teikyouseido.mhlw.go.jp/znk-web/juminkanja/S2430/initialize?prefCd=21&kikanCd=1664010159&kikanKbn=4", "url2": "https://www.instagram.com/mamanohitotoki", "内容": "助産院　ママのひととき【4:助産院】岐阜県下呂市乗政" }, "geometry": { "type": "Point", "coordinates": [ 137.302166, 35.804837 ] } },
{ "type": "Feature", "properties": { "ID": 2142100018, "正式名称": "にこ助産院", "機関区分": 4, "都道府県コード": 21, "市区町村コード": 213, "所在地": "岐阜県各務原市各務原市川島渡町６１６番地２", "緯度": 35.361333, "経度": 136.810953, "url": "https://www.iryou.teikyouseido.mhlw.go.jp/znk-web/juminkanja/S2430/initialize?prefCd=21&kikanCd=2100018&kikanKbn=4", "url2": "https://nico-jyosanin.com/", "内容": "にこ助産院【4:助産院】岐阜県各務原市各務原市川島渡町６１６番地２" }, "geometry": { "type": "Point", "coordinates": [ 136.810953, 35.361333 ] } }
]
}
