{
"type": "FeatureCollection",
"name": "geo_21_通所リハビリテーション",
"crs": { "type": "name", "properties": { "name": "urn:ogc:def:crs:OGC:1.3:CRS84" } },
"features": [
{ "type": "Feature", "properties": { "内容": "渡辺病院短時間デイケアセンター【通所リハビリテーション】岐阜県岐阜市加納城南通り1丁目23番地加納渡辺病院", "url": "https://www.kaigokensaku.mhlw.go.jp/21/index.php?action_kouhyou_detail_004_kani=true&JigyosyoCd=2110104276-00&ServiceCd=160&Type=search", "url2": "https://kano-watanabe.jp/" }, "geometry": { "type": "Point", "coordinates": [ 136.760064976057436, 35.397764863159487 ] } },
{ "type": "Feature", "properties": { "内容": "医療法人社団幸紀会　安江病院【通所リハビリテーション】岐阜県岐阜市鏡島西2丁目4番14号", "url": "https://www.kaigokensaku.mhlw.go.jp/21/index.php?action_kouhyou_detail_004_kani=true&JigyosyoCd=2110104896-00&ServiceCd=160&Type=search", "url2": "http://www.koukikai.gr.jp/medical_top/guide/yasuehospital/" }, "geometry": { "type": "Point", "coordinates": [ 136.716293899999982, 35.4090357 ] } },
{ "type": "Feature", "properties": { "内容": "今井整形外科デイ・ケア【通所リハビリテーション】岐阜県岐阜市三田洞904-1", "url": "https://www.kaigokensaku.mhlw.go.jp/21/index.php?action_kouhyou_detail_004_kani=true&JigyosyoCd=2110106495-00&ServiceCd=160&Type=search", "url2": "http://imai-seikei.or.jp" }, "geometry": { "type": "Point", "coordinates": [ 136.784483200000068, 35.4795656 ] } },
{ "type": "Feature", "properties": { "内容": "はしもと内科【通所リハビリテーション】岐阜県岐阜市岩地1丁目2番10号", "url": "https://www.kaigokensaku.mhlw.go.jp/21/index.php?action_kouhyou_detail_004_kani=true&JigyosyoCd=2110106586-00&ServiceCd=160&Type=search", "url2": "https://gifu-hashimotonaika.com/sisetu.html#link1" }, "geometry": { "type": "Point", "coordinates": [ 136.807527099999987, 35.4105616 ] } },
{ "type": "Feature", "properties": { "内容": "青木内科眼科通所リハビリテーション事業所【通所リハビリテーション】岐阜県岐阜市則武中3丁目5番15号", "url": "https://www.kaigokensaku.mhlw.go.jp/21/index.php?action_kouhyou_detail_004_kani=true&JigyosyoCd=2110108475-00&ServiceCd=160&Type=search", "url2": "http://bluefriends.or.jp/" }, "geometry": { "type": "Point", "coordinates": [ 136.739691900000025, 35.4437674 ] } },
{ "type": "Feature", "properties": { "内容": "メディカルジム阿吽【通所リハビリテーション】岐阜県岐阜市八代3丁目10番12号長良整形外科クリニック２階リハビリ室内", "url": "https://www.kaigokensaku.mhlw.go.jp/21/index.php?action_kouhyou_detail_004_kani=true&JigyosyoCd=2110109895-00&ServiceCd=160&Type=search", "url2": null }, "geometry": { "type": "Point", "coordinates": [ 136.775312368122826, 35.460807939765594 ] } },
{ "type": "Feature", "properties": { "内容": "松岡整形外科・内科　リハビリテーション【通所リハビリテーション】岐阜県岐阜市東金宝町2丁目12-6", "url": "https://www.kaigokensaku.mhlw.go.jp/21/index.php?action_kouhyou_detail_004_kani=true&JigyosyoCd=2110110133-00&ServiceCd=160&Type=search", "url2": "http://zuihokai-group.jp/" }, "geometry": { "type": "Point", "coordinates": [ 136.762178799999987, 35.4146688 ] } },
{ "type": "Feature", "properties": { "内容": "たろう整形外科【通所リハビリテーション】岐阜県岐阜市鷺山1768-580", "url": "https://www.kaigokensaku.mhlw.go.jp/21/index.php?action_kouhyou_detail_004_kani=true&JigyosyoCd=2110111941-00&ServiceCd=160&Type=search", "url2": "http://www.taro-seikei.jp" }, "geometry": { "type": "Point", "coordinates": [ 136.750593764418028, 35.44619862473899 ] } },
{ "type": "Feature", "properties": { "内容": "医療法人ゆきわ会　ほそばたクリニック【通所リハビリテーション】岐阜県岐阜市細畑3－15－10", "url": "https://www.kaigokensaku.mhlw.go.jp/21/index.php?action_kouhyou_detail_004_kani=true&JigyosyoCd=2110112311-00&ServiceCd=160&Type=search", "url2": "https://www.hosobataclinic.com/rehabilitation/" }, "geometry": { "type": "Point", "coordinates": [ 136.79031770000006, 35.4032553 ] } },
{ "type": "Feature", "properties": { "内容": "千手堂病院デイケアセンター【通所リハビリテーション】岐阜県岐阜市菅原町2丁目21番", "url": "https://www.kaigokensaku.mhlw.go.jp/21/index.php?action_kouhyou_detail_004_kani=true&JigyosyoCd=2110113053-00&ServiceCd=160&Type=search", "url2": "https://www.senjyudo.com/homecare/rehabilitation/" }, "geometry": { "type": "Point", "coordinates": [ 136.7545053, 35.4221095 ] } },
{ "type": "Feature", "properties": { "内容": "介護老人保健施設岐阜リハビリテーションホーム【通所リハビリテーション】岐阜県岐阜市黒野181番地", "url": "https://www.kaigokensaku.mhlw.go.jp/21/index.php?action_kouhyou_detail_004_kani=true&JigyosyoCd=2150180012-00&ServiceCd=160&Type=search", "url2": "http://www.gifurehahome.com" }, "geometry": { "type": "Point", "coordinates": [ 136.726454, 35.4593036 ] } },
{ "type": "Feature", "properties": { "内容": "介護老人保健施設カワムラコート【通所リハビリテーション】岐阜県岐阜市芥見大般若1丁目105番地", "url": "https://www.kaigokensaku.mhlw.go.jp/21/index.php?action_kouhyou_detail_004_kani=true&JigyosyoCd=2150180046-00&ServiceCd=160&Type=search", "url2": "http://www.kawamuramedical.or.jp/" }, "geometry": { "type": "Point", "coordinates": [ 136.844329321426386, 35.438405717336714 ] } },
{ "type": "Feature", "properties": { "内容": "介護老人保健施設長良川ビラ【通所リハビリテーション】岐阜県岐阜市又丸６７番地７", "url": "https://www.kaigokensaku.mhlw.go.jp/21/index.php?action_kouhyou_detail_004_kani=true&JigyosyoCd=2150180061-00&ServiceCd=160&Type=search", "url2": "http://www.kyowakai.or.jp" }, "geometry": { "type": "Point", "coordinates": [ 136.704152900000054, 35.4411617 ] } },
{ "type": "Feature", "properties": { "内容": "寺田ガーデン【通所リハビリテーション】岐阜県岐阜市寺田７丁目７７番地", "url": "https://www.kaigokensaku.mhlw.go.jp/21/index.php?action_kouhyou_detail_004_kani=true&JigyosyoCd=2150180079-00&ServiceCd=160&Type=search", "url2": "http://www.wakokai.or.jp" }, "geometry": { "type": "Point", "coordinates": [ 136.700164659524518, 35.419769110289614 ] } },
{ "type": "Feature", "properties": { "内容": "介護老人保健施設サワダケアセンター【通所リハビリテーション】岐阜県岐阜市野一色7丁目12番2号", "url": "https://www.kaigokensaku.mhlw.go.jp/21/index.php?action_kouhyou_detail_004_kani=true&JigyosyoCd=2150180087-00&ServiceCd=160&Type=search", "url2": "http://www.sawada-care.jp/" }, "geometry": { "type": "Point", "coordinates": [ 136.807271300000025, 35.4175718 ] } },
{ "type": "Feature", "properties": { "内容": "介護老人保健施設グリーンビラ安江【通所リハビリテーション】岐阜県岐阜市鏡島南1丁目2番38号", "url": "https://www.kaigokensaku.mhlw.go.jp/21/index.php?action_kouhyou_detail_004_kani=true&JigyosyoCd=2150180095-00&ServiceCd=160&Type=search", "url2": "http://www.koukikai.gr.jp" }, "geometry": { "type": "Point", "coordinates": [ 136.7173464, 35.4084915 ] } },
{ "type": "Feature", "properties": { "内容": "介護老人保健施設喜の里【通所リハビリテーション】岐阜県岐阜市中鶉２丁目９９番地", "url": "https://www.kaigokensaku.mhlw.go.jp/21/index.php?action_kouhyou_detail_004_kani=true&JigyosyoCd=2150180103-00&ServiceCd=160&Type=search", "url2": "http://www.seiyuukai.or.jp" }, "geometry": { "type": "Point", "coordinates": [ 136.73427209999997, 35.3839871 ] } },
{ "type": "Feature", "properties": { "内容": "介護老人保健施設いこいの里２号館【通所リハビリテーション】岐阜県岐阜市岩滝東１丁目９１番地", "url": "https://www.kaigokensaku.mhlw.go.jp/21/index.php?action_kouhyou_detail_004_kani=true&JigyosyoCd=2150180111-00&ServiceCd=160&Type=search", "url2": "https://kenseikai-iryou.com" }, "geometry": { "type": "Point", "coordinates": [ 136.850268699999987, 35.4268739 ] } },
{ "type": "Feature", "properties": { "内容": "介護老人保健施設ハートケア松岡【通所リハビリテーション】岐阜県岐阜市長旗町1-8", "url": "https://www.kaigokensaku.mhlw.go.jp/21/index.php?action_kouhyou_detail_004_kani=true&JigyosyoCd=2150180129-00&ServiceCd=160&Type=search", "url2": "http://www.zuihokai-group.jp" }, "geometry": { "type": "Point", "coordinates": [ 136.7607984, 35.4145716 ] } },
{ "type": "Feature", "properties": { "内容": "山内ホスピタル介護老人保健施設通所リハビリテーション【通所リハビリテーション】岐阜県岐阜市薮田南４丁目１５番１６号", "url": "https://www.kaigokensaku.mhlw.go.jp/21/index.php?action_kouhyou_detail_004_kani=true&JigyosyoCd=2150180186-00&ServiceCd=160&Type=search", "url2": "https://rouken.kanamekai.com/" }, "geometry": { "type": "Point", "coordinates": [ 136.718035800000052, 35.389838400000023 ] } },
{ "type": "Feature", "properties": { "内容": "介護老人保健施設ロアジかねまつ【通所リハビリテーション】岐阜県岐阜市柳津町下佐波西1丁目4番地", "url": "https://www.kaigokensaku.mhlw.go.jp/21/index.php?action_kouhyou_detail_004_kani=true&JigyosyoCd=2150680029-00&ServiceCd=160&Type=search", "url2": "http://www.roaji.or.jp/index.html" }, "geometry": { "type": "Point", "coordinates": [ 136.716108800000029, 35.36486350000002 ] } },
{ "type": "Feature", "properties": { "内容": "渡辺病院デイケアセンター【通所リハビリテーション】岐阜県岐阜市加納城南通1丁目21番地", "url": "https://www.kaigokensaku.mhlw.go.jp/21/index.php?action_kouhyou_detail_004_kani=true&JigyosyoCd=2170104505-00&ServiceCd=160&Type=search", "url2": "http://kano-watanabe.jp" }, "geometry": { "type": "Point", "coordinates": [ 136.760401799999954, 35.3978237 ] } },
{ "type": "Feature", "properties": { "内容": "リハビリセンター自在【通所リハビリテーション】岐阜県岐阜市八代3丁目1番9号", "url": "https://www.kaigokensaku.mhlw.go.jp/21/index.php?action_kouhyou_detail_004_kani=true&JigyosyoCd=2170105429-00&ServiceCd=160&Type=search", "url2": "https://rihabiri-jizai.jimdofree.com/" }, "geometry": { "type": "Point", "coordinates": [ 136.775528374923653, 35.460384715383313 ] } },
{ "type": "Feature", "properties": { "内容": "山田メディカルクリニック　リハビリセンター【通所リハビリテーション】岐阜県岐阜市東金宝町1-12山田メディカルクリニック", "url": "https://www.kaigokensaku.mhlw.go.jp/21/index.php?action_kouhyou_detail_004_kani=true&JigyosyoCd=2170112557-00&ServiceCd=160&Type=search", "url2": "http://www.wakokai.or.jp" }, "geometry": { "type": "Point", "coordinates": [ 136.760381700000039, 35.4148383 ] } },
{ "type": "Feature", "properties": { "内容": "すこやか診療所通所リハビリ【通所リハビリテーション】岐阜県岐阜市北山1-13-11", "url": "https://www.kaigokensaku.mhlw.go.jp/21/index.php?action_kouhyou_detail_004_kani=true&JigyosyoCd=2170113704-00&ServiceCd=160&Type=search", "url2": "https://gifu-min.jp/midori/page_520.html" }, "geometry": { "type": "Point", "coordinates": [ 136.85326740000005, 35.4581368 ] } },
{ "type": "Feature", "properties": { "内容": "リハビリセンター独歩【通所リハビリテーション】岐阜県岐阜市八代３丁目８番１１号", "url": "https://www.kaigokensaku.mhlw.go.jp/21/index.php?action_kouhyou_detail_004_kani=true&JigyosyoCd=2170114470-00&ServiceCd=160&Type=search", "url2": null }, "geometry": { "type": "Point", "coordinates": [ 136.775096499999989, 35.4603432 ] } },
{ "type": "Feature", "properties": { "内容": "医療法人社団　やまが整形外科　デイケアセンター【通所リハビリテーション】岐阜県岐阜市真砂町9丁目15番地", "url": "https://www.kaigokensaku.mhlw.go.jp/21/index.php?action_kouhyou_detail_004_kani=true&JigyosyoCd=2110107873-00&ServiceCd=160&Type=search", "url2": "http://www.yamaga-seikei.com/" }, "geometry": { "type": "Point", "coordinates": [ 136.752968499999952, 35.418583635395485 ] } },
{ "type": "Feature", "properties": { "内容": "介護老人保健施設ケアコートみやこ【通所リハビリテーション】岐阜県岐阜市都通3丁目17-1", "url": "https://www.kaigokensaku.mhlw.go.jp/21/index.php?action_kouhyou_detail_004_kani=true&JigyosyoCd=2150180137-00&ServiceCd=160&Type=search", "url2": "https://www.tomoikikai.net" }, "geometry": { "type": "Point", "coordinates": [ 136.74671950000004, 35.4175045 ] } },
{ "type": "Feature", "properties": { "内容": "デイケアセンターなごみ野【通所リハビリテーション】岐阜県岐阜市則武4丁目2番6号", "url": "https://www.kaigokensaku.mhlw.go.jp/21/index.php?action_kouhyou_detail_004_kani=true&JigyosyoCd=2150180160-00&ServiceCd=160&Type=search", "url2": "http://kaigo.touhoukai.or.jp" }, "geometry": { "type": "Point", "coordinates": [ 136.751997507995611, 35.442004826155866 ] } },
{ "type": "Feature", "properties": { "内容": "大垣中央病院【通所リハビリテーション】岐阜県大垣市見取町４－２", "url": "https://www.kaigokensaku.mhlw.go.jp/21/index.php?action_kouhyou_detail_004_kani=true&JigyosyoCd=2112102161-00&ServiceCd=160&Type=search", "url2": "http://www.oogakichuou.com/" }, "geometry": { "type": "Point", "coordinates": [ 136.614966399999958, 35.3658975 ] } },
{ "type": "Feature", "properties": { "内容": "しずさと診療所　通所リハビリテーション【通所リハビリテーション】岐阜県大垣市久徳町153-1", "url": "https://www.kaigokensaku.mhlw.go.jp/21/index.php?action_kouhyou_detail_004_kani=true&JigyosyoCd=2112102989-00&ServiceCd=160&Type=search", "url2": "http://www.seinou.coop/shizusato/" }, "geometry": { "type": "Point", "coordinates": [ 136.591050600000017, 35.3643607 ] } },
{ "type": "Feature", "properties": { "内容": "城北整形外科クリニック【通所リハビリテーション】岐阜県大垣市桐ヶ崎町８０番地", "url": "https://www.kaigokensaku.mhlw.go.jp/21/index.php?action_kouhyou_detail_004_kani=true&JigyosyoCd=2112103573-00&ServiceCd=160&Type=search", "url2": "https://www.oogaki-joholuseikeigeka-clinic.com" }, "geometry": { "type": "Point", "coordinates": [ 136.614897, 35.3643421 ] } },
{ "type": "Feature", "properties": { "内容": "老人保健施設　西濃【通所リハビリテーション】岐阜県大垣市藤江町６丁目３番地の１", "url": "https://www.kaigokensaku.mhlw.go.jp/21/index.php?action_kouhyou_detail_004_kani=true&JigyosyoCd=2152180010-00&ServiceCd=160&Type=search", "url2": "http://www.bijyoukai.dr-clinic.jp/rouken/" }, "geometry": { "type": "Point", "coordinates": [ 136.6239402, 35.3631064 ] } },
{ "type": "Feature", "properties": { "内容": "介護老人保健施設　サットヴァの園【通所リハビリテーション】岐阜県大垣市多芸島１丁目127-1", "url": "https://www.kaigokensaku.mhlw.go.jp/21/index.php?action_kouhyou_detail_004_kani=true&JigyosyoCd=2152180036-00&ServiceCd=160&Type=search", "url2": "http://sattova.info/" }, "geometry": { "type": "Point", "coordinates": [ 136.596173, 35.3314365 ] } },
{ "type": "Feature", "properties": { "内容": "老人保健施設セイ・ウインド大垣【通所リハビリテーション】岐阜県大垣市宿地町１００８－４", "url": "https://www.kaigokensaku.mhlw.go.jp/21/index.php?action_kouhyou_detail_004_kani=true&JigyosyoCd=2152180044-00&ServiceCd=160&Type=search", "url2": null }, "geometry": { "type": "Point", "coordinates": [ 136.607984, 35.3768292 ] } },
{ "type": "Feature", "properties": { "内容": "医療法人徳洲会　大垣徳洲会病院　通所リハビリテーション【通所リハビリテーション】岐阜県大垣市林町６丁目８５－１", "url": "https://www.kaigokensaku.mhlw.go.jp/21/index.php?action_kouhyou_detail_004_kani=true&JigyosyoCd=2112103391-00&ServiceCd=160&Type=search", "url2": "http://www.ogaki.tokushukai.or.jp/" }, "geometry": { "type": "Point", "coordinates": [ 136.617622377909811, 35.37250681267971 ] } },
{ "type": "Feature", "properties": { "内容": "介護老人保健施設それいゆ【通所リハビリテーション】岐阜県高山市桐生町4丁目268番地", "url": "https://www.kaigokensaku.mhlw.go.jp/21/index.php?action_kouhyou_detail_004_kani=true&JigyosyoCd=2152780025-00&ServiceCd=160&Type=search", "url2": "http://www.ori-doujinkai.or.jp/day/" }, "geometry": { "type": "Point", "coordinates": [ 137.248486800000023, 36.1550058 ] } },
{ "type": "Feature", "properties": { "内容": "高山赤十字介護老人保健施設はなさと【通所リハビリテーション】岐阜県高山市花里町2丁目67番地", "url": "https://www.kaigokensaku.mhlw.go.jp/21/index.php?action_kouhyou_detail_004_kani=true&JigyosyoCd=2152780033-00&ServiceCd=160&Type=search", "url2": "http://www.takayama.jrc.or.jp/patient/kaigo/hanasato/index.html" }, "geometry": { "type": "Point", "coordinates": [ 137.252339799999959, 36.1365081 ] } },
{ "type": "Feature", "properties": { "内容": "奥飛騨温泉老人保健施設　穂高の庭【通所リハビリテーション】岐阜県高山市奥飛騨温泉郷一重ヶ根205", "url": "https://www.kaigokensaku.mhlw.go.jp/21/index.php?action_kouhyou_detail_004_kani=true&JigyosyoCd=2152780041-00&ServiceCd=160&Type=search", "url2": "http://tyojyu.jp/hotaka/" }, "geometry": { "type": "Point", "coordinates": [ 137.531408899999974, 36.2289793 ] } },
{ "type": "Feature", "properties": { "内容": "介護老人保健施設アルカディア【通所リハビリテーション】岐阜県高山市国府町村山249番地1", "url": "https://www.kaigokensaku.mhlw.go.jp/21/index.php?action_kouhyou_detail_004_kani=true&JigyosyoCd=2153080011-00&ServiceCd=160&Type=search", "url2": "http://www.suda-hos.com/arcadia/" }, "geometry": { "type": "Point", "coordinates": [ 137.25063339999997, 36.1973145 ] } },
{ "type": "Feature", "properties": { "内容": "介護老人保健施設　香蘭荘【通所リハビリテーション】岐阜県高山市国府町三川1202番地５", "url": "https://www.kaigokensaku.mhlw.go.jp/21/index.php?action_kouhyou_detail_004_kani=true&JigyosyoCd=2153080029-00&ServiceCd=160&Type=search", "url2": "http://www.kouranso.com" }, "geometry": { "type": "Point", "coordinates": [ 137.260335299999952, 36.1922821 ] } },
{ "type": "Feature", "properties": { "内容": "医療法人仁寿会タジミ第一病院　短時間通所リハビリテーション【通所リハビリテーション】岐阜県多治見市小名田町西ヶ洞1-648", "url": "https://www.kaigokensaku.mhlw.go.jp/21/index.php?action_kouhyou_detail_004_kani=true&JigyosyoCd=2111101529-00&ServiceCd=160&Type=search", "url2": "http://www.i-jinjukai.or.jp/" }, "geometry": { "type": "Point", "coordinates": [ 137.1182452, 35.3654401 ] } },
{ "type": "Feature", "properties": { "内容": "介護老人保健施設　メモリアル光陽【通所リハビリテーション】岐阜県多治見市大畑町大洞３９番地の１", "url": "https://www.kaigokensaku.mhlw.go.jp/21/index.php?action_kouhyou_detail_004_kani=true&JigyosyoCd=2151180011-00&ServiceCd=160&Type=search", "url2": "https://www.memokou.or.jp" }, "geometry": { "type": "Point", "coordinates": [ 137.124197200000026, 35.3146459 ] } },
{ "type": "Feature", "properties": { "内容": "医療法人仁寿会介護老人保健施設アルマ・マータ【通所リハビリテーション】岐阜県多治見市小名田町西ヶ洞７１－１", "url": "https://www.kaigokensaku.mhlw.go.jp/21/index.php?action_kouhyou_detail_004_kani=true&JigyosyoCd=2151180029-00&ServiceCd=160&Type=search", "url2": "http://www.i-jinjukai.or.jp" }, "geometry": { "type": "Point", "coordinates": [ 137.12101830000006, 35.3636155 ] } },
{ "type": "Feature", "properties": { "内容": "デイケアセンターなでしこ【通所リハビリテーション】岐阜県多治見市旭ヶ丘7-12-1", "url": "https://www.kaigokensaku.mhlw.go.jp/21/index.php?action_kouhyou_detail_004_kani=true&JigyosyoCd=2171102433-00&ServiceCd=160&Type=search", "url2": null }, "geometry": { "type": "Point", "coordinates": [ 137.099265300000013, 35.3666007 ] } },
{ "type": "Feature", "properties": { "内容": "サニーサイドホスピタルデイケアセンター【通所リハビリテーション】岐阜県多治見市小名田町西ヶ洞1-325サニーサイドホスピタル", "url": "https://www.kaigokensaku.mhlw.go.jp/21/index.php?action_kouhyou_detail_004_kani=true&JigyosyoCd=2111101248-00&ServiceCd=160&Type=search", "url2": "http://www.i-jinjukai.or.jp/sunny/SaniisaideHp.htm" }, "geometry": { "type": "Point", "coordinates": [ 137.1174909, 35.3659651 ] } },
{ "type": "Feature", "properties": { "内容": "介護老人保健施設リバーサイド悠悠【通所リハビリテーション】岐阜県関市倉知１７１２", "url": "https://www.kaigokensaku.mhlw.go.jp/21/index.php?action_kouhyou_detail_004_kani=true&JigyosyoCd=2150280036-00&ServiceCd=160&Type=search", "url2": "http;//riverside-uu.jp/" }, "geometry": { "type": "Point", "coordinates": [ 136.8803345, 35.4810051 ] } },
{ "type": "Feature", "properties": { "内容": "通所リハビリテーション福寿の里【通所リハビリテーション】岐阜県関市下有知４７０６", "url": "https://www.kaigokensaku.mhlw.go.jp/21/index.php?action_kouhyou_detail_004_kani=true&JigyosyoCd=2150280051-00&ServiceCd=160&Type=search", "url2": "http://www.chitokukai.or.jp" }, "geometry": { "type": "Point", "coordinates": [ 136.911704914016696, 35.499111613100204 ] } },
{ "type": "Feature", "properties": { "内容": "医療法人香徳会　関中央病院通所リハビリテーション【通所リハビリテーション】岐阜県関市平成通2丁目6番18号", "url": "https://www.kaigokensaku.mhlw.go.jp/21/index.php?action_kouhyou_detail_004_kani=true&JigyosyoCd=2110200777-00&ServiceCd=160&Type=search", "url2": "https://sekichuo.jp" }, "geometry": { "type": "Point", "coordinates": [ 136.935961171688831, 35.470699965559355 ] } },
{ "type": "Feature", "properties": { "内容": "本町デイケア【通所リハビリテーション】岐阜県中津川市本町4丁目2-15", "url": "https://www.kaigokensaku.mhlw.go.jp/21/index.php?action_kouhyou_detail_004_kani=true&JigyosyoCd=2111500621-00&ServiceCd=160&Type=search", "url2": null }, "geometry": { "type": "Point", "coordinates": [ 137.500778399999945, 35.4927278 ] } },
{ "type": "Feature", "properties": { "内容": "医療法人社団　日新会　城山病院【通所リハビリテーション】岐阜県中津川市苗木3725-2", "url": "https://www.kaigokensaku.mhlw.go.jp/21/index.php?action_kouhyou_detail_004_kani=true&JigyosyoCd=2111500696-00&ServiceCd=160&Type=search", "url2": "http://n-shiroyama.info/" }, "geometry": { "type": "Point", "coordinates": [ 137.477538, 35.514038 ] } },
{ "type": "Feature", "properties": { "内容": "恵那医院リハビリケアセンター【通所リハビリテーション】岐阜県中津川市本町4丁目4番10号", "url": "https://www.kaigokensaku.mhlw.go.jp/21/index.php?action_kouhyou_detail_004_kani=true&JigyosyoCd=2111501231-00&ServiceCd=160&Type=search", "url2": "http://www.enaiin.org/" }, "geometry": { "type": "Point", "coordinates": [ 137.499614034896837, 35.492825578530152 ] } },
{ "type": "Feature", "properties": { "内容": "介護老人保健施設城山【通所リハビリテーション】岐阜県中津川市苗木３７４７－１", "url": "https://www.kaigokensaku.mhlw.go.jp/21/index.php?action_kouhyou_detail_004_kani=true&JigyosyoCd=2151580012-00&ServiceCd=160&Type=search", "url2": "http://n-shiroyama.info/%e8%80%81%e4%ba%ba%e4%bf%9d%e5%81%a5%e6%96%bd%e8%a8%ad%e3%80%80%e5%9f%8e%e5%b1%b1/" }, "geometry": { "type": "Point", "coordinates": [ 137.477096500000016, 35.5137515 ] } },
{ "type": "Feature", "properties": { "内容": "介護老人保健施設　中津川ナーシングピア【通所リハビリテーション】岐阜県中津川市茄子川字中垣外1683-1247", "url": "https://www.kaigokensaku.mhlw.go.jp/21/index.php?action_kouhyou_detail_004_kani=true&JigyosyoCd=2151580020-00&ServiceCd=160&Type=search", "url2": "http://www.nursingpia.com/index.html" }, "geometry": { "type": "Point", "coordinates": [ 137.476518104429601, 35.463726122496936 ] } },
{ "type": "Feature", "properties": { "内容": "坂下老人保健施設【通所リハビリテーション】岐阜県中津川市坂下７２２番地１", "url": "https://www.kaigokensaku.mhlw.go.jp/21/index.php?action_kouhyou_detail_004_kani=true&JigyosyoCd=2151580038-00&ServiceCd=160&Type=search", "url2": "http://sakashita-shinryo.jp/roken/" }, "geometry": { "type": "Point", "coordinates": [ 137.532316999740942, 35.574943202137355 ] } },
{ "type": "Feature", "properties": { "内容": "介護老人保健施設ひざし通所リハビリテーション【通所リハビリテーション】岐阜県瑞浪市稲津町萩原１番地", "url": "https://www.kaigokensaku.mhlw.go.jp/21/index.php?action_kouhyou_detail_004_kani=true&JigyosyoCd=2151680010-00&ServiceCd=160&Type=search", "url2": "http://www.hizashi.jp" }, "geometry": { "type": "Point", "coordinates": [ 137.274412, 35.3539559 ] } },
{ "type": "Feature", "properties": { "内容": "田中整形外科通所リハビリテーション【通所リハビリテーション】岐阜県羽島市正木町大浦660-1", "url": "https://www.kaigokensaku.mhlw.go.jp/21/index.php?action_kouhyou_detail_004_kani=true&JigyosyoCd=2110400732-00&ServiceCd=160&Type=search", "url2": "http://tanaka-seikei-hashima.com/" }, "geometry": { "type": "Point", "coordinates": [ 136.729698899999988, 35.324899 ] } },
{ "type": "Feature", "properties": { "内容": "デイケアセンターたんぎく【通所リハビリテーション】岐阜県羽島市小熊町島2-78-1", "url": "https://www.kaigokensaku.mhlw.go.jp/21/index.php?action_kouhyou_detail_004_kani=true&JigyosyoCd=2110400765-00&ServiceCd=160&Type=search", "url2": "https://daycare-tangiku.com/" }, "geometry": { "type": "Point", "coordinates": [ 136.70593770000005, 35.3353029 ] } },
{ "type": "Feature", "properties": { "内容": "医療法人社団高陵会メディカルフィットネスfamiliar【通所リハビリテーション】岐阜県恵那市長島町正家三丁目９番地９", "url": "https://www.kaigokensaku.mhlw.go.jp/21/index.php?action_kouhyou_detail_004_kani=true&JigyosyoCd=2111700700-00&ServiceCd=160&Type=search", "url2": "http://efc1800.jp/" }, "geometry": { "type": "Point", "coordinates": [ 137.416729862565546, 35.447298713131566 ] } },
{ "type": "Feature", "properties": { "内容": "大井リハビリテーションクリニック【通所リハビリテーション】岐阜県恵那市大井町1002-4", "url": "https://www.kaigokensaku.mhlw.go.jp/21/index.php?action_kouhyou_detail_004_kani=true&JigyosyoCd=2111701039-00&ServiceCd=160&Type=search", "url2": "http://keiaikai.co.jp/" }, "geometry": { "type": "Point", "coordinates": [ 137.4182832, 35.4522912 ] } },
{ "type": "Feature", "properties": { "内容": "医療法人恵雄会　介護老人保健施設こころ【通所リハビリテーション】岐阜県恵那市大井町1064-1", "url": "https://www.kaigokensaku.mhlw.go.jp/21/index.php?action_kouhyou_detail_004_kani=true&JigyosyoCd=2151780018-00&ServiceCd=160&Type=search", "url2": "http://www.keiyu-kai.com" }, "geometry": { "type": "Point", "coordinates": [ 137.422432399999934, 35.4524446 ] } },
{ "type": "Feature", "properties": { "内容": "恵那市介護老人保健施設ひまわり【通所リハビリテーション】岐阜県恵那市明智町１０９０番地", "url": "https://www.kaigokensaku.mhlw.go.jp/21/index.php?action_kouhyou_detail_004_kani=true&JigyosyoCd=2151780026-00&ServiceCd=160&Type=search", "url2": null }, "geometry": { "type": "Point", "coordinates": [ 137.39536870807342, 35.295871794014282 ] } },
{ "type": "Feature", "properties": { "内容": "市立恵那病院通所リハビリテーションセンターほほ恵み【通所リハビリテーション】岐阜県恵那市大井町2725番地", "url": "https://www.kaigokensaku.mhlw.go.jp/21/index.php?action_kouhyou_detail_004_kani=true&JigyosyoCd=2171700426-00&ServiceCd=160&Type=search", "url2": "https://www.enahosp.jp/" }, "geometry": { "type": "Point", "coordinates": [ 137.394970124011707, 35.464135822587821 ] } },
{ "type": "Feature", "properties": { "内容": "林クリニック　短時間通所リハビリテーション【通所リハビリテーション】岐阜県美濃加茂市前平町1-100", "url": "https://www.kaigokensaku.mhlw.go.jp/21/index.php?action_kouhyou_detail_004_kani=true&JigyosyoCd=2111200685-00&ServiceCd=160&Type=search", "url2": "http://www.hayasi-clinic.org/" }, "geometry": { "type": "Point", "coordinates": [ 137.006978289549238, 35.451784587923875 ] } },
{ "type": "Feature", "properties": { "内容": "さわやかリバーサイドビラデイケアセンター【通所リハビリテーション】岐阜県美濃加茂市下米田町東栃井81番地の３", "url": "https://www.kaigokensaku.mhlw.go.jp/21/index.php?action_kouhyou_detail_004_kani=true&JigyosyoCd=2151280019-00&ServiceCd=160&Type=search", "url2": "http://www.jikeikai-sawayaka.jp" }, "geometry": { "type": "Point", "coordinates": [ 137.065739300000018, 35.477438 ] } },
{ "type": "Feature", "properties": { "内容": "老人保健施設サントピアみのかも【通所リハビリテーション】岐阜県美濃加茂市蜂屋町上蜂屋3555", "url": "https://www.kaigokensaku.mhlw.go.jp/21/index.php?action_kouhyou_detail_004_kani=true&JigyosyoCd=2151280027-00&ServiceCd=160&Type=search", "url2": "http://suntopia-minokamo.jp" }, "geometry": { "type": "Point", "coordinates": [ 137.012912842852728, 35.454170228762926 ] } },
{ "type": "Feature", "properties": { "内容": "介護老人保健施設中部台ケアセンター　通所リハビリテーション【通所リハビリテーション】岐阜県美濃加茂市中部台６丁目１３番地５", "url": "https://www.kaigokensaku.mhlw.go.jp/21/index.php?action_kouhyou_detail_004_kani=true&JigyosyoCd=2151280035-00&ServiceCd=160&Type=search", "url2": "http://www.ohta-hospital.jp" }, "geometry": { "type": "Point", "coordinates": [ 137.017410899999959, 35.4659572 ] } },
{ "type": "Feature", "properties": { "内容": "さくらデイケアセンター【通所リハビリテーション】岐阜県美濃加茂市前平町１丁目１００番地", "url": "https://www.kaigokensaku.mhlw.go.jp/21/index.php?action_kouhyou_detail_004_kani=true&JigyosyoCd=2171200260-00&ServiceCd=160&Type=search", "url2": "http://www.hayasi-clinic.org" }, "geometry": { "type": "Point", "coordinates": [ 137.007112399999983, 35.4517103 ] } },
{ "type": "Feature", "properties": { "内容": "医療法人　敬生会　高井病院【通所リハビリテーション】岐阜県土岐市妻木町1658", "url": "https://www.kaigokensaku.mhlw.go.jp/21/index.php?action_kouhyou_detail_004_kani=true&JigyosyoCd=2111801110-00&ServiceCd=160&Type=search", "url2": "https://takai-hp.jp" }, "geometry": { "type": "Point", "coordinates": [ 137.19155980000005, 35.3159817 ] } },
{ "type": "Feature", "properties": { "内容": "デイケアセンターみつばち【通所リハビリテーション】岐阜県各務原市鵜沼山崎町6-8-2", "url": "https://www.kaigokensaku.mhlw.go.jp/21/index.php?action_kouhyou_detail_004_kani=true&JigyosyoCd=21B0500018-00&ServiceCd=160&Type=search", "url2": "https://www.seidoukai.or.jp/daycare-mitsubachi/" }, "geometry": { "type": "Point", "coordinates": [ 136.9468736, 35.3996052 ] } },
{ "type": "Feature", "properties": { "内容": "第一リハビリセンター【通所リハビリテーション】岐阜県各務原市蘇原青雲町４－１－７０", "url": "https://www.kaigokensaku.mhlw.go.jp/21/index.php?action_kouhyou_detail_004_kani=true&JigyosyoCd=2110501422-00&ServiceCd=160&Type=search", "url2": null }, "geometry": { "type": "Point", "coordinates": [ 136.859662599999979, 35.4103567 ] } },
{ "type": "Feature", "properties": { "内容": "フェニックスデイケアセンターＳ【通所リハビリテーション】岐阜県各務原市鵜沼各務原町6丁目50番地", "url": "https://www.kaigokensaku.mhlw.go.jp/21/index.php?action_kouhyou_detail_004_kani=true&JigyosyoCd=2110502412-00&ServiceCd=160&Type=search", "url2": "http://phoenix-g.jp" }, "geometry": { "type": "Point", "coordinates": [ 136.909432, 35.3994852 ] } },
{ "type": "Feature", "properties": { "内容": "通所リハビリテーション　きらら【通所リハビリテーション】岐阜県各務原市須衛町3-136", "url": "https://www.kaigokensaku.mhlw.go.jp/21/index.php?action_kouhyou_detail_004_kani=true&JigyosyoCd=2150580013-00&ServiceCd=160&Type=search", "url2": "http://www.phoenix-g.jp" }, "geometry": { "type": "Point", "coordinates": [ 136.885287299999959, 35.4397373 ] } },
{ "type": "Feature", "properties": { "内容": "老人保健施設　コートレイ各務原【通所リハビリテーション】岐阜県各務原市蘇原青雲町4-1-70", "url": "https://www.kaigokensaku.mhlw.go.jp/21/index.php?action_kouhyou_detail_004_kani=true&JigyosyoCd=2150580021-00&ServiceCd=160&Type=search", "url2": null }, "geometry": { "type": "Point", "coordinates": [ 136.859662599999979, 35.4103567 ] } },
{ "type": "Feature", "properties": { "内容": "フェニックスデイケアセンターA【通所リハビリテーション】岐阜県各務原市鵜沼各務原町6丁目50番地メディカルセンター・フェニックス", "url": "https://www.kaigokensaku.mhlw.go.jp/21/index.php?action_kouhyou_detail_004_kani=true&JigyosyoCd=2150580054-00&ServiceCd=160&Type=search", "url2": "http://www.phoenix-g.jp" }, "geometry": { "type": "Point", "coordinates": [ 136.909441338900706, 35.399481892110835 ] } },
{ "type": "Feature", "properties": { "内容": "東可児病院通所リハビリセンター【通所リハビリテーション】岐阜県可児市広見1520東可児病院", "url": "https://www.kaigokensaku.mhlw.go.jp/21/index.php?action_kouhyou_detail_004_kani=true&JigyosyoCd=2113100438-00&ServiceCd=160&Type=search", "url2": "http://www.higashikani-hp.jp/" }, "geometry": { "type": "Point", "coordinates": [ 137.063233099999934, 35.4175662 ] } },
{ "type": "Feature", "properties": { "内容": "あんどうクリニックほほえみデイケア【通所リハビリテーション】岐阜県可児市禅台寺５-１", "url": "https://www.kaigokensaku.mhlw.go.jp/21/index.php?action_kouhyou_detail_004_kani=true&JigyosyoCd=2113100743-00&ServiceCd=160&Type=search", "url2": null }, "geometry": { "type": "Point", "coordinates": [ 137.046309299999962, 35.4251425 ] } },
{ "type": "Feature", "properties": { "内容": "医療法人梶の木会　トレーニングラボ川合【通所リハビリテーション】岐阜県可児市川合2342-3", "url": "https://www.kaigokensaku.mhlw.go.jp/21/index.php?action_kouhyou_detail_004_kani=true&JigyosyoCd=2113100859-00&ServiceCd=160&Type=search", "url2": "https://labo-kawai.com/" }, "geometry": { "type": "Point", "coordinates": [ 137.058501546596574, 35.440594397369686 ] } },
{ "type": "Feature", "properties": { "内容": "医療法人Ｊin　ぴくしぃ整形外科　デイケアでゅりっくす【通所リハビリテーション】岐阜県可児市帷子新町二丁目115番", "url": "https://www.kaigokensaku.mhlw.go.jp/21/index.php?action_kouhyou_detail_004_kani=true&JigyosyoCd=2113101154-00&ServiceCd=160&Type=search", "url2": null }, "geometry": { "type": "Point", "coordinates": [ 137.011809399999947, 35.4019151 ] } },
{ "type": "Feature", "properties": { "内容": "可児とうのう病院附属介護老人保健施設【通所リハビリテーション】岐阜県可児市土田９００番地", "url": "https://www.kaigokensaku.mhlw.go.jp/21/index.php?action_kouhyou_detail_004_kani=true&JigyosyoCd=2153180019-00&ServiceCd=160&Type=search", "url2": "http://kani.jcho.go.jp/rouken/" }, "geometry": { "type": "Point", "coordinates": [ 137.015812200000028, 35.4168671 ] } },
{ "type": "Feature", "properties": { "内容": "老人保健施設花トピア可児【通所リハビリテーション】岐阜県可児市瀬田１６４６番地の３", "url": "https://www.kaigokensaku.mhlw.go.jp/21/index.php?action_kouhyou_detail_004_kani=true&JigyosyoCd=2153180027-00&ServiceCd=160&Type=search", "url2": "http://www.fujikake-hospital.jp/" }, "geometry": { "type": "Point", "coordinates": [ 137.104218400000036, 35.4197178 ] } },
{ "type": "Feature", "properties": { "内容": "山県グリーンポートデイケアセンター【通所リハビリテーション】岐阜県山県市大門773番地", "url": "https://www.kaigokensaku.mhlw.go.jp/21/index.php?action_kouhyou_detail_004_kani=true&JigyosyoCd=2150880017-00&ServiceCd=160&Type=search", "url2": "https://yuuaikai-gifu.or.jp" }, "geometry": { "type": "Point", "coordinates": [ 136.725440299999946, 35.5399602 ] } },
{ "type": "Feature", "properties": { "内容": "巣南リハビリセンター【通所リハビリテーション】岐阜県瑞穂市重里2006", "url": "https://www.kaigokensaku.mhlw.go.jp/21/index.php?action_kouhyou_detail_004_kani=true&JigyosyoCd=2150780019-00&ServiceCd=160&Type=search", "url2": "https://seikohkai.net/" }, "geometry": { "type": "Point", "coordinates": [ 136.659472599999958, 35.4156174 ] } },
{ "type": "Feature", "properties": { "内容": "スマイルデイまくわ【通所リハビリテーション】岐阜県本巣市軽海628-5", "url": "https://www.kaigokensaku.mhlw.go.jp/21/index.php?action_kouhyou_detail_004_kani=true&JigyosyoCd=2110701147-00&ServiceCd=160&Type=search", "url2": "http://www.makuwa-clinic.jp" }, "geometry": { "type": "Point", "coordinates": [ 136.655833600000051, 35.4291598 ] } },
{ "type": "Feature", "properties": { "内容": "介護老人保健施設　仙寿苑【通所リハビリテーション】岐阜県本巣市仏生寺111-1", "url": "https://www.kaigokensaku.mhlw.go.jp/21/index.php?action_kouhyou_detail_004_kani=true&JigyosyoCd=2153480013-00&ServiceCd=160&Type=search", "url2": "http://senjuen.wixsite.com/senjuen" }, "geometry": { "type": "Point", "coordinates": [ 136.692162986179, 35.447322894514443 ] } },
{ "type": "Feature", "properties": { "内容": "介護老人保健施設ケアポート白鳳【通所リハビリテーション】岐阜県郡上市白鳥町白鳥２－６", "url": "https://www.kaigokensaku.mhlw.go.jp/21/index.php?action_kouhyou_detail_004_kani=true&JigyosyoCd=2151080039-00&ServiceCd=160&Type=search", "url2": "http://sumihosp.or.jp/" }, "geometry": { "type": "Point", "coordinates": [ 136.8575194, 35.8788691 ] } },
{ "type": "Feature", "properties": { "内容": "通所リハビリテーション　ひだまり【通所リハビリテーション】岐阜県郡上市八幡町中坪１－７", "url": "https://www.kaigokensaku.mhlw.go.jp/21/index.php?action_kouhyou_detail_004_kani=true&JigyosyoCd=2111000929-00&ServiceCd=160&Type=search", "url2": "http://www.horiyaiin.or.jp" }, "geometry": { "type": "Point", "coordinates": [ 136.954343699999981, 35.7570899 ] } },
{ "type": "Feature", "properties": { "内容": "県北西部地域医療センター国保白鳥病院【通所リハビリテーション】岐阜県郡上市白鳥町為真1205-1", "url": "https://www.kaigokensaku.mhlw.go.jp/21/index.php?action_kouhyou_detail_004_kani=true&JigyosyoCd=2111000994-00&ServiceCd=160&Type=search", "url2": "http://shirotori-hosp.jp" }, "geometry": { "type": "Point", "coordinates": [ 136.860635799999955, 35.8796524 ] } },
{ "type": "Feature", "properties": { "内容": "介護老人保健施設ヴィラふくべ【通所リハビリテーション】岐阜県郡上市美並町大原77番地", "url": "https://www.kaigokensaku.mhlw.go.jp/21/index.php?action_kouhyou_detail_004_kani=true&JigyosyoCd=2151080021-00&ServiceCd=160&Type=search", "url2": "http://www.jikeichuo.com" }, "geometry": { "type": "Point", "coordinates": [ 136.954557599999987, 35.6441082 ] } },
{ "type": "Feature", "properties": { "内容": "県北西部地域医療センター和良介護老人保健施設【通所リハビリテーション】岐阜県郡上市和良町沢864番地1", "url": "https://www.kaigokensaku.mhlw.go.jp/21/index.php?action_kouhyou_detail_004_kani=true&JigyosyoCd=2151080047-00&ServiceCd=160&Type=search", "url2": "http://www.gujo-tv.ne.jp/~clinic-wara/" }, "geometry": { "type": "Point", "coordinates": [ 137.083446200000026, 35.7472024 ] } },
{ "type": "Feature", "properties": { "内容": "八幡デイケアセンターなごみ【通所リハビリテーション】岐阜県郡上市八幡町桜町３２７番地１", "url": "https://www.kaigokensaku.mhlw.go.jp/21/index.php?action_kouhyou_detail_004_kani=true&JigyosyoCd=2171000736-00&ServiceCd=160&Type=search", "url2": "http://www.hachiman-hosp.jp/%e5%85%ab%e5%b9%a1%e3%83%87%e3%82%a4%e3%82%b1%e3%82%a2%e3%82%bb%e3%83%b3%e3%82%bf%e3%83%bc%e3%81%aa%e3%81%94%e3%81%bf/" }, "geometry": { "type": "Point", "coordinates": [ 136.96100720000004, 35.751149 ] } },
{ "type": "Feature", "properties": { "内容": "介護老人保健施設　共寿【通所リハビリテーション】岐阜県下呂市萩原町古関８７３－１", "url": "https://www.kaigokensaku.mhlw.go.jp/21/index.php?action_kouhyou_detail_004_kani=true&JigyosyoCd=2152880015-00&ServiceCd=160&Type=search", "url2": "http://kyojukai.jp/" }, "geometry": { "type": "Point", "coordinates": [ 137.201808300000039, 35.8701276 ] } },
{ "type": "Feature", "properties": { "内容": "介護老人保健施設はつらつ海津【通所リハビリテーション】岐阜県海津市海津町福江656番地2", "url": "https://www.kaigokensaku.mhlw.go.jp/21/index.php?action_kouhyou_detail_004_kani=true&JigyosyoCd=2152280034-00&ServiceCd=160&Type=search", "url2": "https://www.houjukai.jp/" }, "geometry": { "type": "Point", "coordinates": [ 136.6603375, 35.1729191 ] } },
{ "type": "Feature", "properties": { "内容": "森島整形外科デイケアセンター【通所リハビリテーション】岐阜県羽島郡岐南町徳田１丁目２９５番地", "url": "https://www.kaigokensaku.mhlw.go.jp/21/index.php?action_kouhyou_detail_004_kani=true&JigyosyoCd=2170600650-00&ServiceCd=160&Type=search", "url2": "https://seikeigeka-morishima.jp/" }, "geometry": { "type": "Point", "coordinates": [ 136.772059500000069, 35.3879778 ] } },
{ "type": "Feature", "properties": { "内容": "ふれあいかいご医療院通所リハビリテーション【通所リハビリテーション】岐阜県羽島郡笠松町円城寺942-2番地058-387-7350", "url": "https://www.kaigokensaku.mhlw.go.jp/21/index.php?action_kouhyou_detail_004_kani=true&JigyosyoCd=21B0600024-00&ServiceCd=160&Type=search", "url2": "https://www.mutsumikai.or.jp/" }, "geometry": { "type": "Point", "coordinates": [ 136.79129532764739, 35.373336075095125 ] } },
{ "type": "Feature", "properties": { "内容": "いきいきリハビリセンター【通所リハビリテーション】岐阜県羽島郡笠松町奈良町119", "url": "https://www.kaigokensaku.mhlw.go.jp/21/index.php?action_kouhyou_detail_004_kani=true&JigyosyoCd=2110600604-00&ServiceCd=160&Type=search", "url2": "http://www.morimoto-nh.com" }, "geometry": { "type": "Point", "coordinates": [ 136.762944599999969, 35.3724602 ] } },
{ "type": "Feature", "properties": { "内容": "松波総合病院介護老人保健施設通所リハビリテーション【通所リハビリテーション】岐阜県羽島郡笠松町田代１８５番地１松波総合病院　南館", "url": "https://www.kaigokensaku.mhlw.go.jp/21/index.php?action_kouhyou_detail_004_kani=true&JigyosyoCd=2150680003-00&ServiceCd=160&Type=search", "url2": "http://www.matsunami-hsp.or.jp/rouken_zaitaku/" }, "geometry": { "type": "Point", "coordinates": [ 136.757920639950498, 35.36327550292652 ] } },
{ "type": "Feature", "properties": { "内容": "在宅リハビリセンター　天音の里【通所リハビリテーション】岐阜県養老郡養老町船附字中代1344番地", "url": "https://www.kaigokensaku.mhlw.go.jp/21/index.php?action_kouhyou_detail_004_kani=true&JigyosyoCd=2112300534-00&ServiceCd=160&Type=search", "url2": "http://www.funacli.jp/amane/" }, "geometry": { "type": "Point", "coordinates": [ 136.600467885635112, 35.283899582995005 ] } },
{ "type": "Feature", "properties": { "内容": "デイケアかがやき【通所リハビリテーション】岐阜県養老郡養老町大跡534番地", "url": "https://www.kaigokensaku.mhlw.go.jp/21/index.php?action_kouhyou_detail_004_kani=true&JigyosyoCd=2112300575-00&ServiceCd=160&Type=search", "url2": "http://www.yoro-seikei.or.jp" }, "geometry": { "type": "Point", "coordinates": [ 136.575215299999968, 35.2878142 ] } },
{ "type": "Feature", "properties": { "内容": "在宅リハビリセンター天の星【通所リハビリテーション】岐阜県養老郡養老町船附字中代1344番地", "url": "https://www.kaigokensaku.mhlw.go.jp/21/index.php?action_kouhyou_detail_004_kani=true&JigyosyoCd=2172300259-00&ServiceCd=160&Type=search", "url2": "http://www.funacli.jp/" }, "geometry": { "type": "Point", "coordinates": [ 136.600867118583551, 35.28426688424144 ] } },
{ "type": "Feature", "properties": { "内容": "介護老人保健施設あいかわ【通所リハビリテーション】岐阜県不破郡垂井町府中1933番地の1", "url": "https://www.kaigokensaku.mhlw.go.jp/21/index.php?action_kouhyou_detail_004_kani=true&JigyosyoCd=2152480014-00&ServiceCd=160&Type=search", "url2": "http://www.hakuaikai.jp" }, "geometry": { "type": "Point", "coordinates": [ 136.523782399999959, 35.3752279 ] } },
{ "type": "Feature", "properties": { "内容": "関ケ原診療所通所リハビリテーション【通所リハビリテーション】岐阜県不破郡関ケ原町大字関ヶ原2490番地の29国保関ケ原診療所", "url": "https://www.kaigokensaku.mhlw.go.jp/21/index.php?action_kouhyou_detail_004_kani=true&JigyosyoCd=2112400722-00&ServiceCd=160&Type=search", "url2": null }, "geometry": { "type": "Point", "coordinates": [ 136.4661594, 35.3591107 ] } },
{ "type": "Feature", "properties": { "内容": "みどりの郷【通所リハビリテーション】岐阜県安八郡神戸町北一色14番地", "url": "https://www.kaigokensaku.mhlw.go.jp/21/index.php?action_kouhyou_detail_004_kani=true&JigyosyoCd=2112500554-00&ServiceCd=160&Type=search", "url2": "https://www.eijinkai-md.jp" }, "geometry": { "type": "Point", "coordinates": [ 136.5858058, 35.428677 ] } },
{ "type": "Feature", "properties": { "内容": "山中ジェネラルクリニック　通所リハビリテーション　アトラス【通所リハビリテーション】岐阜県安八郡安八町森部1870-1", "url": "https://www.kaigokensaku.mhlw.go.jp/21/index.php?action_kouhyou_detail_004_kani=true&JigyosyoCd=2112500745-00&ServiceCd=160&Type=search", "url2": "http://www.yamanaka-general.com/" }, "geometry": { "type": "Point", "coordinates": [ 136.67616, 35.3385444 ] } },
{ "type": "Feature", "properties": { "内容": "老人保健施設山びこの郷【通所リハビリテーション】岐阜県揖斐郡揖斐川町東津汲877-1", "url": "https://www.kaigokensaku.mhlw.go.jp/21/index.php?action_kouhyou_detail_004_kani=true&JigyosyoCd=2152680043-00&ServiceCd=160&Type=search", "url2": "http://ibigawa-jadecom.jp" }, "geometry": { "type": "Point", "coordinates": [ 136.507341799999949, 35.5570822 ] } },
{ "type": "Feature", "properties": { "内容": "ゆり形成内科整形おおの　デイケア【通所リハビリテーション】岐阜県揖斐郡大野町大野753番地141", "url": "https://www.kaigokensaku.mhlw.go.jp/21/index.php?action_kouhyou_detail_004_kani=true&JigyosyoCd=2112601279-00&ServiceCd=160&Type=search", "url2": "http://www.yuri-ohno.com/" }, "geometry": { "type": "Point", "coordinates": [ 136.6396605, 35.4806095 ] } },
{ "type": "Feature", "properties": { "内容": "通所リハビリテーションセンター　マルシェ【通所リハビリテーション】岐阜県揖斐郡大野町南方二度桜180番地の1", "url": "https://www.kaigokensaku.mhlw.go.jp/21/index.php?action_kouhyou_detail_004_kani=true&JigyosyoCd=2112601048-00&ServiceCd=160&Type=search", "url2": "https://www.plaza21oono.jp" }, "geometry": { "type": "Point", "coordinates": [ 136.620936499999971, 35.4534107 ] } },
{ "type": "Feature", "properties": { "内容": "介護老人保健施設　プラザ２１おおの【通所リハビリテーション】岐阜県揖斐郡大野町南方二度桜１９１番地", "url": "https://www.kaigokensaku.mhlw.go.jp/21/index.php?action_kouhyou_detail_004_kani=true&JigyosyoCd=2152680027-00&ServiceCd=160&Type=search", "url2": "https://www.plaza21oono.jp" }, "geometry": { "type": "Point", "coordinates": [ 136.620772699999947, 35.452616300000017 ] } },
{ "type": "Feature", "properties": { "内容": "介護老人保健施設　ラポール【通所リハビリテーション】岐阜県揖斐郡大野町大字大野９２４番地１", "url": "https://www.kaigokensaku.mhlw.go.jp/21/index.php?action_kouhyou_detail_004_kani=true&JigyosyoCd=2152680068-00&ServiceCd=160&Type=search", "url2": "http://www.rapport1051.jp" }, "geometry": { "type": "Point", "coordinates": [ 136.635433700000021, 35.4782465 ] } },
{ "type": "Feature", "properties": { "内容": "小森デイケアリハビリセンター【通所リハビリテーション】岐阜県揖斐郡大野町黒野６４８－５", "url": "https://www.kaigokensaku.mhlw.go.jp/21/index.php?action_kouhyou_detail_004_kani=true&JigyosyoCd=2172600955-00&ServiceCd=160&Type=search", "url2": null }, "geometry": { "type": "Point", "coordinates": [ 136.635207088954985, 35.466609513671521 ] } },
{ "type": "Feature", "properties": { "内容": "介護老人保健施設西美濃さくら苑【通所リハビリテーション】岐阜県揖斐郡池田町田中５－１", "url": "https://www.kaigokensaku.mhlw.go.jp/21/index.php?action_kouhyou_detail_004_kani=true&JigyosyoCd=2172601458-00&ServiceCd=160&Type=search", "url2": "https://n-sakuraen.jp" }, "geometry": { "type": "Point", "coordinates": [ 136.559640300000012, 35.4611254 ] } },
{ "type": "Feature", "properties": { "内容": "きたがたリハビリセンター【通所リハビリテーション】岐阜県本巣郡北方町高屋白木2-77", "url": "https://www.kaigokensaku.mhlw.go.jp/21/index.php?action_kouhyou_detail_004_kani=true&JigyosyoCd=2110701188-00&ServiceCd=160&Type=search", "url2": "https://shikanoclinic.jp/" }, "geometry": { "type": "Point", "coordinates": [ 136.692524899999967, 35.4174203 ] } },
{ "type": "Feature", "properties": { "内容": "医療法人　知真会　デイケアセンター大地【通所リハビリテーション】岐阜県加茂郡坂祝町黒岩386-1", "url": "https://www.kaigokensaku.mhlw.go.jp/21/index.php?action_kouhyou_detail_004_kani=true&JigyosyoCd=2111300980-00&ServiceCd=160&Type=search", "url2": "https://www.chishinkai-group.jp/facilities/daichi" }, "geometry": { "type": "Point", "coordinates": [ 136.973247141664132, 35.440743578306034 ] } },
{ "type": "Feature", "properties": { "内容": "介護老人保健施設センチュリー２１【通所リハビリテーション】岐阜県加茂郡富加町夕田３８０番地", "url": "https://www.kaigokensaku.mhlw.go.jp/21/index.php?action_kouhyou_detail_004_kani=true&JigyosyoCd=2151380017-00&ServiceCd=160&Type=search", "url2": "https://meiseikai-century21.com/" }, "geometry": { "type": "Point", "coordinates": [ 136.989525599999979, 35.4848503 ] } },
{ "type": "Feature", "properties": { "内容": "有本整形外科　リハビリ・ケアセンター【通所リハビリテーション】岐阜県加茂郡川辺町石神字下迫間257-1", "url": "https://www.kaigokensaku.mhlw.go.jp/21/index.php?action_kouhyou_detail_004_kani=true&JigyosyoCd=2171300870-00&ServiceCd=160&Type=search", "url2": "http://arimoto-seikei.jp/" }, "geometry": { "type": "Point", "coordinates": [ 137.067844686755365, 35.495194084541751 ] } },
{ "type": "Feature", "properties": { "内容": "医療法人社団　大治会　伊佐治医院【通所リハビリテーション】岐阜県加茂郡八百津町伊岐津志1518", "url": "https://www.kaigokensaku.mhlw.go.jp/21/index.php?action_kouhyou_detail_004_kani=true&JigyosyoCd=2111301012-00&ServiceCd=160&Type=search", "url2": "http://www.isaji-daichikai.com/" }, "geometry": { "type": "Point", "coordinates": [ 137.119273600000014, 35.4662758 ] } },
{ "type": "Feature", "properties": { "内容": "介護老人保健施設　だいち【通所リハビリテーション】岐阜県加茂郡八百津町錦織１５３０－３９", "url": "https://www.kaigokensaku.mhlw.go.jp/21/index.php?action_kouhyou_detail_004_kani=true&JigyosyoCd=2151380025-00&ServiceCd=160&Type=search", "url2": "http://www.isaji－daichikai.com/original10.html" }, "geometry": { "type": "Point", "coordinates": [ 137.1519872, 35.4735552 ] } },
{ "type": "Feature", "properties": { "内容": "白川病院デイケアセンター春夏秋冬【通所リハビリテーション】岐阜県加茂郡白川町坂ノ東５７7０", "url": "https://www.kaigokensaku.mhlw.go.jp/21/index.php?action_kouhyou_detail_004_kani=true&JigyosyoCd=2111300626-00&ServiceCd=160&Type=search", "url2": "https://www.shirakawahp.com/" }, "geometry": { "type": "Point", "coordinates": [ 137.165530597751598, 35.603261984174857 ] } },
{ "type": "Feature", "properties": { "内容": "桃井病院デイケアセンター【通所リハビリテーション】岐阜県可児郡御嵩町中2163", "url": "https://www.kaigokensaku.mhlw.go.jp/21/index.php?action_kouhyou_detail_004_kani=true&JigyosyoCd=2171400217-00&ServiceCd=160&Type=search", "url2": "http://www.momoi-hp.com/" }, "geometry": { "type": "Point", "coordinates": [ 137.124395643411304, 35.432674793578137 ] } },
{ "type": "Feature", "properties": { "内容": "桃井病院【通所リハビリテーション】岐阜県可児郡御嵩町中２１６３", "url": "https://www.kaigokensaku.mhlw.go.jp/21/index.php?action_kouhyou_detail_004_kani=true&JigyosyoCd=2111400616-00&ServiceCd=160&Type=search", "url2": "https://www.momoi-hp.com/" }, "geometry": { "type": "Point", "coordinates": [ 137.124095300000022, 35.4328315 ] } }
]
}
