{
"type": "FeatureCollection",
"name": "geo_21_小規模多機能型居宅介護",
"crs": { "type": "name", "properties": { "name": "urn:ogc:def:crs:OGC:1.3:CRS84" } },
"features": [
{ "type": "Feature", "properties": { "内容": "小規模多機能型居宅介護　あかりの家（岐阜苑）【小規模多機能型居宅介護】岐阜県岐阜市大洞1丁目3-4", "url": "https://www.kaigokensaku.mhlw.go.jp/21/index.php?action_kouhyou_detail_004_kani=true&JigyosyoCd=2190100087-00&ServiceCd=730&Type=search", "url2": "http://www.akari-8.com" }, "geometry": { "type": "Point", "coordinates": [ 136.86953840000001, 35.4570543 ] } },
{ "type": "Feature", "properties": { "内容": "小規模多機能ふるさと【小規模多機能型居宅介護】岐阜県岐阜市則武中3丁目5番17号", "url": "https://www.kaigokensaku.mhlw.go.jp/21/index.php?action_kouhyou_detail_004_kani=true&JigyosyoCd=2190100095-00&ServiceCd=730&Type=search", "url2": "https://bluefriends.or.jp/first/" }, "geometry": { "type": "Point", "coordinates": [ 136.739440616532903, 35.443643273511661 ] } },
{ "type": "Feature", "properties": { "内容": "ゲストハウスごうど【小規模多機能型居宅介護】岐阜県岐阜市河渡２丁目１１５番地４", "url": "https://www.kaigokensaku.mhlw.go.jp/21/index.php?action_kouhyou_detail_004_kani=true&JigyosyoCd=2190100236-00&ServiceCd=730&Type=search", "url2": "https://chiyodakai.or.jp/" }, "geometry": { "type": "Point", "coordinates": [ 136.697548793254128, 35.408464767174259 ] } },
{ "type": "Feature", "properties": { "内容": "ファミリーケア城東【小規模多機能型居宅介護】岐阜県岐阜市城東通1丁目16番地", "url": "https://www.kaigokensaku.mhlw.go.jp/21/index.php?action_kouhyou_detail_004_kani=true&JigyosyoCd=2190102554-00&ServiceCd=730&Type=search", "url2": "https://www.wakokai.or.jp/search/nursing/familycare-jyoto/" }, "geometry": { "type": "Point", "coordinates": [ 136.765806109192681, 35.401540341269261 ] } },
{ "type": "Feature", "properties": { "内容": "小規模多機能ホームうららびより柳津【小規模多機能型居宅介護】岐阜県岐阜市柳津町本郷5-99", "url": "https://www.kaigokensaku.mhlw.go.jp/21/index.php?action_kouhyou_detail_004_kani=true&JigyosyoCd=2190102562-00&ServiceCd=730&Type=search", "url2": "http://www.urarabiyori.com/" }, "geometry": { "type": "Point", "coordinates": [ 136.745108, 35.3664468 ] } },
{ "type": "Feature", "properties": { "内容": "ハートヴィレッジ西川手【小規模多機能型居宅介護】岐阜県岐阜市西川手1-124", "url": "https://www.kaigokensaku.mhlw.go.jp/21/index.php?action_kouhyou_detail_004_kani=true&JigyosyoCd=2190102596-00&ServiceCd=730&Type=search", "url2": "http://zuihokai-group.jp/inst-ni_hv.php" }, "geometry": { "type": "Point", "coordinates": [ 136.76348239009107, 35.389618767771275 ] } },
{ "type": "Feature", "properties": { "内容": "ファミリーケア大黒町　わたの木庵【小規模多機能型居宅介護】岐阜県岐阜市大黒町３丁目１２番地の１", "url": "https://www.kaigokensaku.mhlw.go.jp/21/index.php?action_kouhyou_detail_004_kani=true&JigyosyoCd=2190102604-00&ServiceCd=730&Type=search", "url2": "http://www.wakokai.or.jp" }, "geometry": { "type": "Point", "coordinates": [ 136.778058, 35.4120747 ] } },
{ "type": "Feature", "properties": { "内容": "ハートヴィレッジ鷺山【小規模多機能型居宅介護】岐阜県岐阜市鷺山東1-4-30", "url": "https://www.kaigokensaku.mhlw.go.jp/21/index.php?action_kouhyou_detail_004_kani=true&JigyosyoCd=2190102737-00&ServiceCd=730&Type=search", "url2": "http://zuihokai-group.jp/inst-s_hv.php" }, "geometry": { "type": "Point", "coordinates": [ 136.764238699999964, 35.4502058 ] } },
{ "type": "Feature", "properties": { "内容": "小規模多機能ホームうららびより芋島【小規模多機能型居宅介護】岐阜県岐阜市芋島2-1-10", "url": "https://www.kaigokensaku.mhlw.go.jp/21/index.php?action_kouhyou_detail_004_kani=true&JigyosyoCd=2190102745-00&ServiceCd=730&Type=search", "url2": "https://www.urarabiyori.com/facility/imojima/" }, "geometry": { "type": "Point", "coordinates": [ 136.80834690000006, 35.3949359 ] } },
{ "type": "Feature", "properties": { "内容": "ファミリーケア加納【小規模多機能型居宅介護】岐阜県岐阜市加納愛宕町18番地2", "url": "https://www.kaigokensaku.mhlw.go.jp/21/index.php?action_kouhyou_detail_004_kani=true&JigyosyoCd=2190103784-00&ServiceCd=730&Type=search", "url2": "https://www.wakokai.or.jp/search/nursing/familycare-kano/" }, "geometry": { "type": "Point", "coordinates": [ 136.750946900000031, 35.4089973 ] } },
{ "type": "Feature", "properties": { "内容": "小規模多機能型居宅介護　とまり木【小規模多機能型居宅介護】岐阜県岐阜市粟野東5丁目１７３番１You＆Iの森いわのだ", "url": "https://www.kaigokensaku.mhlw.go.jp/21/index.php?action_kouhyou_detail_004_kani=true&JigyosyoCd=2190103891-00&ServiceCd=730&Type=search", "url2": "https://yuuaikai-gifu.or.jp" }, "geometry": { "type": "Point", "coordinates": [ 136.783757036176326, 35.482487703157048 ] } },
{ "type": "Feature", "properties": { "内容": "にっけん小規模多機能ホーム　今町【小規模多機能型居宅介護】岐阜県岐阜市今町三丁目7-1", "url": "https://www.kaigokensaku.mhlw.go.jp/21/index.php?action_kouhyou_detail_004_kani=true&JigyosyoCd=2190104089-00&ServiceCd=730&Type=search", "url2": "http://www.gifu-healthmedical.jp/" }, "geometry": { "type": "Point", "coordinates": [ 136.769869709076517, 35.433033560914602 ] } },
{ "type": "Feature", "properties": { "内容": "ファミリーケア島【小規模多機能型居宅介護】岐阜県岐阜市北島1丁目4番4", "url": "https://www.kaigokensaku.mhlw.go.jp/21/index.php?action_kouhyou_detail_004_kani=true&JigyosyoCd=2190104212-00&ServiceCd=730&Type=search", "url2": "https://www.wakokai.or.jp/search/nursing/familycare-shima/" }, "geometry": { "type": "Point", "coordinates": [ 136.7296423, 35.4274679 ] } },
{ "type": "Feature", "properties": { "内容": "長森いきいき俱楽部ラシック小規模多機能型居宅介護事業【小規模多機能型居宅介護】岐阜県岐阜市北一色10-38-1", "url": "https://www.kaigokensaku.mhlw.go.jp/21/index.php?action_kouhyou_detail_004_kani=true&JigyosyoCd=2190104261-00&ServiceCd=730&Type=search", "url2": "https://www.koukeikai.jp/" }, "geometry": { "type": "Point", "coordinates": [ 136.7946436, 35.4091056 ] } },
{ "type": "Feature", "properties": { "内容": "小規模多機能型居宅介護　ひとい木【小規模多機能型居宅介護】岐阜県岐阜市福光東3丁目10番8号", "url": "https://www.kaigokensaku.mhlw.go.jp/21/index.php?action_kouhyou_detail_004_kani=true&JigyosyoCd=2190104535-00&ServiceCd=730&Type=search", "url2": "https://yuuaikai-gifu.or.jp/" }, "geometry": { "type": "Point", "coordinates": [ 136.771543400000013, 35.456111 ] } },
{ "type": "Feature", "properties": { "内容": "ファミリーケア岐阜【小規模多機能型居宅介護】岐阜県岐阜市東金宝町1丁目12番地", "url": "https://www.kaigokensaku.mhlw.go.jp/21/index.php?action_kouhyou_detail_004_kani=true&JigyosyoCd=2190100210-00&ServiceCd=730&Type=search", "url2": "http://www.wakokai.or.jp" }, "geometry": { "type": "Point", "coordinates": [ 136.760381700000039, 35.4148383 ] } },
{ "type": "Feature", "properties": { "内容": "すこやかホームこまき【小規模多機能型居宅介護】岐阜県岐阜市千手堂南町3丁目3番", "url": "https://www.kaigokensaku.mhlw.go.jp/21/index.php?action_kouhyou_detail_004_kani=true&JigyosyoCd=2190100228-00&ServiceCd=730&Type=search", "url2": "https://tomoikikai.net" }, "geometry": { "type": "Point", "coordinates": [ 136.750192515344224, 35.415882617873237 ] } },
{ "type": "Feature", "properties": { "内容": "小規模多機能型居宅介護　和の郷【小規模多機能型居宅介護】岐阜県大垣市矢道町2丁目175番地2", "url": "https://www.kaigokensaku.mhlw.go.jp/21/index.php?action_kouhyou_detail_004_kani=true&JigyosyoCd=2192100036-00&ServiceCd=730&Type=search", "url2": "http://j-spc.co.jp/" }, "geometry": { "type": "Point", "coordinates": [ 136.562947374254037, 35.374112699501801 ] } },
{ "type": "Feature", "properties": { "内容": "わくわくホーム【小規模多機能型居宅介護】岐阜県大垣市荒川町367", "url": "https://www.kaigokensaku.mhlw.go.jp/21/index.php?action_kouhyou_detail_004_kani=true&JigyosyoCd=2192100077-00&ServiceCd=730&Type=search", "url2": "http://www.fuji-estate-ogaki.co.jp" }, "geometry": { "type": "Point", "coordinates": [ 136.575197, 35.3622105 ] } },
{ "type": "Feature", "properties": { "内容": "ニチイケアーセンター大垣墨俣【小規模多機能型居宅介護】岐阜県大垣市墨俣町墨俣452", "url": "https://www.kaigokensaku.mhlw.go.jp/21/index.php?action_kouhyou_detail_004_kani=true&JigyosyoCd=2192100127-00&ServiceCd=730&Type=search", "url2": null }, "geometry": { "type": "Point", "coordinates": [ 136.6819994, 35.3636293 ] } },
{ "type": "Feature", "properties": { "内容": "小規模多機能ホームわかもり【小規模多機能型居宅介護】岐阜県大垣市南若森５丁目１１０番１", "url": "https://www.kaigokensaku.mhlw.go.jp/21/index.php?action_kouhyou_detail_004_kani=true&JigyosyoCd=2192100192-00&ServiceCd=730&Type=search", "url2": "https://kmh-care.com" }, "geometry": { "type": "Point", "coordinates": [ 136.603390799999943, 35.3506486 ] } },
{ "type": "Feature", "properties": { "内容": "小規模多機能　いきいき【小規模多機能型居宅介護】岐阜県大垣市浅草1-382-3", "url": "https://www.kaigokensaku.mhlw.go.jp/21/index.php?action_kouhyou_detail_004_kani=true&JigyosyoCd=2192100218-00&ServiceCd=730&Type=search", "url2": "http://www.nisimino.com/aiki/" }, "geometry": { "type": "Point", "coordinates": [ 136.619453499999963, 35.3091961 ] } },
{ "type": "Feature", "properties": { "内容": "大垣市中川ふれあいホーム【小規模多機能型居宅介護】岐阜県大垣市中川町4丁目668番地1", "url": "https://www.kaigokensaku.mhlw.go.jp/21/index.php?action_kouhyou_detail_004_kani=true&JigyosyoCd=2192100283-00&ServiceCd=730&Type=search", "url2": "https://ogaki-fukushi.jp/" }, "geometry": { "type": "Point", "coordinates": [ 136.619426699999963, 35.3823039 ] } },
{ "type": "Feature", "properties": { "内容": "ほのぼの朝日ほずえの家【小規模多機能型居宅介護】岐阜県高山市下切町４９０番地１", "url": "https://www.kaigokensaku.mhlw.go.jp/21/index.php?action_kouhyou_detail_004_kani=true&JigyosyoCd=2192700066-00&ServiceCd=730&Type=search", "url2": "http://www.honobonoasahi.com" }, "geometry": { "type": "Point", "coordinates": [ 137.2493419, 36.1854881 ] } },
{ "type": "Feature", "properties": { "内容": "ほのぼの朝日まつもとの家【小規模多機能型居宅介護】岐阜県高山市松本町2227-3", "url": "https://www.kaigokensaku.mhlw.go.jp/21/index.php?action_kouhyou_detail_004_kani=true&JigyosyoCd=2192700074-00&ServiceCd=730&Type=search", "url2": "http://www.honobonoasahi.com" }, "geometry": { "type": "Point", "coordinates": [ 137.25388270000002, 36.1610787 ] } },
{ "type": "Feature", "properties": { "内容": "小規模多機能型居宅介護　けあらいふラルゴ【小規模多機能型居宅介護】岐阜県高山市新宮町676-5けあらいふラルゴ", "url": "https://www.kaigokensaku.mhlw.go.jp/21/index.php?action_kouhyou_detail_004_kani=true&JigyosyoCd=2192700090-00&ServiceCd=730&Type=search", "url2": "https://living-largo.com/" }, "geometry": { "type": "Point", "coordinates": [ 137.209708728394645, 36.131420691697016 ] } },
{ "type": "Feature", "properties": { "内容": "小規模多機能ホームきりん【小規模多機能型居宅介護】岐阜県高山市新宮町１５２０", "url": "https://www.kaigokensaku.mhlw.go.jp/21/index.php?action_kouhyou_detail_004_kani=true&JigyosyoCd=2192700108-00&ServiceCd=730&Type=search", "url2": "http://www.kirin3.com" }, "geometry": { "type": "Point", "coordinates": [ 137.212544406407261, 36.136879924461162 ] } },
{ "type": "Feature", "properties": { "内容": "小規模多機能居宅介護　けあらいふラルゴきよみ【小規模多機能型居宅介護】岐阜県高山市清見町牧ケ洞3942番地1", "url": "https://www.kaigokensaku.mhlw.go.jp/21/index.php?action_kouhyou_detail_004_kani=true&JigyosyoCd=2192700165-00&ServiceCd=730&Type=search", "url2": "http://living-largo.com/" }, "geometry": { "type": "Point", "coordinates": [ 137.166556899999932, 36.1338401 ] } },
{ "type": "Feature", "properties": { "内容": "小規模多機能ホームきりん国府【小規模多機能型居宅介護】岐阜県高山市国府町上広瀬1294-1", "url": "https://www.kaigokensaku.mhlw.go.jp/21/index.php?action_kouhyou_detail_004_kani=true&JigyosyoCd=2192700181-00&ServiceCd=730&Type=search", "url2": "http://www.kirin3.com" }, "geometry": { "type": "Point", "coordinates": [ 137.244948216272206, 36.201811924825854 ] } },
{ "type": "Feature", "properties": { "内容": "小規模多機能さくらそう【小規模多機能型居宅介護】岐阜県高山市赤保木町970-1", "url": "https://www.kaigokensaku.mhlw.go.jp/21/index.php?action_kouhyou_detail_004_kani=true&JigyosyoCd=2192700256-00&ServiceCd=730&Type=search", "url2": "http://mamenakana.com/" }, "geometry": { "type": "Point", "coordinates": [ 137.228588750003752, 36.160356179362061 ] } },
{ "type": "Feature", "properties": { "内容": "シャロン・ド・それいゆ【小規模多機能型居宅介護】岐阜県高山市昭和町２丁目85-1レザミひだメディケアガーデン北棟１階", "url": "https://www.kaigokensaku.mhlw.go.jp/21/index.php?action_kouhyou_detail_004_kani=true&JigyosyoCd=2192700025-00&ServiceCd=730&Type=search", "url2": "http://www.ori-doujinkai.or.jp/sharondo/" }, "geometry": { "type": "Point", "coordinates": [ 137.24978875648344, 36.146373571535015 ] } },
{ "type": "Feature", "properties": { "内容": "小規模多機能ホーム　さくらの杜【小規模多機能型居宅介護】岐阜県多治見市上町4丁目４６の１", "url": "https://www.kaigokensaku.mhlw.go.jp/21/index.php?action_kouhyou_detail_004_kani=true&JigyosyoCd=2191100110-00&ServiceCd=730&Type=search", "url2": null }, "geometry": { "type": "Point", "coordinates": [ 137.1371593, 35.3373552 ] } },
{ "type": "Feature", "properties": { "内容": "市之倉ひまわり小規模多機能事業所【小規模多機能型居宅介護】岐阜県　多治見市　市之倉町　13丁目83番地の353", "url": "https://www.kaigokensaku.mhlw.go.jp/21/index.php?action_kouhyou_detail_004_kani=true&JigyosyoCd=2191100060-00&ServiceCd=730&Type=search", "url2": "http://www.fukushi-himawari.co.jp" }, "geometry": { "type": "Point", "coordinates": [ 137.109176700000035, 35.3027603 ] } },
{ "type": "Feature", "properties": { "内容": "小規模多機能ホーム陶都【小規模多機能型居宅介護】岐阜県多治見市小名田町２丁目１１７番地ー１", "url": "https://www.kaigokensaku.mhlw.go.jp/21/index.php?action_kouhyou_detail_004_kani=true&JigyosyoCd=2191100128-00&ServiceCd=730&Type=search", "url2": null }, "geometry": { "type": "Point", "coordinates": [ 137.131388021040379, 35.360986913382703 ] } },
{ "type": "Feature", "properties": { "内容": "ＮＰＯ小規模多機能型居宅介護だいこんの花【小規模多機能型居宅介護】岐阜県関市西神野６０５番地１", "url": "https://www.kaigokensaku.mhlw.go.jp/21/index.php?action_kouhyou_detail_004_kani=true&JigyosyoCd=2190200085-00&ServiceCd=730&Type=search", "url2": null }, "geometry": { "type": "Point", "coordinates": [ 136.963448800000037, 35.5277134 ] } },
{ "type": "Feature", "properties": { "内容": "小規模多機能型居宅介護施設はなえみ【小規模多機能型居宅介護】岐阜県関市巾２丁目１８１番地", "url": "https://www.kaigokensaku.mhlw.go.jp/21/index.php?action_kouhyou_detail_004_kani=true&JigyosyoCd=2190200051-00&ServiceCd=730&Type=search", "url2": null }, "geometry": { "type": "Point", "coordinates": [ 136.888008799999966, 35.484719 ] } },
{ "type": "Feature", "properties": { "内容": "ほほえみごこち田原【小規模多機能型居宅介護】岐阜県関市西田原958番地", "url": "https://www.kaigokensaku.mhlw.go.jp/21/index.php?action_kouhyou_detail_004_kani=true&JigyosyoCd=2190200119-00&ServiceCd=730&Type=search", "url2": "https://www.hohoemi.or.jp/" }, "geometry": { "type": "Point", "coordinates": [ 136.944244417196586, 35.46090967752297 ] } },
{ "type": "Feature", "properties": { "内容": "だいこんの花肥田瀬【小規模多機能型居宅介護】岐阜県関市肥田瀬2719番地1", "url": "https://www.kaigokensaku.mhlw.go.jp/21/index.php?action_kouhyou_detail_004_kani=true&JigyosyoCd=2190200135-00&ServiceCd=730&Type=search", "url2": null }, "geometry": { "type": "Point", "coordinates": [ 136.947387099999986, 35.4753629 ] } },
{ "type": "Feature", "properties": { "内容": "小規模多機能ホームこまんば【小規模多機能型居宅介護】岐阜県中津川市駒場1493番地19", "url": "https://www.kaigokensaku.mhlw.go.jp/21/index.php?action_kouhyou_detail_004_kani=true&JigyosyoCd=2191500095-00&ServiceCd=730&Type=search", "url2": null }, "geometry": { "type": "Point", "coordinates": [ 137.483975387627424, 35.483132507956817 ] } },
{ "type": "Feature", "properties": { "内容": "小規模多機能ホーム　Ｄｏ愛【小規模多機能型居宅介護】岐阜県中津川市坂下931-1", "url": "https://www.kaigokensaku.mhlw.go.jp/21/index.php?action_kouhyou_detail_004_kani=true&JigyosyoCd=2191500103-00&ServiceCd=730&Type=search", "url2": null }, "geometry": { "type": "Point", "coordinates": [ 137.531594714155517, 35.57164493664304 ] } },
{ "type": "Feature", "properties": { "内容": "小規模多機能恵寿【小規模多機能型居宅介護】岐阜県中津川市苗木並松4618-12", "url": "https://www.kaigokensaku.mhlw.go.jp/21/index.php?action_kouhyou_detail_004_kani=true&JigyosyoCd=2191500186-00&ServiceCd=730&Type=search", "url2": "http://www.keijyu-nc.com" }, "geometry": { "type": "Point", "coordinates": [ 137.456723290351874, 35.52949420749993 ] } },
{ "type": "Feature", "properties": { "内容": "小規模多機能ホームいちにのさん【小規模多機能型居宅介護】岐阜県瑞浪市陶町猿爪２４番地の２", "url": "https://www.kaigokensaku.mhlw.go.jp/21/index.php?action_kouhyou_detail_004_kani=true&JigyosyoCd=2191600051-00&ServiceCd=730&Type=search", "url2": null }, "geometry": { "type": "Point", "coordinates": [ 137.322733112828018, 35.319944856761055 ] } },
{ "type": "Feature", "properties": { "内容": "小規模多機能ホームわおんあした葉【小規模多機能型居宅介護】岐阜県羽島市上中町中746-2", "url": "https://www.kaigokensaku.mhlw.go.jp/21/index.php?action_kouhyou_detail_004_kani=true&JigyosyoCd=2170400515-00&ServiceCd=730&Type=search", "url2": "http://www.waonnoie.com" }, "geometry": { "type": "Point", "coordinates": [ 136.701939, 35.2976124 ] } },
{ "type": "Feature", "properties": { "内容": "小規模多機能ホームうららびより羽島【小規模多機能型居宅介護】岐阜県羽島市竹鼻町飯柄１５５－１", "url": "https://www.kaigokensaku.mhlw.go.jp/21/index.php?action_kouhyou_detail_004_kani=true&JigyosyoCd=2190400073-00&ServiceCd=730&Type=search", "url2": "http://www.urarabiyori.com/" }, "geometry": { "type": "Point", "coordinates": [ 136.7153561, 35.316541 ] } },
{ "type": "Feature", "properties": { "内容": "小規模多機能ホーム　わおん　新芽【小規模多機能型居宅介護】岐阜県羽島市福寿町平方２４８０番地", "url": "https://www.kaigokensaku.mhlw.go.jp/21/index.php?action_kouhyou_detail_004_kani=true&JigyosyoCd=2190400081-00&ServiceCd=730&Type=search", "url2": "http://waonnoie.com" }, "geometry": { "type": "Point", "coordinates": [ 136.670505695583643, 35.315320480280306 ] } },
{ "type": "Feature", "properties": { "内容": "ハートホーム東野【小規模多機能型居宅介護】岐阜県恵那市東野1212-4", "url": "https://www.kaigokensaku.mhlw.go.jp/21/index.php?action_kouhyou_detail_004_kani=true&JigyosyoCd=2191700067-00&ServiceCd=730&Type=search", "url2": null }, "geometry": { "type": "Point", "coordinates": [ 137.428860304893561, 35.446206150896984 ] } },
{ "type": "Feature", "properties": { "内容": "小規模多機能型めぐみ【小規模多機能型居宅介護】岐阜県恵那市笠置町姫栗1549番地1", "url": "https://www.kaigokensaku.mhlw.go.jp/21/index.php?action_kouhyou_detail_004_kani=true&JigyosyoCd=2191700034-00&ServiceCd=730&Type=search", "url2": "http://k-megumi.enat.jp/" }, "geometry": { "type": "Point", "coordinates": [ 137.351154899999983, 35.47393150000002 ] } },
{ "type": "Feature", "properties": { "内容": "藤の里「結い」小規模多機能ホーム【小規模多機能型居宅介護】岐阜県恵那市武並町藤１９２９－１", "url": "https://www.kaigokensaku.mhlw.go.jp/21/index.php?action_kouhyou_detail_004_kani=true&JigyosyoCd=2191700083-00&ServiceCd=730&Type=search", "url2": "http://www.fujinosato-yui.com/" }, "geometry": { "type": "Point", "coordinates": [ 137.32149359999994, 35.4575567 ] } },
{ "type": "Feature", "properties": { "内容": "小規模多機能型居宅介護事業所ケアホームあじさい【小規模多機能型居宅介護】岐阜県恵那市明智町1115-1-1", "url": "https://www.kaigokensaku.mhlw.go.jp/21/index.php?action_kouhyou_detail_004_kani=true&JigyosyoCd=2191700091-00&ServiceCd=730&Type=search", "url2": null }, "geometry": { "type": "Point", "coordinates": [ 137.394046300000014, 35.2971863 ] } },
{ "type": "Feature", "properties": { "内容": "小規模多機能型居宅介護　プラタナス【小規模多機能型居宅介護】岐阜県各務原市那加前洞新町４－４９", "url": "https://www.kaigokensaku.mhlw.go.jp/21/index.php?action_kouhyou_detail_004_kani=true&JigyosyoCd=2190500054-00&ServiceCd=730&Type=search", "url2": "http://www.tanaka-c.com/care.html" }, "geometry": { "type": "Point", "coordinates": [ 136.839841358895427, 35.408767361056363 ] } },
{ "type": "Feature", "properties": { "内容": "あかりの家（川島苑）【小規模多機能型居宅介護】岐阜県各務原市川島松倉町１４３５番地小規模多機能型居宅介護　あかりの家（川島苑）", "url": "https://www.kaigokensaku.mhlw.go.jp/21/index.php?action_kouhyou_detail_004_kani=true&JigyosyoCd=2190500138-00&ServiceCd=730&Type=search", "url2": "http://www.akari-8.com" }, "geometry": { "type": "Point", "coordinates": [ 136.832142400000066, 35.3664099 ] } },
{ "type": "Feature", "properties": { "内容": "七耀の杜【小規模多機能型居宅介護】岐阜県各務原市鵜沼東町5丁目7番地", "url": "https://www.kaigokensaku.mhlw.go.jp/21/index.php?action_kouhyou_detail_004_kani=true&JigyosyoCd=2190500013-00&ServiceCd=730&Type=search", "url2": "http://www.shichiyou-kai.or.jp" }, "geometry": { "type": "Point", "coordinates": [ 136.940235222090109, 35.401768216257189 ] } },
{ "type": "Feature", "properties": { "内容": "ニッケふれあいセンターかかみ野【小規模多機能型居宅介護】岐阜県各務原市鵜沼各務原町８丁目７番地", "url": "https://www.kaigokensaku.mhlw.go.jp/21/index.php?action_kouhyou_detail_004_kani=true&JigyosyoCd=2190500070-00&ServiceCd=730&Type=search", "url2": "http://nikkecare.com" }, "geometry": { "type": "Point", "coordinates": [ 136.908415468539516, 35.396002827531376 ] } },
{ "type": "Feature", "properties": { "内容": "陽だまりの宿【小規模多機能型居宅介護】岐阜県各務原市三井町２丁目１４－１", "url": "https://www.kaigokensaku.mhlw.go.jp/21/index.php?action_kouhyou_detail_004_kani=true&JigyosyoCd=2190500104-00&ServiceCd=730&Type=search", "url2": null }, "geometry": { "type": "Point", "coordinates": [ 136.833938399999965, 35.3930033 ] } },
{ "type": "Feature", "properties": { "内容": "小規模多機能型居宅介護　らぽら・ぽら【小規模多機能型居宅介護】岐阜県各務原市鵜沼各務原町9丁目195番地", "url": "https://www.kaigokensaku.mhlw.go.jp/21/index.php?action_kouhyou_detail_004_kani=true&JigyosyoCd=2190500120-00&ServiceCd=730&Type=search", "url2": "http://www.phoenix-g.jp" }, "geometry": { "type": "Point", "coordinates": [ 136.911569500000041, 35.3968069 ] } },
{ "type": "Feature", "properties": { "内容": "小規模多機能型居宅介護　ジョイフル新那加【小規模多機能型居宅介護】岐阜県各務原市那加新那加28-2", "url": "https://www.kaigokensaku.mhlw.go.jp/21/index.php?action_kouhyou_detail_004_kani=true&JigyosyoCd=2190500419-00&ServiceCd=730&Type=search", "url2": "https://sun-vision.or.jp/" }, "geometry": { "type": "Point", "coordinates": [ 136.832846099999983, 35.3998798 ] } },
{ "type": "Feature", "properties": { "内容": "小規模多機能型居宅介護ほほえみほーむ春里【小規模多機能型居宅介護】岐阜県可児市矢戸68番", "url": "https://www.kaigokensaku.mhlw.go.jp/21/index.php?action_kouhyou_detail_004_kani=true&JigyosyoCd=2193100027-00&ServiceCd=730&Type=search", "url2": "https://www.andoclinic.jp/clinic" }, "geometry": { "type": "Point", "coordinates": [ 137.022751, 35.3994499 ] } },
{ "type": "Feature", "properties": { "内容": "ゆめの家【小規模多機能型居宅介護】岐阜県可児市下恵土３４４０－６７８", "url": "https://www.kaigokensaku.mhlw.go.jp/21/index.php?action_kouhyou_detail_004_kani=true&JigyosyoCd=2193100043-00&ServiceCd=730&Type=search", "url2": "https://www.andoclinic.jp/" }, "geometry": { "type": "Point", "coordinates": [ 137.046939699999939, 35.4252536 ] } },
{ "type": "Feature", "properties": { "内容": "小規模多機能ホーム　しゃくなげ【小規模多機能型居宅介護】岐阜県山県市東深瀬505-1", "url": "https://www.kaigokensaku.mhlw.go.jp/21/index.php?action_kouhyou_detail_004_kani=true&JigyosyoCd=2190800041-00&ServiceCd=730&Type=search", "url2": "http://heian-gifu.jp" }, "geometry": { "type": "Point", "coordinates": [ 136.790986831877149, 35.5199187412668 ] } },
{ "type": "Feature", "properties": { "内容": "もやいの家チクタク【小規模多機能型居宅介護】岐阜県瑞穂市別府１１９３番地１", "url": "https://www.kaigokensaku.mhlw.go.jp/21/index.php?action_kouhyou_detail_004_kani=true&JigyosyoCd=2193200058-00&ServiceCd=730&Type=search", "url2": "https://www.sun-village.jp/" }, "geometry": { "type": "Point", "coordinates": [ 136.694407709516327, 35.392797250171391 ] } },
{ "type": "Feature", "properties": { "内容": "小規模多機能ホームきりん心和【小規模多機能型居宅介護】岐阜県飛騨市古川町信包１８９小規模多機能ホームきりん心和　住宅型有料老人ホーム喜林ハウス飛騨", "url": "https://www.kaigokensaku.mhlw.go.jp/21/index.php?action_kouhyou_detail_004_kani=true&JigyosyoCd=2193300080-00&ServiceCd=730&Type=search", "url2": "http://www.kirin3.com" }, "geometry": { "type": "Point", "coordinates": [ 137.138749299999972, 36.2539329 ] } },
{ "type": "Feature", "properties": { "内容": "ファミリーケア本巣　うぐいす庵【小規模多機能型居宅介護】岐阜県本巣市三橋鶴舞98番地", "url": "https://www.kaigokensaku.mhlw.go.jp/21/index.php?action_kouhyou_detail_004_kani=true&JigyosyoCd=2193400054-00&ServiceCd=730&Type=search", "url2": "http://www.wakokai.or.jp" }, "geometry": { "type": "Point", "coordinates": [ 136.67583680000007, 35.4469438 ] } },
{ "type": "Feature", "properties": { "内容": "ニチイケアセンター本巣【小規模多機能型居宅介護】岐阜県本巣市曽井中島665-5", "url": "https://www.kaigokensaku.mhlw.go.jp/21/index.php?action_kouhyou_detail_004_kani=true&JigyosyoCd=2193400039-00&ServiceCd=730&Type=search", "url2": "http://www.nichiigakkan.co.jp" }, "geometry": { "type": "Point", "coordinates": [ 136.672145585161843, 35.487539213132365 ] } },
{ "type": "Feature", "properties": { "内容": "特定非営利活動法人ほたるの家【小規模多機能型居宅介護】岐阜県郡上市八幡町初音4481番地", "url": "https://www.kaigokensaku.mhlw.go.jp/21/index.php?action_kouhyou_detail_004_kani=true&JigyosyoCd=2191000021-00&ServiceCd=730&Type=search", "url2": null }, "geometry": { "type": "Point", "coordinates": [ 136.964805378459232, 35.790223114775763 ] } },
{ "type": "Feature", "properties": { "内容": "ファミリア下呂【小規模多機能型居宅介護】岐阜県下呂市森2273", "url": "https://www.kaigokensaku.mhlw.go.jp/21/index.php?action_kouhyou_detail_004_kani=true&JigyosyoCd=2192800015-00&ServiceCd=730&Type=search", "url2": "http://www.yuzankai.com" }, "geometry": { "type": "Point", "coordinates": [ 137.250924719957879, 35.805780670301715 ] } },
{ "type": "Feature", "properties": { "内容": "医療法人　悠山会　ファミリア小坂【小規模多機能型居宅介護】岐阜県下呂市小坂町坂下７１６－１", "url": "https://www.kaigokensaku.mhlw.go.jp/21/index.php?action_kouhyou_detail_004_kani=true&JigyosyoCd=2192800072-00&ServiceCd=730&Type=search", "url2": "http://www.yuzankai.com/business/famiria.php" }, "geometry": { "type": "Point", "coordinates": [ 137.250223600000027, 35.93514540000001 ] } },
{ "type": "Feature", "properties": { "内容": "小規模多機能　かいさいの華【小規模多機能型居宅介護】岐阜県海津市平田町野寺1092番地の1", "url": "https://www.kaigokensaku.mhlw.go.jp/21/index.php?action_kouhyou_detail_004_kani=true&JigyosyoCd=2192200067-00&ServiceCd=730&Type=search", "url2": "http://www.keibonokai.org" }, "geometry": { "type": "Point", "coordinates": [ 136.66228985351583, 35.272846224915575 ] } },
{ "type": "Feature", "properties": { "内容": "グッデイすぎない小規模多機能型居宅介護事業所【小規模多機能型居宅介護】岐阜県羽島郡笠松町二見町15-1", "url": "https://www.kaigokensaku.mhlw.go.jp/21/index.php?action_kouhyou_detail_004_kani=true&JigyosyoCd=2190600094-00&ServiceCd=730&Type=search", "url2": "http://www.g-suginai.com/goodday-top.html" }, "geometry": { "type": "Point", "coordinates": [ 136.763369079727568, 35.37119815411522 ] } },
{ "type": "Feature", "properties": { "内容": "笠松いきいき倶楽部　小規模多機能型居宅事業所アライブ【小規模多機能型居宅介護】岐阜県羽島郡笠松町長池字宮代352-1笠松いきいき倶楽部", "url": "https://www.kaigokensaku.mhlw.go.jp/21/index.php?action_kouhyou_detail_004_kani=true&JigyosyoCd=2190600102-00&ServiceCd=730&Type=search", "url2": "https://koukeikai.jp/" }, "geometry": { "type": "Point", "coordinates": [ 136.751714575303765, 35.353677630820449 ] } },
{ "type": "Feature", "properties": { "内容": "小規模多機能ホーム　つばきの郷【小規模多機能型居宅介護】岐阜県養老郡養老町押越683-2", "url": "https://www.kaigokensaku.mhlw.go.jp/21/index.php?action_kouhyou_detail_004_kani=true&JigyosyoCd=2192300040-00&ServiceCd=730&Type=search", "url2": "https://yoshidakai-hp.com/yoshidakai/" }, "geometry": { "type": "Point", "coordinates": [ 136.557291252670353, 35.306889736058167 ] } },
{ "type": "Feature", "properties": { "内容": "小規模多機能型居宅介護りんどう【小規模多機能型居宅介護】岐阜県安八郡神戸町北一色555-1", "url": "https://www.kaigokensaku.mhlw.go.jp/21/index.php?action_kouhyou_detail_004_kani=true&JigyosyoCd=2192500029-00&ServiceCd=730&Type=search", "url2": "https://zenshinkai.or.jp" }, "geometry": { "type": "Point", "coordinates": [ 136.59437980000007, 35.4295966 ] } },
{ "type": "Feature", "properties": { "内容": "小規模多機能型居宅介護事業所ＩＢ【小規模多機能型居宅介護】岐阜県揖斐郡揖斐川町長良657番地1", "url": "https://www.kaigokensaku.mhlw.go.jp/21/index.php?action_kouhyou_detail_004_kani=true&JigyosyoCd=2192600126-00&ServiceCd=730&Type=search", "url2": "http://www.plaza21oono.jp/IB" }, "geometry": { "type": "Point", "coordinates": [ 136.584317374313287, 35.474552261854448 ] } },
{ "type": "Feature", "properties": { "内容": "もやいの家　市橋【小規模多機能型居宅介護】岐阜県揖斐郡池田町市橋1638", "url": "https://www.kaigokensaku.mhlw.go.jp/21/index.php?action_kouhyou_detail_004_kani=true&JigyosyoCd=2192600019-00&ServiceCd=730&Type=search", "url2": "https://www.sun-village.jp/" }, "geometry": { "type": "Point", "coordinates": [ 136.577146, 35.4106264 ] } },
{ "type": "Feature", "properties": { "内容": "小規模多機能型居宅介護　夢眠【小規模多機能型居宅介護】岐阜県加茂郡八百津町４０４４番地２", "url": "https://www.kaigokensaku.mhlw.go.jp/21/index.php?action_kouhyou_detail_004_kani=true&JigyosyoCd=2191300082-00&ServiceCd=730&Type=search", "url2": "https://kinkousya.jp/" }, "geometry": { "type": "Point", "coordinates": [ 137.198138824508646, 35.511306251453234 ] } }
]
}
