{
"type": "FeatureCollection",
"name": "geo_21_1",
"crs": { "type": "name", "properties": { "name": "urn:ogc:def:crs:OGC:1.3:CRS84" } },
"features": [
{ "type": "Feature", "properties": { "ID": 2111341000098, "正式名称": "公益社団法人　岐阜病院", "機関区分": 1, "都道府県コード": 21, "市区町村コード": 201, "所在地": "岐阜県岐阜市日野東３丁目１３番６号", "緯度": 35.433024, "経度": 136.814238, "url": "https://www.iryou.teikyouseido.mhlw.go.jp/znk-web/juminkanja/S2430/initialize?prefCd=21&kikanCd=1341000098&kikanKbn=1", "url2": "http://www.shadan-gifu.or.jp", "内容": "公益社団法人　岐阜病院【1:病院】【診療科目:精神科_神経科_心療内科_歯科】【一般病床数:0療養病床数:0精神病床数:478感染症病床数:0合計病床数:478】岐阜県岐阜市日野東３丁目１３番６号" }, "geometry": { "type": "Point", "coordinates": [ 136.814238, 35.433024 ] } },
{ "type": "Feature", "properties": { "ID": 2111341000102, "正式名称": "岐阜県総合医療センター", "機関区分": 1, "都道府県コード": 21, "市区町村コード": 201, "所在地": "岐阜県岐阜市野一色４ー６ー１", "緯度": 35.410533, "経度": 136.798763, "url": "https://www.iryou.teikyouseido.mhlw.go.jp/znk-web/juminkanja/S2430/initialize?prefCd=21&kikanCd=1341000102&kikanKbn=1", "url2": "https://www.gifu-hp.jp", "内容": "岐阜県総合医療センター【1:病院】【診療科目:内科_感染症内科_血液内科_糖尿病・内分泌内科_脳神経内科_呼吸器内科_循環器内科_消化器内科_腎臓内科_肝臓内科_疼痛緩和内科_小児救急科_外科_脳神経外科_呼吸器外科_心臓血管外科_消化器外科_乳腺外科_整形外科_形成外科_疼痛緩和外科_小児科_小児外科_新生児内科_小児循環器内科，小児心臓外科，小児脳神経外科_産婦人科_眼科_耳鼻いんこう科_皮膚科_泌尿器科_精神科_歯科口腔外科_リハビリテーション科_放射線科_放射線治療科_臨床検査科_救急科_麻酔科_小児救急科】【一般病床数:620療養病床数:0精神病床数:0感染症病床数:0合計病床数:620】岐阜県岐阜市野一色４ー６ー１" }, "geometry": { "type": "Point", "coordinates": [ 136.798763, 35.410533 ] } },
{ "type": "Feature", "properties": { "ID": 2111341000103, "正式名称": "岐阜市民病院", "機関区分": 1, "都道府県コード": 21, "市区町村コード": 201, "所在地": "岐阜県岐阜市鹿島町７丁目１番地", "緯度": 35.414067, "経度": 136.734729, "url": "https://www.iryou.teikyouseido.mhlw.go.jp/znk-web/juminkanja/S2430/initialize?prefCd=21&kikanCd=1341000103&kikanKbn=1", "url2": "https://gmhosp.jp", "内容": "岐阜市民病院【1:病院】【診療科目:内科_血液内科_糖尿病・内分泌内科_脳神経内科_呼吸器内科_循環器内科_消化器内科_腎臓内科_腫瘍内科_外科_脳神経外科_呼吸器外科_心臓血管外科_乳腺外科_頭頸部外科_整形外科_小児科_産婦人科_眼科_耳鼻いんこう科_皮膚科_泌尿器科_精神科_歯科_歯科口腔外科_リハビリテーション科_放射線科_病理診断科_臨床検査科_麻酔科】【一般病床数:505療養病床数:0精神病床数:50感染症病床数:0合計病床数:555】岐阜県岐阜市鹿島町７丁目１番地" }, "geometry": { "type": "Point", "coordinates": [ 136.734729, 35.414067 ] } },
{ "type": "Feature", "properties": { "ID": 2111341000104, "正式名称": "岐阜赤十字病院", "機関区分": 1, "都道府県コード": 21, "市区町村コード": 201, "所在地": "岐阜県岐阜市岩倉町３丁目３６番地", "緯度": 35.433681, "経度": 136.75586, "url": "https://www.iryou.teikyouseido.mhlw.go.jp/znk-web/juminkanja/S2430/initialize?prefCd=21&kikanCd=1341000104&kikanKbn=1", "url2": "https://www.gifu-med.jrc.or.jp", "内容": "岐阜赤十字病院【1:病院】【診療科目:内科_感染症内科_血液内科_糖尿病・内分泌内科_脳神経内科_呼吸器内科_循環器内科_消化器内科_腎臓内科_内視鏡内科_外科_脳神経外科_消化器外科_大腸・肛門外科_整形外科_内分泌外科_小児科_産婦人科_眼科_耳鼻いんこう科_皮膚科_泌尿器科_精神科_リウマチ科_リハビリテーション科_放射線科_病理診断科_麻酔科】【一般病床数:276療養病床数:0精神病床数:3感染症病床数:8合計病床数:287】岐阜県岐阜市岩倉町３丁目３６番地" }, "geometry": { "type": "Point", "coordinates": [ 136.75586, 35.433681 ] } },
{ "type": "Feature", "properties": { "ID": 2111341000106, "正式名称": "近石病院", "機関区分": 1, "都道府県コード": 21, "市区町村コード": 201, "所在地": "岐阜県岐阜市光町２－４６", "緯度": 35.43494, "経度": 136.74762, "url": "https://www.iryou.teikyouseido.mhlw.go.jp/znk-web/juminkanja/S2430/initialize?prefCd=21&kikanCd=1341000106&kikanKbn=1", "url2": "http://touhoukai.or.jp", "内容": "近石病院【1:病院】【診療科目:内科_呼吸器内科_循環器内科_消化器内科_神経内科_外科_脳神経外科_肛門外科_整形外科_皮膚科_歯科口腔外科_リウマチ科_リハビリテーション科_放射線科_麻酔科】【一般病床数:125療養病床数:0精神病床数:0感染症病床数:0合計病床数:125】岐阜県岐阜市光町２－４６" }, "geometry": { "type": "Point", "coordinates": [ 136.74762, 35.43494 ] } },
{ "type": "Feature", "properties": { "ID": 2111341000111, "正式名称": "操レディスホスピタル", "機関区分": 1, "都道府県コード": 21, "市区町村コード": 201, "所在地": "岐阜県岐阜市津島町６丁目１９番地", "緯度": 35.435244, "経度": 136.759817, "url": "https://www.iryou.teikyouseido.mhlw.go.jp/znk-web/juminkanja/S2430/initialize?prefCd=21&kikanCd=1341000111&kikanKbn=1", "url2": "https://www.misao-ladies.jp/", "内容": "操レディスホスピタル【1:病院】【診療科目:産科_婦人科_産婦人科（生殖医療）】【一般病床数:32療養病床数:0精神病床数:0感染症病床数:0合計病床数:32】岐阜県岐阜市津島町６丁目１９番地" }, "geometry": { "type": "Point", "coordinates": [ 136.759817, 35.435244 ] } },
{ "type": "Feature", "properties": { "ID": 2111341000114, "正式名称": "医療法人社団　永寿会　大橋整形外科病院", "機関区分": 1, "都道府県コード": 21, "市区町村コード": 201, "所在地": "岐阜県岐阜市栄新町二丁目五十番地", "緯度": 35.437802, "経度": 136.759591, "url": "https://www.iryou.teikyouseido.mhlw.go.jp/znk-web/juminkanja/S2430/initialize?prefCd=21&kikanCd=1341000114&kikanKbn=1", "url2": "http://www.eijyukai-ohhashi.or.jp", "内容": "医療法人社団　永寿会　大橋整形外科病院【1:病院】【診療科目:整形外科_リウマチ科_リハビリテーション科_麻酔科】【一般病床数:0療養病床数:50精神病床数:0感染症病床数:0合計病床数:50】岐阜県岐阜市栄新町二丁目五十番地" }, "geometry": { "type": "Point", "coordinates": [ 136.759591, 35.437802 ] } },
{ "type": "Feature", "properties": { "ID": 2111341000115, "正式名称": "医療法人社団　幸紀会　安江病院", "機関区分": 1, "都道府県コード": 21, "市区町村コード": 201, "所在地": "岐阜県岐阜市鏡島西２丁目４番１４号", "緯度": 35.409026, "経度": 136.71614, "url": "https://www.iryou.teikyouseido.mhlw.go.jp/znk-web/juminkanja/S2430/initialize?prefCd=21&kikanCd=1341000115&kikanKbn=1", "url2": "http://www.koukikai.gr.jp", "内容": "医療法人社団　幸紀会　安江病院【1:病院】【診療科目:内科_糖尿病内科_呼吸器内科_循環器内科_消化器内科_外科_脳神経外科_消化器外科_乳腺外科_肛門外科_整形外科_耳鼻いんこう科_皮膚科_リウマチ科_リハビリテーション科_放射線科_麻酔科】【一般病床数:60療養病床数:0精神病床数:0感染症病床数:0合計病床数:60】岐阜県岐阜市鏡島西２丁目４番１４号" }, "geometry": { "type": "Point", "coordinates": [ 136.71614, 35.409026 ] } },
{ "type": "Feature", "properties": { "ID": 2111341000116, "正式名称": "医療法人社団　慈朋会　澤田病院", "機関区分": 1, "都道府県コード": 21, "市区町村コード": 201, "所在地": "岐阜県岐阜市野一色７丁目２番５号", "緯度": 35.417385, "経度": 136.805279, "url": "https://www.iryou.teikyouseido.mhlw.go.jp/znk-web/juminkanja/S2430/initialize?prefCd=21&kikanCd=1341000116&kikanKbn=1", "url2": "https://www.sawada-hp.or.jp", "内容": "医療法人社団　慈朋会　澤田病院【1:病院】【診療科目:内科_呼吸器内科_循環器内科_消化器内科_外科_消化器外科_肛門外科_整形外科_小児科_皮膚科_泌尿器科_リハビリテーション科_放射線科】【一般病床数:50療養病床数:140精神病床数:0感染症病床数:0合計病床数:190】岐阜県岐阜市野一色７丁目２番５号" }, "geometry": { "type": "Point", "coordinates": [ 136.805279, 35.417385 ] } },
{ "type": "Feature", "properties": { "ID": 2111341000118, "正式名称": "河村病院", "機関区分": 1, "都道府県コード": 21, "市区町村コード": 201, "所在地": "岐阜県岐阜市芥見大般若１丁目８４番地", "緯度": 35.438976, "経度": 136.843958, "url": "https://www.iryou.teikyouseido.mhlw.go.jp/znk-web/juminkanja/S2430/initialize?prefCd=21&kikanCd=1341000118&kikanKbn=1", "url2": "http://kawamuramedical.or.jp/", "内容": "河村病院【1:病院】【診療科目:内科_脳神経内科_呼吸器内科_循環器内科_消化器内科_腎臓内科_外科_脳神経外科_消化器外科_整形外科_小児科_眼科_耳鼻いんこう科_皮膚科_泌尿器科_精神科_心療内科_歯科_歯科口腔外科_リハビリテーション科_麻酔科】【一般病床数:157療養病床数:158精神病床数:0感染症病床数:0合計病床数:315】岐阜県岐阜市芥見大般若１丁目８４番地" }, "geometry": { "type": "Point", "coordinates": [ 136.843958, 35.438976 ] } },
{ "type": "Feature", "properties": { "ID": 2111341000119, "正式名称": "操外科病院", "機関区分": 1, "都道府県コード": 21, "市区町村コード": 201, "所在地": "岐阜県岐阜市四屋町４３", "緯度": 35.430134, "経度": 136.760603, "url": "https://www.iryou.teikyouseido.mhlw.go.jp/znk-web/juminkanja/S2430/initialize?prefCd=21&kikanCd=1341000119&kikanKbn=1", "url2": "https://www.misaogeka-hp.com/", "内容": "操外科病院【1:病院】【診療科目:外科_脳神経外科_胃腸外科_肛門外科_整形外科_皮膚科_腎臓・泌尿器科_リハビリテーション科_放射線科】【一般病床数:35療養病床数:0精神病床数:0感染症病床数:0合計病床数:35】岐阜県岐阜市四屋町４３" }, "geometry": { "type": "Point", "coordinates": [ 136.760603, 35.430134 ] } },
{ "type": "Feature", "properties": { "ID": 2111341000120, "正式名称": "朝日大学病院", "機関区分": 1, "都道府県コード": 21, "市区町村コード": 201, "所在地": "岐阜県岐阜市橋本町３丁目２３番地", "緯度": 35.4107, "経度": 136.749559, "url": "https://www.iryou.teikyouseido.mhlw.go.jp/znk-web/juminkanja/S2430/initialize?prefCd=21&kikanCd=1341000120&kikanKbn=1", "url2": "http://www.hosp.asahi-u.ac.jp", "内容": "朝日大学病院【1:病院】【診療科目:内科_糖尿病・内分泌内科_脳神経内科_呼吸器内科_循環器内科_消化器内科_腎臓内科_外科_脳神経外科_心臓血管外科_消化器外科_乳腺外科_頭頸部外科_整形外科_形成外科_婦人科_眼科_耳鼻いんこう科_頭頸部・耳鼻いんこう科_皮膚科_泌尿器科_歯科_歯科口腔外科_リウマチ科_リハビリテーション科_放射線診断科_放射線治療科_病理診断科_麻酔科】【一般病床数:381療養病床数:0精神病床数:0感染症病床数:0合計病床数:381】岐阜県岐阜市橋本町３丁目２３番地" }, "geometry": { "type": "Point", "coordinates": [ 136.749559, 35.4107 ] } },
{ "type": "Feature", "properties": { "ID": 2111341000122, "正式名称": "医療法人岐阜勤労者医療協会みどり病院", "機関区分": 1, "都道府県コード": 21, "市区町村コード": 201, "所在地": "岐阜県岐阜市北山", "緯度": 35.458645, "経度": 136.853196, "url": "https://www.iryou.teikyouseido.mhlw.go.jp/znk-web/juminkanja/S2430/initialize?prefCd=21&kikanCd=1341000122&kikanKbn=1", "url2": "http://www.gifu-min.jp/midori/", "内容": "医療法人岐阜勤労者医療協会みどり病院【1:病院】【診療科目:内科_循環器内科_人工透析内科_小児科_精神科_歯科_アレルギー科_リハビリテーション科_放射線科】【一般病床数:99療養病床数:0精神病床数:0感染症病床数:0合計病床数:99】岐阜県岐阜市北山" }, "geometry": { "type": "Point", "coordinates": [ 136.853196, 35.458645 ] } },
{ "type": "Feature", "properties": { "ID": 2111341000124, "正式名称": "医療法人社団双樹会　早徳病院", "機関区分": 1, "都道府県コード": 21, "市区町村コード": 201, "所在地": "岐阜県岐阜市宇佐南１丁目８番１号", "緯度": 35.396821, "経度": 136.734882, "url": "https://www.iryou.teikyouseido.mhlw.go.jp/znk-web/juminkanja/S2430/initialize?prefCd=21&kikanCd=1341000124&kikanKbn=1", "url2": "http://www.hayatoku.jp/", "内容": "医療法人社団双樹会　早徳病院【1:病院】【診療科目:内科_消化器内科_人工透析内科_外科_心臓血管外科_消化器外科_乳腺外科_肛門外科_整形外科_リハビリテーション科】【一般病床数:40療養病床数:60精神病床数:0感染症病床数:0合計病床数:100】岐阜県岐阜市宇佐南１丁目８番１号" }, "geometry": { "type": "Point", "coordinates": [ 136.734882, 35.396821 ] } },
{ "type": "Feature", "properties": { "ID": 2111341000125, "正式名称": "医療法人社団志朋会　加納渡辺病院", "機関区分": 1, "都道府県コード": 21, "市区町村コード": 201, "所在地": "岐阜県岐阜市加納城南通１丁目２３番地", "緯度": 35.397747, "経度": 136.759973, "url": "https://www.iryou.teikyouseido.mhlw.go.jp/znk-web/juminkanja/S2430/initialize?prefCd=21&kikanCd=1341000125&kikanKbn=1", "url2": "https://kano-watanabe.jp", "内容": "医療法人社団志朋会　加納渡辺病院【1:病院】【診療科目:内科_外科_肛門外科_整形外科_皮膚科_泌尿器科_リハビリテーション科】【一般病床数:34療養病床数:0精神病床数:0感染症病床数:0合計病床数:34】岐阜県岐阜市加納城南通１丁目２３番地" }, "geometry": { "type": "Point", "coordinates": [ 136.759973, 35.397747 ] } },
{ "type": "Feature", "properties": { "ID": 2111341000126, "正式名称": "城南病院", "機関区分": 1, "都道府県コード": 21, "市区町村コード": 201, "所在地": "岐阜県岐阜市茜部新所１－２１", "緯度": 35.387864, "経度": 136.755143, "url": "https://www.iryou.teikyouseido.mhlw.go.jp/znk-web/juminkanja/S2430/initialize?prefCd=21&kikanCd=1341000126&kikanKbn=1", "url2": "https://jyonan-seikei-hp.com", "内容": "城南病院【1:病院】【診療科目:整形外科_リウマチ科_リハビリテーション科】【一般病床数:0療養病床数:60精神病床数:0感染症病床数:0合計病床数:60】岐阜県岐阜市茜部新所１－２１" }, "geometry": { "type": "Point", "coordinates": [ 136.755143, 35.387864 ] } },
{ "type": "Feature", "properties": { "ID": 2111341000128, "正式名称": "山内ホスピタル", "機関区分": 1, "都道府県コード": 21, "市区町村コード": 201, "所在地": "岐阜県岐阜市市橋３丁目７番２２号", "緯度": 35.399316, "経度": 136.725017, "url": "https://www.iryou.teikyouseido.mhlw.go.jp/znk-web/juminkanja/S2430/initialize?prefCd=21&kikanCd=1341000128&kikanKbn=1", "url2": "http://www.KanameKai.com/", "内容": "山内ホスピタル【1:病院】【診療科目:内科_糖尿病内科_呼吸器内科_循環器内科_消化器内科_人工透析内科_アレルギー疾患内科_外科_脳神経外科_肛門外科_整形外科_泌尿器科_リウマチ科_リハビリテーション科_放射線科_麻酔科】【一般病床数:61療養病床数:60精神病床数:0感染症病床数:0合計病床数:121】岐阜県岐阜市市橋３丁目７番２２号" }, "geometry": { "type": "Point", "coordinates": [ 136.725017, 35.399316 ] } },
{ "type": "Feature", "properties": { "ID": 2111341000129, "正式名称": "笠松病院", "機関区分": 1, "都道府県コード": 21, "市区町村コード": 201, "所在地": "岐阜県岐阜市中鶉３丁目１１番地", "緯度": 35.383643, "経度": 136.734308, "url": "https://www.iryou.teikyouseido.mhlw.go.jp/znk-web/juminkanja/S2430/initialize?prefCd=21&kikanCd=1341000129&kikanKbn=1", "url2": "https://www.seiyuukai.or.jp", "内容": "笠松病院【1:病院】【診療科目:内科_糖尿病内科_脳神経内科_呼吸器内科_循環器内科_消化器内科_アレルギー疾患内科_外科_脳神経外科_脳・血管外科_消化器外科_肛門外科_整形外科_小児科_リハビリテーション科】【一般病床数:45療養病床数:43精神病床数:0感染症病床数:0合計病床数:88】岐阜県岐阜市中鶉３丁目１１番地" }, "geometry": { "type": "Point", "coordinates": [ 136.734308, 35.383643 ] } },
{ "type": "Feature", "properties": { "ID": 2111341000130, "正式名称": "黒野病院", "機関区分": 1, "都道府県コード": 21, "市区町村コード": 201, "所在地": "岐阜県岐阜市洞１０２０番地", "緯度": 35.451751, "経度": 136.78795, "url": "https://www.iryou.teikyouseido.mhlw.go.jp/znk-web/juminkanja/S2430/initialize?prefCd=21&kikanCd=1341000130&kikanKbn=1", "url2": "http://kurono.or.jp", "内容": "黒野病院【1:病院】【診療科目:精神科_老年精神科_歯科】【一般病床数:0療養病床数:0精神病床数:250感染症病床数:0合計病床数:250】岐阜県岐阜市洞１０２０番地" }, "geometry": { "type": "Point", "coordinates": [ 136.78795, 35.451751 ] } },
{ "type": "Feature", "properties": { "ID": 2111341000131, "正式名称": "独立行政法人国立病院機構　長良医療センター", "機関区分": 1, "都道府県コード": 21, "市区町村コード": 201, "所在地": "岐阜県岐阜市長良１３００番地７", "緯度": 35.449104, "経度": 136.789325, "url": "https://www.iryou.teikyouseido.mhlw.go.jp/znk-web/juminkanja/S2430/initialize?prefCd=21&kikanCd=1341000131&kikanKbn=1", "url2": "https://nagara.hosp.go.jp/", "内容": "独立行政法人国立病院機構　長良医療センター【1:病院】【診療科目:内科_呼吸器内科_循環器内科_消化器内科_神経内科_緩和ケア内科_外科_脳神経外科_呼吸器外科_心臓血管外科_整形外科_形成外科_小児科_小児外科_神経小児科_産婦人科_歯科_アレルギー科_リハビリテーション科_放射線科】【一般病床数:309療養病床数:0精神病床数:0感染症病床数:0合計病床数:327】岐阜県岐阜市長良１３００番地７" }, "geometry": { "type": "Point", "coordinates": [ 136.789325, 35.449104 ] } },
{ "type": "Feature", "properties": { "ID": 2111341000132, "正式名称": "医療法人社団誠広会　平野総合病院", "機関区分": 1, "都道府県コード": 21, "市区町村コード": 201, "所在地": "岐阜県岐阜市黒野１７６番地５", "緯度": 35.458532, "経度": 136.726221, "url": "https://www.iryou.teikyouseido.mhlw.go.jp/znk-web/juminkanja/S2430/initialize?prefCd=21&kikanCd=1341000132&kikanKbn=1", "url2": "http://www.hiranogh.com/", "内容": "医療法人社団誠広会　平野総合病院【1:病院】【診療科目:内科_糖尿病内科_呼吸器内科_循環器内科_消化器内科_腎臓内科_外科_脳神経外科_消化器外科_整形外科_小児科_産婦人科_眼科_耳鼻いんこう科_皮膚科_泌尿器科_リウマチ科_リハビリテーション科_放射線科_麻酔科】【一般病床数:139療養病床数:48精神病床数:0感染症病床数:0合計病床数:187】岐阜県岐阜市黒野１７６番地５" }, "geometry": { "type": "Point", "coordinates": [ 136.726221, 35.458532 ] } },
{ "type": "Feature", "properties": { "ID": 2111341000136, "正式名称": "岐阜大学医学部附属病院", "機関区分": 1, "都道府県コード": 21, "市区町村コード": 201, "所在地": "岐阜県岐阜市柳戸１番１", "緯度": 35.467934, "経度": 136.733116, "url": "https://www.iryou.teikyouseido.mhlw.go.jp/znk-web/juminkanja/S2430/initialize?prefCd=21&kikanCd=1341000136&kikanKbn=1", "url2": "https://www.hosp.gifu-u.ac.jp/", "内容": "岐阜大学医学部附属病院【1:病院】【診療科目:内科_脳神経内科_呼吸器内科_循環器内科_消化器内科_腎臓内科_血液・感染症内科_外科_脳神経外科_呼吸器外科_心臓血管外科_消化器外科_乳腺外科_整形外科_形成外科_小児科_産婦人科_眼科_耳鼻いんこう科_皮膚科_泌尿器科_精神科_歯科_矯正歯科_歯科口腔外科_小児歯科_リハビリテーション科_放射線科_放射線診断科_放射線治療科_病理診断科_救急科_麻酔科】【一般病床数:577療養病床数:0精神病床数:37感染症病床数:0合計病床数:614】岐阜県岐阜市柳戸１番１" }, "geometry": { "type": "Point", "coordinates": [ 136.733116, 35.467934 ] } },
{ "type": "Feature", "properties": { "ID": 2111341000137, "正式名称": "医療法人和光会　山田病院", "機関区分": 1, "都道府県コード": 21, "市区町村コード": 201, "所在地": "岐阜県岐阜市寺田", "緯度": 35.418527, "経度": 136.700103, "url": "https://www.iryou.teikyouseido.mhlw.go.jp/znk-web/juminkanja/S2430/initialize?prefCd=21&kikanCd=1341000137&kikanKbn=1", "url2": "https://www.yamada-hospital.jp", "内容": "医療法人和光会　山田病院【1:病院】【診療科目:内科_血液内科_糖尿病・内分泌内科_脳神経内科_呼吸器内科_循環器内科_消化器内科_老年内科_緩和ケア内科_脳神経外科_呼吸器外科_整形外科_小児科_皮膚科_リウマチ科_リハビリテーション科】【一般病床数:57療養病床数:56精神病床数:0感染症病床数:0合計病床数:113】岐阜県岐阜市寺田" }, "geometry": { "type": "Point", "coordinates": [ 136.700103, 35.418527 ] } },
{ "type": "Feature", "properties": { "ID": 2111341000139, "正式名称": "岐阜ハートセンター", "機関区分": 1, "都道府県コード": 21, "市区町村コード": 201, "所在地": "岐阜県岐阜市薮田南４丁目１４番４号", "緯度": 35.39188, "経度": 136.71809, "url": "https://www.iryou.teikyouseido.mhlw.go.jp/znk-web/juminkanja/S2430/initialize?prefCd=21&kikanCd=1341000139&kikanKbn=1", "url2": "https://gifu-heart-center.jp/", "内容": "岐阜ハートセンター【1:病院】【診療科目:内科_循環器内科_心臓血管外科_形成外科_リハビリテーション科_麻酔科】【一般病床数:120療養病床数:0精神病床数:0感染症病床数:0合計病床数:120】岐阜県岐阜市薮田南４丁目１４番４号" }, "geometry": { "type": "Point", "coordinates": [ 136.71809, 35.39188 ] } },
{ "type": "Feature", "properties": { "ID": 2111341000140, "正式名称": "岩砂病院・岩砂マタニティ", "機関区分": 1, "都道府県コード": 21, "市区町村コード": 201, "所在地": "岐阜県岐阜市八代１－７－１", "緯度": 35.457994, "経度": 136.77652, "url": "https://www.iryou.teikyouseido.mhlw.go.jp/znk-web/juminkanja/S2430/initialize?prefCd=21&kikanCd=1341000140&kikanKbn=1", "url2": "https://iwasa-gifu.or.jp/", "内容": "岩砂病院・岩砂マタニティ【1:病院】【診療科目:内科_循環器内科_消化器内科_小児科_産科_婦人科_リハビリテーション科_放射線科】【一般病床数:132療養病床数:0精神病床数:0感染症病床数:0合計病床数:132】岐阜県岐阜市八代１－７－１" }, "geometry": { "type": "Point", "coordinates": [ 136.77652, 35.457994 ] } },
{ "type": "Feature", "properties": { "ID": 2111341000141, "正式名称": "医療法人生友会柳津病院", "機関区分": 1, "都道府県コード": 21, "市区町村コード": 201, "所在地": "岐阜県岐阜市柳津町宮東１ー１０２", "緯度": 35.365196, "経度": 136.736055, "url": "https://www.iryou.teikyouseido.mhlw.go.jp/znk-web/juminkanja/S2430/initialize?prefCd=21&kikanCd=1341000141&kikanKbn=1", "url2": null, "内容": "医療法人生友会柳津病院【1:病院】【診療科目:内科_循環器内科_消化器内科_外科_肛門外科_整形外科_小児科_産婦人科_皮膚科_リハビリテーション科】【一般病床数:30療養病床数:15精神病床数:0感染症病床数:0合計病床数:45】岐阜県岐阜市柳津町宮東１ー１０２" }, "geometry": { "type": "Point", "coordinates": [ 136.736055, 35.365196 ] } },
{ "type": "Feature", "properties": { "ID": 2111341000142, "正式名称": "岐阜南病院", "機関区分": 1, "都道府県コード": 21, "市区町村コード": 201, "所在地": "岐阜県岐阜市柳津町高桑５丁目９１番地", "緯度": 35.357289, "経度": 136.704132, "url": "https://www.iryou.teikyouseido.mhlw.go.jp/znk-web/juminkanja/S2430/initialize?prefCd=21&kikanCd=1341000142&kikanKbn=1", "url2": "http://www.myclinic.ne.jp/gifu/", "内容": "岐阜南病院【1:病院】【診療科目:精神科_心療内科】【一般病床数:0療養病床数:0精神病床数:194感染症病床数:0合計病床数:194】岐阜県岐阜市柳津町高桑５丁目９１番地" }, "geometry": { "type": "Point", "coordinates": [ 136.704132, 35.357289 ] } },
{ "type": "Feature", "properties": { "ID": 2111341001368, "正式名称": "岐阜県立希望が丘こども医療福祉センター", "機関区分": 1, "都道府県コード": 21, "市区町村コード": 201, "所在地": "岐阜県岐阜市則武１８１６−１", "緯度": 35.440294, "経度": 136.7554, "url": "https://www.iryou.teikyouseido.mhlw.go.jp/znk-web/juminkanja/S2430/initialize?prefCd=21&kikanCd=1341001368&kikanKbn=1", "url2": "http://www.pref.gifu.lg.jp/page/13518.html", "内容": "岐阜県立希望が丘こども医療福祉センター【1:病院】【診療科目:整形外科_小児科_児童精神科_小児整形外科_歯科】【一般病床数:43療養病床数:0精神病床数:0感染症病床数:0合計病床数:43】岐阜県岐阜市則武１８１６−１" }, "geometry": { "type": "Point", "coordinates": [ 136.7554, 35.440294 ] } },
{ "type": "Feature", "properties": { "ID": 2111341001436, "正式名称": "岐阜清流病院", "機関区分": 1, "都道府県コード": 21, "市区町村コード": 201, "所在地": "岐阜県岐阜市川部３丁目２５番地", "緯度": 35.435439, "経度": 136.707556, "url": "https://www.iryou.teikyouseido.mhlw.go.jp/znk-web/juminkanja/S2430/initialize?prefCd=21&kikanCd=1341001436&kikanKbn=1", "url2": "http://www.skhosp.or.jp/", "内容": "岐阜清流病院【1:病院】【診療科目:内科_糖尿病・内分泌内科_循環器内科_消化器内科_人工透析内科_肝臓内科_神経内科_漢方内科_内視鏡内科_外科_脳神経外科_心臓血管外科_整形外科_眼科_皮膚科_歯科_歯科口腔外科_小児歯科_リハビリテーション科_放射線科_麻酔科】【一般病床数:308療養病床数:55精神病床数:0感染症病床数:0合計病床数:363】岐阜県岐阜市川部３丁目２５番地" }, "geometry": { "type": "Point", "coordinates": [ 136.707556, 35.435439 ] } },
{ "type": "Feature", "properties": { "ID": 2111341001582, "正式名称": "医療法人慶睦会　千手堂病院", "機関区分": 1, "都道府県コード": 21, "市区町村コード": 201, "所在地": "岐阜県岐阜市菅原町２丁目２１番", "緯度": 35.422109, "経度": 136.754505, "url": "https://www.iryou.teikyouseido.mhlw.go.jp/znk-web/juminkanja/S2430/initialize?prefCd=21&kikanCd=1341001582&kikanKbn=1", "url2": "http://www.senjyudo.com", "内容": "医療法人慶睦会　千手堂病院【1:病院】【診療科目:内科_呼吸器内科_循環器内科_外科_心臓血管外科_整形外科_小児科_リハビリテーション科_麻酔科】【一般病床数:0療養病床数:50精神病床数:0感染症病床数:0合計病床数:50】岐阜県岐阜市菅原町２丁目２１番" }, "geometry": { "type": "Point", "coordinates": [ 136.754505, 35.422109 ] } },
{ "type": "Feature", "properties": { "ID": 2111341001612, "正式名称": "みどり病院", "機関区分": 1, "都道府県コード": 21, "市区町村コード": 201, "所在地": "岐阜県岐阜市北山１－１３－２７", "緯度": 35.458295, "経度": 136.853642, "url": "https://www.iryou.teikyouseido.mhlw.go.jp/znk-web/juminkanja/S2430/initialize?prefCd=21&kikanCd=1341001612&kikanKbn=1", "url2": "http://gifu-min.jp/midori/", "内容": "みどり病院【1:病院】【診療科目:内科_循環器内科_人工透析内科_小児科_精神科_アレルギー科_リハビリテーション科_放射線科】【一般病床数:99療養病床数:0精神病床数:0感染症病床数:0合計病床数:99】岐阜県岐阜市北山１－１３－２７" }, "geometry": { "type": "Point", "coordinates": [ 136.853642, 35.458295 ] } },
{ "type": "Feature", "properties": { "ID": 2111561000033, "正式名称": "岐阜県厚生農業協同組合連合会　中濃厚生病院", "機関区分": 1, "都道府県コード": 21, "市区町村コード": 205, "所在地": "岐阜県関市若草通５丁目１番地", "緯度": 35.494936, "経度": 136.921204, "url": "https://www.iryou.teikyouseido.mhlw.go.jp/znk-web/juminkanja/S2430/initialize?prefCd=21&kikanCd=1561000033&kikanKbn=1", "url2": "http://www.chuno.gfkosei.or.jp", "内容": "岐阜県厚生農業協同組合連合会　中濃厚生病院【1:病院】【診療科目:内科_血液内科_内分泌内科_呼吸器内科_循環器内科_消化器内科_腎臓内科_肝臓内科_神経内科_外科_脳神経外科_呼吸器外科_血管外科_消化器外科_肝臓・胆のう・膵臓外科_乳腺・内分泌外科_肛門外科_整形外科_形成外科_小児科_神経小児科_産婦人科_眼科_耳鼻いんこう科_皮膚科_泌尿器科_心療内科_歯科口腔外科_リハビリテーション科_放射線科_病理診断科_救急科_麻酔科】【一般病床数:489療養病床数:0精神病床数:0感染症病床数:6合計病床数:495】岐阜県関市若草通５丁目１番地" }, "geometry": { "type": "Point", "coordinates": [ 136.921204, 35.494936 ] } },
{ "type": "Feature", "properties": { "ID": 2111561000035, "正式名称": "医療法人香徳会関中央病院", "機関区分": 1, "都道府県コード": 21, "市区町村コード": 205, "所在地": "岐阜県関市平成通２丁目６番１８号", "緯度": 35.470674, "経度": 136.936036, "url": "https://www.iryou.teikyouseido.mhlw.go.jp/znk-web/juminkanja/S2430/initialize?prefCd=21&kikanCd=1561000035&kikanKbn=1", "url2": "https://sekichuo.jp", "内容": "医療法人香徳会関中央病院【1:病院】【診療科目:内科_呼吸器内科_循環器内科_消化器内科_脳神経外科_整形外科_婦人科_皮膚科_精神科_リハビリテーション科_放射線科】【一般病床数:100療養病床数:50精神病床数:0感染症病床数:0合計病床数:150】岐阜県関市平成通２丁目６番１８号" }, "geometry": { "type": "Point", "coordinates": [ 136.936036, 35.470674 ] } },
{ "type": "Feature", "properties": { "ID": 2111561006149, "正式名称": "美濃市立美濃病院", "機関区分": 1, "都道府県コード": 21, "市区町村コード": 207, "所在地": "岐阜県美濃市中央４丁目３番地", "緯度": 35.539044, "経度": 136.901258, "url": "https://www.iryou.teikyouseido.mhlw.go.jp/znk-web/juminkanja/S2430/initialize?prefCd=21&kikanCd=1561006149&kikanKbn=1", "url2": "http://minohospital.jp/", "内容": "美濃市立美濃病院【1:病院】【診療科目:内科_消化器内科_外科_脳神経外科_整形外科_小児科_産婦人科_眼科_耳鼻いんこう科_皮膚科_泌尿器科_リハビリテーション科_放射線科_麻酔科】【一般病床数:122療養病床数:0精神病床数:0感染症病床数:0合計病床数:122】岐阜県美濃市中央４丁目３番地" }, "geometry": { "type": "Point", "coordinates": [ 136.901258, 35.539044 ] } },
{ "type": "Feature", "properties": { "ID": 2111591000112, "正式名称": "医療法人社団仁愛会瑞浪病院", "機関区分": 1, "都道府県コード": 21, "市区町村コード": 208, "所在地": "岐阜県瑞浪市寺河戸町１１９０－２", "緯度": 35.367701, "経度": 137.252482, "url": "https://www.iryou.teikyouseido.mhlw.go.jp/znk-web/juminkanja/S2430/initialize?prefCd=21&kikanCd=1591000112&kikanKbn=1", "url2": null, "内容": "医療法人社団仁愛会瑞浪病院【1:病院】【診療科目:内科_外科_泌尿器科】【一般病床数:0療養病床数:48精神病床数:0感染症病床数:0合計病床数:48】岐阜県瑞浪市寺河戸町１１９０－２" }, "geometry": { "type": "Point", "coordinates": [ 137.252482, 35.367701 ] } },
{ "type": "Feature", "properties": { "ID": 2111591000113, "正式名称": "大湫病院", "機関区分": 1, "都道府県コード": 21, "市区町村コード": 208, "所在地": "岐阜県瑞浪市大湫町１２１", "緯度": 35.431588, "経度": 137.285368, "url": "https://www.iryou.teikyouseido.mhlw.go.jp/znk-web/juminkanja/S2430/initialize?prefCd=21&kikanCd=1591000113&kikanKbn=1", "url2": "http//www.ob3.aitai.ne.jp/~okutehp", "内容": "大湫病院【1:病院】【診療科目:内科_精神科_神経科_心療内科_歯科】【一般病床数:0療養病床数:0精神病床数:308感染症病床数:0合計病床数:308】岐阜県瑞浪市大湫町１２１" }, "geometry": { "type": "Point", "coordinates": [ 137.285368, 35.431588 ] } },
{ "type": "Feature", "properties": { "ID": 2111591000116, "正式名称": "サニーサイドホスピタル", "機関区分": 1, "都道府県コード": 21, "市区町村コード": 204, "所在地": "岐阜県多治見市小名田町西ケ洞１－３２５", "緯度": 35.365167, "経度": 137.11886, "url": "https://www.iryou.teikyouseido.mhlw.go.jp/znk-web/juminkanja/S2430/initialize?prefCd=21&kikanCd=1591000116&kikanKbn=1", "url2": "http://www.i-jinjukai.or.jp/sunnyside/", "内容": "サニーサイドホスピタル【1:病院】【診療科目:内科_リハビリテーション科】【一般病床数:0療養病床数:50精神病床数:0感染症病床数:0合計病床数:50】岐阜県多治見市小名田町西ケ洞１－３２５" }, "geometry": { "type": "Point", "coordinates": [ 137.11886, 35.365167 ] } },
{ "type": "Feature", "properties": { "ID": 2111591000117, "正式名称": "社会医療法人厚生会　多治見市民病院", "機関区分": 1, "都道府県コード": 21, "市区町村コード": 204, "所在地": "岐阜県多治見市前畑町３丁目４３番地", "緯度": 35.330256, "経度": 137.117434, "url": "https://www.iryou.teikyouseido.mhlw.go.jp/znk-web/juminkanja/S2430/initialize?prefCd=21&kikanCd=1591000117&kikanKbn=1", "url2": "http://kouseikai-tajimi-shimin.jp/", "内容": "社会医療法人厚生会　多治見市民病院【1:病院】【診療科目:内科_血液内科_糖尿病・内分泌内科_脳神経内科_呼吸器内科_循環器内科_消化器内科_腎臓内科_肝臓内科_外科_脳神経外科_心臓血管外科_腎臓外科_乳腺外科_胸部外科_整形外科_形成外科_小児科_小児外科_婦人科_眼科_耳鼻いんこう科_皮膚科_泌尿器科_リウマチ科_リハビリテーション科_放射線科_病理診断科_救急科_麻酔科】【一般病床数:250療養病床数:0精神病床数:0感染症病床数:0合計病床数:250】岐阜県多治見市前畑町３丁目４３番地" }, "geometry": { "type": "Point", "coordinates": [ 137.117434, 35.330256 ] } },
{ "type": "Feature", "properties": { "ID": 2111591000118, "正式名称": "岐阜県立多治見病院", "機関区分": 1, "都道府県コード": 21, "市区町村コード": 204, "所在地": "岐阜県多治見市前畑町５ー１６１", "緯度": 35.328205, "経度": 137.111115, "url": "https://www.iryou.teikyouseido.mhlw.go.jp/znk-web/juminkanja/S2430/initialize?prefCd=21&kikanCd=1591000118&kikanKbn=1", "url2": "https://www.tajimi-hospital.jp/", "内容": "岐阜県立多治見病院【1:病院】【診療科目:内科_血液内科_糖尿病・内分泌内科_脳神経内科_呼吸器内科_循環器内科_消化器内科_腎臓内科_緩和ケア内科_外科_脳神経外科_呼吸器外科_心臓血管外科_消化器外科_乳腺・内分泌外科_整形外科_形成外科_小児科_新生児内科_産婦人科_眼科_耳鼻いんこう科_皮膚科_泌尿器科_精神科_歯科口腔外科_リウマチ科_リハビリテーション科_放射線診断科_放射線治療科_病理診断科_臨床検査科_救急科_麻酔科】【一般病床数:487療養病床数:0精神病床数:33感染症病床数:6合計病床数:539】岐阜県多治見市前畑町５ー１６１" }, "geometry": { "type": "Point", "coordinates": [ 137.111115, 35.328205 ] } },
{ "type": "Feature", "properties": { "ID": 2111591000134, "正式名称": "医療法人敬生会　高井病院", "機関区分": 1, "都道府県コード": 21, "市区町村コード": 212, "所在地": "岐阜県土岐市妻木町１６５８", "緯度": 35.315941, "経度": 137.191547, "url": "https://www.iryou.teikyouseido.mhlw.go.jp/znk-web/juminkanja/S2430/initialize?prefCd=21&kikanCd=1591000134&kikanKbn=1", "url2": "https://takai-hp.jp/", "内容": "医療法人敬生会　高井病院【1:病院】【診療科目:内科_糖尿病・内分泌内科_消化器内科_腎臓内科_神経内科_外科_泌尿器科_リハビリテーション科】【一般病床数:0療養病床数:60精神病床数:0感染症病床数:0合計病床数:60】岐阜県土岐市妻木町１６５８" }, "geometry": { "type": "Point", "coordinates": [ 137.191547, 35.315941 ] } },
{ "type": "Feature", "properties": { "ID": 2111591000136, "正式名称": "社会医療法人聖泉会　聖十字病院", "機関区分": 1, "都道府県コード": 21, "市区町村コード": 212, "所在地": "岐阜県土岐市泉町久尻２４３１番地の１６０", "緯度": 35.370671, "経度": 137.154246, "url": "https://www.iryou.teikyouseido.mhlw.go.jp/znk-web/juminkanja/S2430/initialize?prefCd=21&kikanCd=1591000136&kikanKbn=1", "url2": "http://www.holy-cross-h.com", "内容": "社会医療法人聖泉会　聖十字病院【1:病院】【診療科目:精神科_神経科_心療内科_歯科】【一般病床数:0療養病床数:0精神病床数:196感染症病床数:0合計病床数:199】岐阜県土岐市泉町久尻２４３１番地の１６０" }, "geometry": { "type": "Point", "coordinates": [ 137.154246, 35.370671 ] } },
{ "type": "Feature", "properties": { "ID": 2111591007333, "正式名称": "タジミ第一病院", "機関区分": 1, "都道府県コード": 21, "市区町村コード": 204, "所在地": "岐阜県多治見市小名田町西ケ洞１―６４８", "緯度": 35.365533, "経度": 137.118476, "url": "https://www.iryou.teikyouseido.mhlw.go.jp/znk-web/juminkanja/S2430/initialize?prefCd=21&kikanCd=1591007333&kikanKbn=1", "url2": "http://www.i-jinjukai.or.jp", "内容": "タジミ第一病院【1:病院】【診療科目:内科_循環器内科_消化器内科_腎臓内科_外科_整形外科】【一般病床数:30療養病床数:20精神病床数:0感染症病床数:0合計病床数:50】岐阜県多治見市小名田町西ケ洞１―６４８" }, "geometry": { "type": "Point", "coordinates": [ 137.118476, 35.365533 ] } },
{ "type": "Feature", "properties": { "ID": 2111601000102, "正式名称": "国民健康保険上矢作病院", "機関区分": 1, "都道府県コード": 21, "市区町村コード": 210, "所在地": "岐阜県恵那市上矢作町３１１１番地２", "緯度": 35.299268, "経度": 137.495424, "url": "https://www.iryou.teikyouseido.mhlw.go.jp/znk-web/juminkanja/S2430/initialize?prefCd=21&kikanCd=1601000102&kikanKbn=1", "url2": "http://www.kamiyahagi-hosp.jp/", "内容": "国民健康保険上矢作病院【1:病院】【診療科目:内科_呼吸器内科_消化器内科_外科_呼吸器外科_消化器外科_肛門外科_整形外科_小児科_リハビリテーション科_放射線科_麻酔科】【一般病床数:56療養病床数:0精神病床数:0感染症病床数:0合計病床数:56】岐阜県恵那市上矢作町３１１１番地２" }, "geometry": { "type": "Point", "coordinates": [ 137.495424, 35.299268 ] } },
{ "type": "Feature", "properties": { "ID": 2111601000103, "正式名称": "市立恵那病院", "機関区分": 1, "都道府県コード": 21, "市区町村コード": 210, "所在地": "岐阜県恵那市大井町２７２５番地", "緯度": 35.464234, "経度": 137.393964, "url": "https://www.iryou.teikyouseido.mhlw.go.jp/znk-web/juminkanja/S2430/initialize?prefCd=21&kikanCd=1601000103&kikanKbn=1", "url2": "http://www.enahosp.jp", "内容": "市立恵那病院【1:病院】【診療科目:内科_呼吸器内科_循環器内科_消化器内科_腎臓内科_老年内科_外科_脳神経外科_呼吸器外科_消化器外科_乳腺外科_肛門外科_整形外科_小児科_産婦人科_眼科_耳鼻いんこう科_リハビリテーション科_放射線科_救急科_麻酔科】【一般病床数:199療養病床数:0精神病床数:0感染症病床数:0合計病床数:199】岐阜県恵那市大井町２７２５番地" }, "geometry": { "type": "Point", "coordinates": [ 137.393964, 35.464234 ] } },
{ "type": "Feature", "properties": { "ID": 2111601000132, "正式名称": "総合病院中津川市民病院", "機関区分": 1, "都道府県コード": 21, "市区町村コード": 206, "所在地": "岐阜県中津川市駒場１５２２番地の１", "緯度": 35.489445, "経度": 137.479523, "url": "https://www.iryou.teikyouseido.mhlw.go.jp/znk-web/juminkanja/S2430/initialize?prefCd=21&kikanCd=1601000132&kikanKbn=1", "url2": "http://nakatsugawa-hp.jp/", "内容": "総合病院中津川市民病院【1:病院】【診療科目:内科_血液内科_代謝・内分泌内科_脳神経内科_呼吸器内科_循環器内科_消化器内科_腎臓内科_老年内科_外科_脳神経外科_心臓血管外科_消化器外科_乳腺・内分泌外科_肛門外科_内視鏡外科_整形外科_形成外科_小児科_産婦人科_眼科_耳鼻いんこう科_皮膚科_泌尿器科_精神科_歯科口腔外科_リハビリテーション科_放射線科_病理診断科_救急科_麻酔科】【一般病床数:316療養病床数:0精神病床数:0感染症病床数:0合計病床数:316】岐阜県中津川市駒場１５２２番地の１" }, "geometry": { "type": "Point", "coordinates": [ 137.479523, 35.489445 ] } },
{ "type": "Feature", "properties": { "ID": 2111601000133, "正式名称": "城山病院", "機関区分": 1, "都道府県コード": 21, "市区町村コード": 206, "所在地": "岐阜県中津川市苗木字３７２５ー２", "緯度": 35.51379, "経度": 137.476999, "url": "https://www.iryou.teikyouseido.mhlw.go.jp/znk-web/juminkanja/S2430/initialize?prefCd=21&kikanCd=1601000133&kikanKbn=1", "url2": "http://www.n-shiroyama.info/", "内容": "城山病院【1:病院】【診療科目:内科_呼吸器内科_循環器内科_消化器内科_神経内科_外科_整形外科_リウマチ科_リハビリテーション科】【一般病床数:0療養病床数:80精神病床数:0感染症病床数:0合計病床数:80】岐阜県中津川市苗木字３７２５ー２" }, "geometry": { "type": "Point", "coordinates": [ 137.476999, 35.51379 ] } },
{ "type": "Feature", "properties": { "ID": 2111631000003, "正式名称": "愛生病院", "機関区分": 1, "都道府県コード": 21, "市区町村コード": 303, "所在地": "岐阜県羽島郡笠松町円城寺９７１", "緯度": 35.375447, "経度": 136.78956, "url": "https://www.iryou.teikyouseido.mhlw.go.jp/znk-web/juminkanja/S2430/initialize?prefCd=21&kikanCd=1631000003&kikanKbn=1", "url2": "http://www.mutsumikai.or.jp/", "内容": "愛生病院【1:病院】【診療科目:内科_循環器内科_胃腸内科_皮膚科_リハビリテーション科_放射線科】【一般病床数:0療養病床数:117精神病床数:0感染症病床数:0合計病床数:117】岐阜県羽島郡笠松町円城寺９７１" }, "geometry": { "type": "Point", "coordinates": [ 136.78956, 35.375447 ] } },
{ "type": "Feature", "properties": { "ID": 2111631000004, "正式名称": "松波総合病院", "機関区分": 1, "都道府県コード": 21, "市区町村コード": 303, "所在地": "岐阜県羽島郡笠松町田代１８５ー１", "緯度": 35.362908, "経度": 136.757938, "url": "https://www.iryou.teikyouseido.mhlw.go.jp/znk-web/juminkanja/S2430/initialize?prefCd=21&kikanCd=1631000004&kikanKbn=1", "url2": "http://www.matsunami-hsp.or.jp", "内容": "松波総合病院【1:病院】【診療科目:内科_血液・腫瘍内科_糖尿病・内分泌内科_脳神経内科_呼吸器内科_循環器内科_消化器内科_腎臓内科_外科_脳神経外科_呼吸器外科_心臓血管外科_消化器外科_乳腺外科_肛門外科_移植外科_整形外科_形成外科_小児科_産婦人科_眼科_耳鼻いんこう科_皮膚科_泌尿器科_精神科_歯科口腔外科_リウマチ科_リハビリテーション科_放射線診断科_放射線治療科_病理診断科_臨床検査科_救急科_麻酔科】【一般病床数:501療養病床数:0精神病床数:0感染症病床数:0合計病床数:501】岐阜県羽島郡笠松町田代１８５ー１" }, "geometry": { "type": "Point", "coordinates": [ 136.757938, 35.362908 ] } },
{ "type": "Feature", "properties": { "ID": 2111631000007, "正式名称": "羽島市民病院", "機関区分": 1, "都道府県コード": 21, "市区町村コード": 209, "所在地": "岐阜県羽島市新生町３－２４６", "緯度": 35.328654, "経度": 136.709398, "url": "https://www.iryou.teikyouseido.mhlw.go.jp/znk-web/juminkanja/S2430/initialize?prefCd=21&kikanCd=1631000007&kikanKbn=1", "url2": "https://www.hashima-hp.jp/", "内容": "羽島市民病院【1:病院】【診療科目:内科_血液内科_糖尿病・内分泌内科_呼吸器内科_循環器内科_消化器内科_腎臓内科_人工透析内科_神経内科_外科_脳神経外科_消化器外科_整形外科_小児科_産科_婦人科_眼科_耳鼻いんこう科_皮膚科_泌尿器科_精神科_リウマチ科_リハビリテーション科_放射線科_臨床検査科_麻酔科】【一般病床数:261療養病床数:0精神病床数:0感染症病床数:0合計病床数:271】岐阜県羽島市新生町３－２４６" }, "geometry": { "type": "Point", "coordinates": [ 136.709398, 35.328654 ] } },
{ "type": "Feature", "properties": { "ID": 2111631000029, "正式名称": "公立学校共済組合東海中央病院", "機関区分": 1, "都道府県コード": 21, "市区町村コード": 213, "所在地": "岐阜県各務原市蘇原東島町４丁目６番地２", "緯度": 35.411178, "経度": 136.875842, "url": "https://www.iryou.teikyouseido.mhlw.go.jp/znk-web/juminkanja/S2430/initialize?prefCd=21&kikanCd=1631000029&kikanKbn=1", "url2": "https://www.tokaihp.jp", "内容": "公立学校共済組合東海中央病院【1:病院】【診療科目:内科_血液内科_糖尿病・内分泌内科_呼吸器内科_循環器内科_消化器内科_腎臓内科_神経内科_緩和ケア内科_外科_脳神経外科_消化器外科_乳腺外科_整形外科_形成外科_小児科_産婦人科_眼科_耳鼻いんこう科_皮膚科_泌尿器科_精神科_心療内科_歯科口腔外科_リハビリテーション科_放射線科_病理診断科_麻酔科】【一般病床数:304療養病床数:0精神病床数:0感染症病床数:0合計病床数:304】岐阜県各務原市蘇原東島町４丁目６番地２" }, "geometry": { "type": "Point", "coordinates": [ 136.875842, 35.411178 ] } },
{ "type": "Feature", "properties": { "ID": 2111631000030, "正式名称": "医療法人杏野会各務原病院", "機関区分": 1, "都道府県コード": 21, "市区町村コード": 213, "所在地": "岐阜県各務原市東山１丁目６０番地", "緯度": 35.431287, "経度": 136.8808, "url": "https://www.iryou.teikyouseido.mhlw.go.jp/znk-web/juminkanja/S2430/initialize?prefCd=21&kikanCd=1631000030&kikanKbn=1", "url2": "http://kakamigahara-hosp.jp", "内容": "医療法人杏野会各務原病院【1:病院】【診療科目:内科_神経内科_精神科_心療内科】【一般病床数:30療養病床数:0精神病床数:127感染症病床数:0合計病床数:157】岐阜県各務原市東山１丁目６０番地" }, "geometry": { "type": "Point", "coordinates": [ 136.8808, 35.431287 ] } },
{ "type": "Feature", "properties": { "ID": 2111631000032, "正式名称": "医療法人秀幸会横山病院", "機関区分": 1, "都道府県コード": 21, "市区町村コード": 213, "所在地": "岐阜県各務原市那加元町８", "緯度": 35.398917, "経度": 136.837592, "url": "https://www.iryou.teikyouseido.mhlw.go.jp/znk-web/juminkanja/S2430/initialize?prefCd=21&kikanCd=1631000032&kikanKbn=1", "url2": null, "内容": "医療法人秀幸会横山病院【1:病院】【診療科目:内科_循環器内科_外科_美容皮膚科_リハビリテーション科】【一般病床数:0療養病床数:20精神病床数:0感染症病床数:0合計病床数:58】岐阜県各務原市那加元町８" }, "geometry": { "type": "Point", "coordinates": [ 136.837592, 35.398917 ] } },
{ "type": "Feature", "properties": { "ID": 2111631000111, "正式名称": "岐阜県厚生農業協同組合連合会岐阜・西濃医療センター岐北厚生病院", "機関区分": 1, "都道府県コード": 21, "市区町村コード": 215, "所在地": "岐阜県山県市高富", "緯度": 35.492186, "経度": 136.787135, "url": "https://www.iryou.teikyouseido.mhlw.go.jp/znk-web/juminkanja/S2430/initialize?prefCd=21&kikanCd=1631000111&kikanKbn=1", "url2": "http://www.gihoku.gfkosei.or.jp/", "内容": "岐阜県厚生農業協同組合連合会岐阜・西濃医療センター岐北厚生病院【1:病院】【診療科目:内科_血液内科_呼吸器内科_循環器内科_消化器内科_腎臓内科_神経内科_緩和ケア内科_外科_脳神経外科_消化器外科_乳腺外科_肛門外科_整形外科_形成外科_緩和ケア外科_小児科_婦人科_眼科_耳鼻いんこう科_皮膚科_泌尿器科_リウマチ科_リハビリテーション科_放射線科_麻酔科】【一般病床数:208療養病床数:54精神病床数:0感染症病床数:0合計病床数:262】岐阜県山県市高富" }, "geometry": { "type": "Point", "coordinates": [ 136.787135, 35.492186 ] } },
{ "type": "Feature", "properties": { "ID": 2111631007702, "正式名称": "各務原リハビリテーション病院", "機関区分": 1, "都道府県コード": 21, "市区町村コード": 213, "所在地": "岐阜県各務原市鵜沼山崎町６－８－２", "緯度": 35.399599, "経度": 136.946857, "url": "https://www.iryou.teikyouseido.mhlw.go.jp/znk-web/juminkanja/S2430/initialize?prefCd=21&kikanCd=1631007702&kikanKbn=1", "url2": "https://www.seidoukai.or.jp", "内容": "各務原リハビリテーション病院【1:病院】【診療科目:内科_糖尿病・代謝内科_循環器内科_消化器内科_腎臓内科_神経内科_小児科_リハビリテーション科】【一般病床数:46療養病床数:72精神病床数:0感染症病床数:0合計病床数:118】岐阜県各務原市鵜沼山崎町６－８－２" }, "geometry": { "type": "Point", "coordinates": [ 136.946857, 35.399599 ] } },
{ "type": "Feature", "properties": { "ID": 2111641000025, "正式名称": "海津市医師会病院", "機関区分": 1, "都道府県コード": 21, "市区町村コード": 221, "所在地": "岐阜県海津市海津町福江６５６－１６", "緯度": 35.172141, "経度": 136.660989, "url": "https://www.iryou.teikyouseido.mhlw.go.jp/znk-web/juminkanja/S2430/initialize?prefCd=21&kikanCd=1641000025&kikanKbn=1", "url2": "https://kaizu.gifu.med.or.jp/", "内容": "海津市医師会病院【1:病院】【診療科目:内科_糖尿病・内分泌内科_外科_乳腺外科_整形外科_リウマチ科_リハビリテーション科】【一般病床数:99療養病床数:0精神病床数:0感染症病床数:0合計病床数:99】岐阜県海津市海津町福江６５６－１６" }, "geometry": { "type": "Point", "coordinates": [ 136.660989, 35.172141 ] } },
{ "type": "Feature", "properties": { "ID": 2111641000027, "正式名称": "社会医療法人　緑峰会　養南病院", "機関区分": 1, "都道府県コード": 21, "市区町村コード": 221, "所在地": "岐阜県海津市南濃町津屋１５０８番地", "緯度": 35.258375, "経度": 136.555422, "url": "https://www.iryou.teikyouseido.mhlw.go.jp/znk-web/juminkanja/S2430/initialize?prefCd=21&kikanCd=1641000027&kikanKbn=1", "url2": "http://www.younan.or.jp", "内容": "社会医療法人　緑峰会　養南病院【1:病院】【診療科目:精神科_心療内科】【一般病床数:0療養病床数:0精神病床数:176感染症病床数:0合計病床数:176】岐阜県海津市南濃町津屋１５０８番地" }, "geometry": { "type": "Point", "coordinates": [ 136.555422, 35.258375 ] } },
{ "type": "Feature", "properties": { "ID": 2111641000120, "正式名称": "医療法人社団豊正会　大垣中央病院", "機関区分": 1, "都道府県コード": 21, "市区町村コード": 202, "所在地": "岐阜県大垣市見取町４丁目２番地", "緯度": 35.365918, "経度": 136.614875, "url": "https://www.iryou.teikyouseido.mhlw.go.jp/znk-web/juminkanja/S2430/initialize?prefCd=21&kikanCd=1641000120&kikanKbn=1", "url2": "https://oogaki.or.jp", "内容": "医療法人社団豊正会　大垣中央病院【1:病院】【診療科目:内科_糖尿病内科_循環器内科_消化器内科_腎臓内科_人工透析内科_外科_消化器外科_肛門外科_整形外科_泌尿器科_リウマチ科_リハビリテーション科】【一般病床数:60療養病床数:0精神病床数:0感染症病床数:0合計病床数:60】岐阜県大垣市見取町４丁目２番地" }, "geometry": { "type": "Point", "coordinates": [ 136.614875, 35.365918 ] } },
{ "type": "Feature", "properties": { "ID": 2111641000125, "正式名称": "西濃病院", "機関区分": 1, "都道府県コード": 21, "市区町村コード": 202, "所在地": "岐阜県大垣市大外羽", "緯度": 35.316313, "経度": 136.601631, "url": "https://www.iryou.teikyouseido.mhlw.go.jp/znk-web/juminkanja/S2430/initialize?prefCd=21&kikanCd=1641000125&kikanKbn=1", "url2": "http://www.seinou-hp.com", "内容": "西濃病院【1:病院】【診療科目:内科_神経内科_精神科】【一般病床数:0療養病床数:0精神病床数:198感染症病床数:0合計病床数:198】岐阜県大垣市大外羽" }, "geometry": { "type": "Point", "coordinates": [ 136.601631, 35.316313 ] } },
{ "type": "Feature", "properties": { "ID": 2111641000126, "正式名称": "大垣病院", "機関区分": 1, "都道府県コード": 21, "市区町村コード": 202, "所在地": "岐阜県大垣市中野町１丁目３０７番地", "緯度": 35.377386, "経度": 136.608117, "url": "https://www.iryou.teikyouseido.mhlw.go.jp/znk-web/juminkanja/S2430/initialize?prefCd=21&kikanCd=1641000126&kikanKbn=1", "url2": null, "内容": "大垣病院【1:病院】【診療科目:内科_消化器内科_神経内科_精神科_心療内科_老年精神科】【一般病床数:41療養病床数:0精神病床数:305感染症病床数:0合計病床数:346】岐阜県大垣市中野町１丁目３０７番地" }, "geometry": { "type": "Point", "coordinates": [ 136.608117, 35.377386 ] } },
{ "type": "Feature", "properties": { "ID": 2111641000128, "正式名称": "名和病院", "機関区分": 1, "都道府県コード": 21, "市区町村コード": 202, "所在地": "岐阜県大垣市藤江町６ー５０", "緯度": 35.362816, "経度": 136.623859, "url": "https://www.iryou.teikyouseido.mhlw.go.jp/znk-web/juminkanja/S2430/initialize?prefCd=21&kikanCd=1641000128&kikanKbn=1", "url2": "http://www.bijyoukai.dr-clinic.jp/", "内容": "名和病院【1:病院】【診療科目:内科_外科_整形外科_皮膚泌尿器科_リハビリテーション科】【一般病床数:33療養病床数:73精神病床数:0感染症病床数:0合計病床数:106】岐阜県大垣市藤江町６ー５０" }, "geometry": { "type": "Point", "coordinates": [ 136.623859, 35.362816 ] } },
{ "type": "Feature", "properties": { "ID": 2111641000129, "正式名称": "大垣市民病院", "機関区分": 1, "都道府県コード": 21, "市区町村コード": 202, "所在地": "岐阜県大垣市南頬町４丁目８６", "緯度": 35.353239, "経度": 136.622314, "url": "https://www.iryou.teikyouseido.mhlw.go.jp/znk-web/juminkanja/S2430/initialize?prefCd=21&kikanCd=1641000129&kikanKbn=1", "url2": "http://www.ogaki-mh.jp/", "内容": "大垣市民病院【1:病院】【診療科目:内科_呼吸器内科_循環器内科_消化器内科_神経内科_外科_脳神経外科_呼吸器外科_心臓血管外科_消化器外科_乳腺外科_整形外科_形成外科_小児科_小児外科_小児科循環器・新生児_産婦人科_眼科_頭頸部・耳鼻いんこう科_皮膚科_泌尿器科_精神科_歯科口腔外科_リハビリテーション科_放射線診断科_放射線治療科_病理診断科_麻酔科】【一般病床数:771療養病床数:0精神病床数:0感染症病床数:6合計病床数:817】岐阜県大垣市南頬町４丁目８６" }, "geometry": { "type": "Point", "coordinates": [ 136.622314, 35.353239 ] } },
{ "type": "Feature", "properties": { "ID": 2111641000130, "正式名称": "医療法人社団正和会　馬渕病院", "機関区分": 1, "都道府県コード": 21, "市区町村コード": 202, "所在地": "岐阜県大垣市美和町１８３１番地", "緯度": 35.350366, "経度": 136.617616, "url": "https://www.iryou.teikyouseido.mhlw.go.jp/znk-web/juminkanja/S2430/initialize?prefCd=21&kikanCd=1641000130&kikanKbn=1", "url2": null, "内容": "医療法人社団正和会　馬渕病院【1:病院】【診療科目:内科_腎臓内科_外科_整形外科】【一般病床数:0療養病床数:52精神病床数:0感染症病床数:0合計病床数:52】岐阜県大垣市美和町１８３１番地" }, "geometry": { "type": "Point", "coordinates": [ 136.617616, 35.350366 ] } },
{ "type": "Feature", "properties": { "ID": 2111641000150, "正式名称": "医療法人清澄会不破ノ関病院", "機関区分": 1, "都道府県コード": 21, "市区町村コード": 361, "所在地": "岐阜県不破郡垂井町９４番地の１", "緯度": 35.37013, "経度": 136.506957, "url": "https://www.iryou.teikyouseido.mhlw.go.jp/znk-web/juminkanja/S2430/initialize?prefCd=21&kikanCd=1641000150&kikanKbn=1", "url2": "https://fuwanoseki.jp/", "内容": "医療法人清澄会不破ノ関病院【1:病院】【診療科目:神経内科_精神科_心療内科】【一般病床数:0療養病床数:0精神病床数:307感染症病床数:0合計病床数:307】岐阜県不破郡垂井町９４番地の１" }, "geometry": { "type": "Point", "coordinates": [ 136.506957, 35.37013 ] } },
{ "type": "Feature", "properties": { "ID": 2111641000154, "正式名称": "新生病院", "機関区分": 1, "都道府県コード": 21, "市区町村コード": 404, "所在地": "岐阜県揖斐郡池田町本郷　１５５１―１", "緯度": 35.442975, "経度": 136.575181, "url": "https://www.iryou.teikyouseido.mhlw.go.jp/znk-web/juminkanja/S2430/initialize?prefCd=21&kikanCd=1641000154&kikanKbn=1", "url2": "https://www.shinsei-hospital.jp", "内容": "新生病院【1:病院】【診療科目:内科_血液内科_脳神経内科_循環器内科_消化器内科_外科_脳神経外科_整形外科_小児科_婦人科_皮膚科_精神科_歯科口腔外科_リハビリテーション科_放射線科】【一般病床数:51療養病床数:45精神病床数:0感染症病床数:0合計病床数:96】岐阜県揖斐郡池田町本郷　１５５１―１" }, "geometry": { "type": "Point", "coordinates": [ 136.575181, 35.442975 ] } },
{ "type": "Feature", "properties": { "ID": 2111641000156, "正式名称": "岐阜県厚生農業協同組合連合会　岐阜・西濃医療センター　西美濃厚生病院", "機関区分": 1, "都道府県コード": 21, "市区町村コード": 341, "所在地": "岐阜県養老郡養老町押越９８６", "緯度": 35.305446, "経度": 136.558238, "url": "https://www.iryou.teikyouseido.mhlw.go.jp/znk-web/juminkanja/S2430/initialize?prefCd=21&kikanCd=1641000156&kikanKbn=1", "url2": "http://www.nishimino.gfkosei.or.jp/", "内容": "岐阜県厚生農業協同組合連合会　岐阜・西濃医療センター　西美濃厚生病院【1:病院】【診療科目:内科_外科_脳神経外科_整形外科_小児科_婦人科_眼科_耳鼻いんこう科_皮膚科_泌尿器科_歯科_歯科口腔外科_リハビリテーション科_放射線科_麻酔科】【一般病床数:95療養病床数:35精神病床数:0感染症病床数:0合計病床数:130】岐阜県養老郡養老町押越９８６" }, "geometry": { "type": "Point", "coordinates": [ 136.558238, 35.305446 ] } },
{ "type": "Feature", "properties": { "ID": 2111641006477, "正式名称": "博愛会病院", "機関区分": 1, "都道府県コード": 21, "市区町村コード": 361, "所在地": "岐阜県不破郡垂井町２２１０－４２", "緯度": 35.373589, "経度": 136.537328, "url": "https://www.iryou.teikyouseido.mhlw.go.jp/znk-web/juminkanja/S2430/initialize?prefCd=21&kikanCd=1641006477&kikanKbn=1", "url2": "http://www.hakuaikai.jp/", "内容": "博愛会病院【1:病院】【診療科目:内科_神経内科_外科_脳神経外科_血管外科_整形外科_形成外科_小児科_眼科_耳鼻いんこう科_皮膚科_泌尿器科_歯科_歯科口腔外科_リハビリテーション科_放射線科_麻酔科】【一般病床数:143療養病床数:138精神病床数:0感染症病床数:0合計病床数:281】岐阜県不破郡垂井町２２１０－４２" }, "geometry": { "type": "Point", "coordinates": [ 136.537328, 35.373589 ] } },
{ "type": "Feature", "properties": { "ID": 2111641006650, "正式名称": "医療法人徳洲会　大垣徳洲会病院", "機関区分": 1, "都道府県コード": 21, "市区町村コード": 202, "所在地": "岐阜県大垣市林町６丁目８５―１", "緯度": 35.372699, "経度": 136.617254, "url": "https://www.iryou.teikyouseido.mhlw.go.jp/znk-web/juminkanja/S2430/initialize?prefCd=21&kikanCd=1641006650&kikanKbn=1", "url2": "http://www.ogaki.tokushukai.or.jp/", "内容": "医療法人徳洲会　大垣徳洲会病院【1:病院】【診療科目:内科_糖尿病内科_循環器内科_消化器内科_神経内科_外科_脳神経外科_心臓血管外科_消化器外科_乳腺・内分泌外科_肛門外科_頭頸部外科_整形外科_胸壁外科（漏斗胸・鳩胸）_小児科_産婦人科_眼科_耳鼻いんこう科_皮膚科_泌尿器科_歯科口腔外科_リウマチ科_放射線科_病理診断科_麻酔科】【一般病床数:181療養病床数:102精神病床数:0感染症病床数:0合計病床数:283】岐阜県大垣市林町６丁目８５―１" }, "geometry": { "type": "Point", "coordinates": [ 136.617254, 35.372699 ] } },
{ "type": "Feature", "properties": { "ID": 2111641009804, "正式名称": "岐阜県厚生農業協同組合連合会　岐阜・西濃医療センター　西濃厚生病院", "機関区分": 1, "都道府県コード": 21, "市区町村コード": 403, "所在地": "岐阜県揖斐郡大野町下磯２９３番地１", "緯度": 35.430131, "経度": 136.629388, "url": "https://www.iryou.teikyouseido.mhlw.go.jp/znk-web/juminkanja/S2430/initialize?prefCd=21&kikanCd=1641009804&kikanKbn=1", "url2": "http://www.seino.gfkosei.or.jp/", "内容": "岐阜県厚生農業協同組合連合会　岐阜・西濃医療センター　西濃厚生病院【1:病院】【診療科目:内科_血液内科_糖尿病・内分泌内科_脳神経内科_呼吸器内科_循環器内科_消化器内科_緩和ケア内科_外科_脳神経外科_呼吸器外科_心臓血管外科_乳腺外科_肛門外科_頭頸部外科_整形外科_形成外科_緩和ケア外科_小児科_小児外科_婦人科_眼科_耳鼻いんこう科_皮膚科_泌尿器科_精神科_心療内科_歯科_歯科口腔外科_小児歯科_リウマチ科_リハビリテーション科_放射線科_麻酔科】【一般病床数:400療養病床数:0精神病床数:0感染症病床数:0合計病床数:400】岐阜県揖斐郡大野町下磯２９３番地１" }, "geometry": { "type": "Point", "coordinates": [ 136.629388, 35.430131 ] } },
{ "type": "Feature", "properties": { "ID": 2111651000016, "正式名称": "医療法人白水会　白川病院", "機関区分": 1, "都道府県コード": 21, "市区町村コード": 506, "所在地": "岐阜県加茂郡白川町坂ノ東５７７０番地", "緯度": 35.603691, "経度": 137.164807, "url": "https://www.iryou.teikyouseido.mhlw.go.jp/znk-web/juminkanja/S2430/initialize?prefCd=21&kikanCd=1651000016&kikanKbn=1", "url2": "http://www.shirakawahp.com/", "内容": "医療法人白水会　白川病院【1:病院】【診療科目:内科_脳神経内科_呼吸器内科_循環器内科_消化器内科_外科_脳神経外科_肛門外科_整形外科_小児科_眼科_皮膚科_泌尿器科_歯科_矯正歯科_歯科口腔外科_小児歯科_リハビリテーション科】【一般病床数:59療養病床数:65精神病床数:0感染症病床数:0合計病床数:124】岐阜県加茂郡白川町坂ノ東５７７０番地" }, "geometry": { "type": "Point", "coordinates": [ 137.164807, 35.603691 ] } },
{ "type": "Feature", "properties": { "ID": 2111651000017, "正式名称": "伊佐治病院", "機関区分": 1, "都道府県コード": 21, "市区町村コード": 505, "所在地": "岐阜県加茂郡八百津町錦織１５３０－２３", "緯度": 35.474007, "経度": 137.152787, "url": "https://www.iryou.teikyouseido.mhlw.go.jp/znk-web/juminkanja/S2430/initialize?prefCd=21&kikanCd=1651000017&kikanKbn=1", "url2": "http://www.isaji-daichikai.com/", "内容": "伊佐治病院【1:病院】【診療科目:内科_リハビリテーション科】【一般病床数:0療養病床数:48精神病床数:0感染症病床数:0合計病床数:48】岐阜県加茂郡八百津町錦織１５３０－２３" }, "geometry": { "type": "Point", "coordinates": [ 137.152787, 35.474007 ] } },
{ "type": "Feature", "properties": { "ID": 2111651000019, "正式名称": "桃井病院", "機関区分": 1, "都道府県コード": 21, "市区町村コード": 521, "所在地": "岐阜県可児郡御嵩町中２１６３", "緯度": 35.432773, "経度": 137.124418, "url": "https://www.iryou.teikyouseido.mhlw.go.jp/znk-web/juminkanja/S2430/initialize?prefCd=21&kikanCd=1651000019&kikanKbn=1", "url2": "http://www.momoi-hp.com/", "内容": "桃井病院【1:病院】【診療科目:内科_糖尿病内科_呼吸器内科_循環器内科_消化器内科_外科_整形外科_皮膚科_リハビリテーション科】【一般病床数:27療養病床数:48精神病床数:0感染症病床数:0合計病床数:75】岐阜県可児郡御嵩町中２１６３" }, "geometry": { "type": "Point", "coordinates": [ 137.124418, 35.432773 ] } },
{ "type": "Feature", "properties": { "ID": 2111651000020, "正式名称": "東可児病院", "機関区分": 1, "都道府県コード": 21, "市区町村コード": 214, "所在地": "岐阜県可児市広見１５２０", "緯度": 35.417576, "経度": 137.063106, "url": "https://www.iryou.teikyouseido.mhlw.go.jp/znk-web/juminkanja/S2430/initialize?prefCd=21&kikanCd=1651000020&kikanKbn=1", "url2": "http://www.higashikani-hp.jp/", "内容": "東可児病院【1:病院】【診療科目:内科_糖尿病内科_呼吸器内科_循環器内科_消化器内科_胃腸内科_腎臓内科_人工透析内科_外科_脳神経外科_整形外科_小児科_リウマチ科_リハビリテーション科_放射線科_救急科_麻酔科】【一般病床数:128療養病床数:52精神病床数:0感染症病床数:0合計病床数:180】岐阜県可児市広見１５２０" }, "geometry": { "type": "Point", "coordinates": [ 137.063106, 35.417576 ] } },
{ "type": "Feature", "properties": { "ID": 2111651000021, "正式名称": "医療法人社団　耀和会　濃成病院", "機関区分": 1, "都道府県コード": 21, "市区町村コード": 214, "所在地": "岐阜県可児市広見８５１ー８", "緯度": 35.41986, "経度": 137.06326, "url": "https://www.iryou.teikyouseido.mhlw.go.jp/znk-web/juminkanja/S2430/initialize?prefCd=21&kikanCd=1651000021&kikanKbn=1", "url2": null, "内容": "医療法人社団　耀和会　濃成病院【1:病院】【診療科目:内科_循環器内科_消化器内科_外科_整形外科_リハビリテーション科】【一般病床数:0療養病床数:60精神病床数:0感染症病床数:0合計病床数:60】岐阜県可児市広見８５１ー８" }, "geometry": { "type": "Point", "coordinates": [ 137.06326, 35.41986 ] } },
{ "type": "Feature", "properties": { "ID": 2111651000022, "正式名称": "医療法人馨仁会　藤掛病院", "機関区分": 1, "都道府県コード": 21, "市区町村コード": 214, "所在地": "岐阜県可児市広見８７６", "緯度": 35.421275, "経度": 137.062346, "url": "https://www.iryou.teikyouseido.mhlw.go.jp/znk-web/juminkanja/S2430/initialize?prefCd=21&kikanCd=1651000022&kikanKbn=1", "url2": "https://www.fujikake-hospital.jp", "内容": "医療法人馨仁会　藤掛病院【1:病院】【診療科目:内科_呼吸器内科_循環器内科_胃腸内科_人工透析内科_外科_脳神経外科_心臓血管外科_整形外科_小児科_皮膚科_泌尿器科_リウマチ科_リハビリテーション科】【一般病床数:59療養病床数:0精神病床数:0感染症病床数:0合計病床数:59】岐阜県可児市広見８７６" }, "geometry": { "type": "Point", "coordinates": [ 137.062346, 35.421275 ] } },
{ "type": "Feature", "properties": { "ID": 2111651000024, "正式名称": "独立行政法人地域医療機能推進機構可児とうのう病院", "機関区分": 1, "都道府県コード": 21, "市区町村コード": 214, "所在地": "岐阜県可児市土田１２２１番地５", "緯度": 35.417834, "経度": 137.018066, "url": "https://www.iryou.teikyouseido.mhlw.go.jp/znk-web/juminkanja/S2430/initialize?prefCd=21&kikanCd=1651000024&kikanKbn=1", "url2": "http://kani.jcho.go.jp/", "内容": "独立行政法人地域医療機能推進機構可児とうのう病院【1:病院】【診療科目:内科_血液内科_循環器内科_消化器内科_神経内科_ペインクリニック内科_外科_脳神経外科_整形外科_形成外科_小児科_小児外科_婦人科_眼科_耳鼻いんこう科_皮膚科_泌尿器科_リウマチ科_リハビリテーション科_放射線科_麻酔科】【一般病床数:184療養病床数:0精神病床数:0感染症病床数:0合計病床数:184】岐阜県可児市土田１２２１番地５" }, "geometry": { "type": "Point", "coordinates": [ 137.018066, 35.417834 ] } },
{ "type": "Feature", "properties": { "ID": 2111651000093, "正式名称": "社会医療法人白鳳会　鷲見病院", "機関区分": 1, "都道府県コード": 21, "市区町村コード": 219, "所在地": "岐阜県郡上市白鳥町白鳥２ー１", "緯度": 35.879897, "経度": 136.85762, "url": "https://www.iryou.teikyouseido.mhlw.go.jp/znk-web/juminkanja/S2430/initialize?prefCd=21&kikanCd=1651000093&kikanKbn=1", "url2": "http://sumihosp.or.jp", "内容": "社会医療法人白鳳会　鷲見病院【1:病院】【診療科目:内科_消化器内科_外科_脳神経外科_消化器外科_肛門外科_整形外科_小児科_眼科_耳鼻いんこう科_皮膚科_歯科_リハビリテーション科_救急科_麻酔科】【一般病床数:72療養病床数:48精神病床数:0感染症病床数:0合計病床数:120】岐阜県郡上市白鳥町白鳥２ー１" }, "geometry": { "type": "Point", "coordinates": [ 136.85762, 35.879897 ] } },
{ "type": "Feature", "properties": { "ID": 2111651000095, "正式名称": "医療法人新生会八幡病院", "機関区分": 1, "都道府県コード": 21, "市区町村コード": 219, "所在地": "岐阜県郡上市八幡町桜町２７８番地", "緯度": 35.750597, "経度": 136.960775, "url": "https://www.iryou.teikyouseido.mhlw.go.jp/znk-web/juminkanja/S2430/initialize?prefCd=21&kikanCd=1651000095&kikanKbn=1", "url2": "http://hachiman-hosp.jp/", "内容": "医療法人新生会八幡病院【1:病院】【診療科目:内科_循環器内科_消化器内科_小児科_眼科_皮膚科_リハビリテーション科】【一般病床数:38療養病床数:0精神病床数:0感染症病床数:0合計病床数:38】岐阜県郡上市八幡町桜町２７８番地" }, "geometry": { "type": "Point", "coordinates": [ 136.960775, 35.750597 ] } },
{ "type": "Feature", "properties": { "ID": 2111651000096, "正式名称": "医療法人春陽会　慈恵中央病院", "機関区分": 1, "都道府県コード": 21, "市区町村コード": 219, "所在地": "岐阜県郡上市美並町大原１ー１", "緯度": 35.643808, "経度": 136.952926, "url": "https://www.iryou.teikyouseido.mhlw.go.jp/znk-web/juminkanja/S2430/initialize?prefCd=21&kikanCd=1651000096&kikanKbn=1", "url2": "http://www.jikeichuo.com", "内容": "医療法人春陽会　慈恵中央病院【1:病院】【診療科目:内科_精神科_心療内科】【一般病床数:0療養病床数:0精神病床数:395感染症病床数:0合計病床数:395】岐阜県郡上市美並町大原１ー１" }, "geometry": { "type": "Point", "coordinates": [ 136.952926, 35.643808 ] } },
{ "type": "Feature", "properties": { "ID": 2111651000097, "正式名称": "県北西部地域医療センター国保白鳥病院", "機関区分": 1, "都道府県コード": 21, "市区町村コード": 219, "所在地": "岐阜県郡上市白鳥町為真１２０５番地１", "緯度": 35.879692, "経度": 136.860524, "url": "https://www.iryou.teikyouseido.mhlw.go.jp/znk-web/juminkanja/S2430/initialize?prefCd=21&kikanCd=1651000097&kikanKbn=1", "url2": "http://www.shirotori-hosp.jp/", "内容": "県北西部地域医療センター国保白鳥病院【1:病院】【診療科目:内科_循環器内科_消化器内科_外科_整形外科_小児科_婦人科_皮膚科_リハビリテーション科_放射線科】【一般病床数:46療養病床数:0精神病床数:0感染症病床数:0合計病床数:46】岐阜県郡上市白鳥町為真１２０５番地１" }, "geometry": { "type": "Point", "coordinates": [ 136.860524, 35.879692 ] } },
{ "type": "Feature", "properties": { "ID": 2111651000140, "正式名称": "社会医療法人厚生会　中部脳リハビリテーション病院", "機関区分": 1, "都道府県コード": 21, "市区町村コード": 211, "所在地": "岐阜県美濃加茂市古井町下古井５９０番地", "緯度": 35.440904, "経度": 137.023689, "url": "https://www.iryou.teikyouseido.mhlw.go.jp/znk-web/juminkanja/S2430/initialize?prefCd=21&kikanCd=1651000140&kikanKbn=1", "url2": "http://cnrh.jp/", "内容": "社会医療法人厚生会　中部脳リハビリテーション病院【1:病院】【診療科目:内科_脳神経外科_リハビリテーション科】【一般病床数:150療養病床数:0精神病床数:0感染症病床数:0合計病床数:150】岐阜県美濃加茂市古井町下古井５９０番地" }, "geometry": { "type": "Point", "coordinates": [ 137.023689, 35.440904 ] } },
{ "type": "Feature", "properties": { "ID": 2111651000143, "正式名称": "太田病院", "機関区分": 1, "都道府県コード": 21, "市区町村コード": 211, "所在地": "岐阜県美濃加茂市太田町２８５５番地１", "緯度": 35.439866, "経度": 137.014681, "url": "https://www.iryou.teikyouseido.mhlw.go.jp/znk-web/juminkanja/S2430/initialize?prefCd=21&kikanCd=1651000143&kikanKbn=1", "url2": "https://www.ohta-hospital.jp/", "内容": "太田病院【1:病院】【診療科目:内科_循環器内科_消化器内科_人工透析内科_外科_脳神経外科_血管外科_消化器外科_乳腺外科_肛門外科_整形外科_小児科_皮膚科_泌尿器科_リハビリテーション科】【一般病床数:59療養病床数:30精神病床数:0感染症病床数:0合計病床数:89】岐阜県美濃加茂市太田町２８５５番地１" }, "geometry": { "type": "Point", "coordinates": [ 137.014681, 35.439866 ] } },
{ "type": "Feature", "properties": { "ID": 2111651000144, "正式名称": "のぞみの丘ホスピタル", "機関区分": 1, "都道府県コード": 21, "市区町村コード": 211, "所在地": "岐阜県美濃加茂市蜂屋町上蜂屋３５５５", "緯度": 35.454099, "経度": 137.012802, "url": "https://www.iryou.teikyouseido.mhlw.go.jp/znk-web/juminkanja/S2430/initialize?prefCd=21&kikanCd=1651000144&kikanKbn=1", "url2": "http://www.minokamo.or.jp/", "内容": "のぞみの丘ホスピタル【1:病院】【診療科目:内科_精神科_心療内科】【一般病床数:0療養病床数:0精神病床数:310感染症病床数:0合計病床数:300】岐阜県美濃加茂市蜂屋町上蜂屋３５５５" }, "geometry": { "type": "Point", "coordinates": [ 137.012802, 35.454099 ] } },
{ "type": "Feature", "properties": { "ID": 2111651006173, "正式名称": "郡上市民病院", "機関区分": 1, "都道府県コード": 21, "市区町村コード": 219, "所在地": "岐阜県郡上市八幡町島谷１２６１番地", "緯度": 35.74724, "経度": 136.951456, "url": "https://www.iryou.teikyouseido.mhlw.go.jp/znk-web/juminkanja/S2430/initialize?prefCd=21&kikanCd=1651006173&kikanKbn=1", "url2": "http://www.gujo-hospital.jp", "内容": "郡上市民病院【1:病院】【診療科目:内科_外科_脳神経外科_整形外科_小児科_産婦人科_耳鼻いんこう科_泌尿器科_精神科_心療内科_リハビリテーション科_放射線科_麻酔科】【一般病床数:100療養病床数:50精神病床数:0感染症病床数:0合計病床数:150】岐阜県郡上市八幡町島谷１２６１番地" }, "geometry": { "type": "Point", "coordinates": [ 136.951456, 35.74724 ] } },
{ "type": "Feature", "properties": { "ID": 2111651009513, "正式名称": "中部国際医療センター", "機関区分": 1, "都道府県コード": 21, "市区町村コード": 211, "所在地": "岐阜県美濃加茂市健康のまち一丁目１番地", "緯度": 35.45753, "経度": 137.016295, "url": "https://www.iryou.teikyouseido.mhlw.go.jp/znk-web/juminkanja/S2430/initialize?prefCd=21&kikanCd=1651009513&kikanKbn=1", "url2": "http://cjimc-hp.jp", "内容": "中部国際医療センター【1:病院】【診療科目:内科_血液・腫瘍内科_血液内科_糖尿病内科_代謝・内分泌内科_脳神経内科_呼吸器内科_循環器内科_消化器内科_腎臓内科_人工透析内科_ペインクリニック内科_外科_脳神経外科_呼吸器外科_食道外科_心臓血管外科_消化器外科_肝臓外科_胆のう外科_乳腺外科_乳腺・内分泌外科_肛門外科_腫瘍外科_頭頸部外科_胸部外科_腹部外科_内視鏡外科_整形外科_形成外科_美容外科_小児科_小児皮膚科_産婦人科_眼科_耳鼻いんこう科_皮膚科_泌尿器科_精神科_歯科_歯科口腔外科_リハビリテーション科_放射線科_放射線診断科_放射線治療科_病理診断科_臨床検査科_救急科_麻酔科】【一般病床数:502療養病床数:0精神病床数:0感染症病床数:0合計病床数:502】岐阜県美濃加茂市健康のまち一丁目１番地" }, "geometry": { "type": "Point", "coordinates": [ 137.016295, 35.45753 ] } },
{ "type": "Feature", "properties": { "ID": 2111661000012, "正式名称": "特定医療法人隆湶会　南ひだせせらぎ病院", "機関区分": 1, "都道府県コード": 21, "市区町村コード": 220, "所在地": "岐阜県下呂市萩原町西上田", "緯度": 35.816494, "経度": 137.23421, "url": "https://www.iryou.teikyouseido.mhlw.go.jp/znk-web/juminkanja/S2430/initialize?prefCd=21&kikanCd=1661000012&kikanKbn=1", "url2": "http://www.minamihida-seseragi.com/", "内容": "特定医療法人隆湶会　南ひだせせらぎ病院【1:病院】【診療科目:内科_精神科_心療内科】【一般病床数:0療養病床数:0精神病床数:143感染症病床数:0合計病床数:143】岐阜県下呂市萩原町西上田" }, "geometry": { "type": "Point", "coordinates": [ 137.23421, 35.816494 ] } },
{ "type": "Feature", "properties": { "ID": 2111661000013, "正式名称": "下呂市立金山病院", "機関区分": 1, "都道府県コード": 21, "市区町村コード": 220, "所在地": "岐阜県下呂市金山町金山９７３番地６", "緯度": 35.667576, "経度": 137.145669, "url": "https://www.iryou.teikyouseido.mhlw.go.jp/znk-web/juminkanja/S2430/initialize?prefCd=21&kikanCd=1661000013&kikanKbn=1", "url2": "http://www.city.gero.lg.jp/site/kanayama-hp/", "内容": "下呂市立金山病院【1:病院】【診療科目:内科_外科_整形外科_小児科_耳鼻いんこう科_皮膚科_泌尿器科_歯科_歯科口腔外科_リハビリテーション科】【一般病床数:50療養病床数:0精神病床数:0感染症病床数:0合計病床数:50】岐阜県下呂市金山町金山９７３番地６" }, "geometry": { "type": "Point", "coordinates": [ 137.145669, 35.667576 ] } },
{ "type": "Feature", "properties": { "ID": 2111661000087, "正式名称": "社団医療法人　古川病院", "機関区分": 1, "都道府県コード": 21, "市区町村コード": 217, "所在地": "岐阜県飛騨市古川町三之町８－２０", "緯度": 36.235593, "経度": 137.18336, "url": "https://www.iryou.teikyouseido.mhlw.go.jp/znk-web/juminkanja/S2430/initialize?prefCd=21&kikanCd=1661000087&kikanKbn=1", "url2": null, "内容": "社団医療法人　古川病院【1:病院】【診療科目:内科_消化器内科_外科_整形外科_小児科_耳鼻いんこう科_皮膚科_心療内科_リハビリテーション科】【一般病床数:0療養病床数:20精神病床数:0感染症病床数:0合計病床数:20】岐阜県飛騨市古川町三之町８－２０" }, "geometry": { "type": "Point", "coordinates": [ 137.18336, 36.235593 ] } },
{ "type": "Feature", "properties": { "ID": 2111661000088, "正式名称": "須田病院", "機関区分": 1, "都道府県コード": 21, "市区町村コード": 203, "所在地": "岐阜県高山市国府町村山２３５番地５", "緯度": 36.197284, "経度": 137.251105, "url": "https://www.iryou.teikyouseido.mhlw.go.jp/znk-web/juminkanja/S2430/initialize?prefCd=21&kikanCd=1661000088&kikanKbn=1", "url2": "https://.suda-hos.jp/", "内容": "須田病院【1:病院】【診療科目:精神科_心療内科_歯科】【一般病床数:0療養病床数:0精神病床数:261感染症病床数:0合計病床数:261】岐阜県高山市国府町村山２３５番地５" }, "geometry": { "type": "Point", "coordinates": [ 137.251105, 36.197284 ] } },
{ "type": "Feature", "properties": { "ID": 2111661000108, "正式名称": "岐阜県厚生農業協同組合連合会飛騨医療センター久美愛厚生病院", "機関区分": 1, "都道府県コード": 21, "市区町村コード": 203, "所在地": "岐阜県高山市中切町１番地１", "緯度": 36.153807, "経度": 137.256863, "url": "https://www.iryou.teikyouseido.mhlw.go.jp/znk-web/juminkanja/S2430/initialize?prefCd=21&kikanCd=1661000108&kikanKbn=1", "url2": "http://www.kumiai.gfkosei.or.jp/", "内容": "岐阜県厚生農業協同組合連合会飛騨医療センター久美愛厚生病院【1:病院】【診療科目:内科_循環器内科_外科_脳神経外科_呼吸器外科_整形外科_小児科_産婦人科_眼科_耳鼻いんこう科_皮膚科_泌尿器科_精神科_心療内科_リハビリテーション科_放射線科_麻酔科】【一般病床数:231療養病床数:57精神病床数:0感染症病床数:4合計病床数:300】岐阜県高山市中切町１番地１" }, "geometry": { "type": "Point", "coordinates": [ 137.256863, 36.153807 ] } },
{ "type": "Feature", "properties": { "ID": 2111661000109, "正式名称": "高山赤十字病院", "機関区分": 1, "都道府県コード": 21, "市区町村コード": 203, "所在地": "岐阜県高山市天満町３ー１１", "緯度": 36.137082, "経度": 137.254406, "url": "https://www.iryou.teikyouseido.mhlw.go.jp/znk-web/juminkanja/S2430/initialize?prefCd=21&kikanCd=1661000109&kikanKbn=1", "url2": "http://www.takayama.jrc.or.jp", "内容": "高山赤十字病院【1:病院】【診療科目:内科_血液内科_呼吸器内科_循環器内科_消化器内科_外科_脳神経外科_整形外科_小児科_産婦人科_眼科_耳鼻いんこう科_皮膚科_泌尿器科_精神科_歯科口腔外科_リハビリテーション科_放射線科_病理診断科_麻酔科】【一般病床数:375療養病床数:0精神病床数:0感染症病床数:0合計病床数:375】岐阜県高山市天満町３ー１１" }, "geometry": { "type": "Point", "coordinates": [ 137.254406, 36.137082 ] } },
{ "type": "Feature", "properties": { "ID": 2111661000139, "正式名称": "国民健康保険飛騨市民病院", "機関区分": 1, "都道府県コード": 21, "市区町村コード": 217, "所在地": "岐阜県飛騨市神岡町東町７２５番地", "緯度": 36.334737, "経度": 137.30055, "url": "https://www.iryou.teikyouseido.mhlw.go.jp/znk-web/juminkanja/S2430/initialize?prefCd=21&kikanCd=1661000139&kikanKbn=1", "url2": "https://hida-hp.jp/", "内容": "国民健康保険飛騨市民病院【1:病院】【診療科目:内科_糖尿病内科_呼吸器内科_循環器内科_腎臓内科_外科_脳神経外科_心臓血管外科_整形外科_小児科_婦人科_眼科_耳鼻いんこう科_皮膚科_泌尿器科】【一般病床数:54療養病床数:27精神病床数:0感染症病床数:0合計病床数:81】岐阜県飛騨市神岡町東町７２５番地" }, "geometry": { "type": "Point", "coordinates": [ 137.30055, 36.334737 ] } },
{ "type": "Feature", "properties": { "ID": 2111661008124, "正式名称": "岐阜県立下呂温泉病院", "機関区分": 1, "都道府県コード": 21, "市区町村コード": 220, "所在地": "岐阜県下呂市森２２１１", "緯度": 35.808004, "経度": 137.25297, "url": "https://www.iryou.teikyouseido.mhlw.go.jp/znk-web/juminkanja/S2430/initialize?prefCd=21&kikanCd=1661008124&kikanKbn=1", "url2": "https://www.gero-hp.jp", "内容": "岐阜県立下呂温泉病院【1:病院】【診療科目:内科_内分泌内科_呼吸器内科_循環器内科_消化器内科_腎臓内科_外科_脳神経外科_心臓血管外科_消化器外科_乳腺外科_胸部外科_整形外科_小児科_産婦人科_眼科_耳鼻いんこう科_皮膚科_泌尿器科_歯科口腔外科_リハビリテーション科_放射線科_病理診断科_臨床検査科_救急科】【一般病床数:168療養病床数:28精神病床数:0感染症病床数:0合計病床数:196】岐阜県下呂市森２２１１" }, "geometry": { "type": "Point", "coordinates": [ 137.25297, 35.808004 ] } }
]
}
