{
"type": "FeatureCollection",
"name": "geo_21_介護老人福祉施設",
"crs": { "type": "name", "properties": { "name": "urn:ogc:def:crs:OGC:1.3:CRS84" } },
"features": [
{ "type": "Feature", "properties": { "内容": "第三岐阜老人ホーム【介護老人福祉施設】岐阜県岐阜市日野東5丁目1番1号", "url": "https://www.kaigokensaku.mhlw.go.jp/21/index.php?action_kouhyou_detail_004_kani=true&JigyosyoCd=2170100255-00&ServiceCd=510&Type=search", "url2": null }, "geometry": { "type": "Point", "coordinates": [ 136.819214024517692, 35.433754488996513 ] } },
{ "type": "Feature", "properties": { "内容": "特別養護老人ホーム喜久寿苑【介護老人福祉施設】岐阜県岐阜市河渡２丁目４５番地", "url": "https://www.kaigokensaku.mhlw.go.jp/21/index.php?action_kouhyou_detail_004_kani=true&JigyosyoCd=2170100263-00&ServiceCd=510&Type=search", "url2": "https://chiyodakai.or.jp" }, "geometry": { "type": "Point", "coordinates": [ 136.697888199999966, 35.4088354 ] } },
{ "type": "Feature", "properties": { "内容": "瑞光苑【介護老人福祉施設】岐阜県岐阜市奥１丁目１００番地", "url": "https://www.kaigokensaku.mhlw.go.jp/21/index.php?action_kouhyou_detail_004_kani=true&JigyosyoCd=2170100271-00&ServiceCd=510&Type=search", "url2": "http://www.inoguchikai.jp" }, "geometry": { "type": "Point", "coordinates": [ 136.695784199999906, 35.5185675 ] } },
{ "type": "Feature", "properties": { "内容": "特別養護老人ホーム　光の園【介護老人福祉施設】岐阜県岐阜市三輪７７６番地２", "url": "https://www.kaigokensaku.mhlw.go.jp/21/index.php?action_kouhyou_detail_004_kani=true&JigyosyoCd=2170100289-00&ServiceCd=510&Type=search", "url2": "http://miwakai.or.jp/" }, "geometry": { "type": "Point", "coordinates": [ 136.845426167459095, 35.504758107329536 ] } },
{ "type": "Feature", "properties": { "内容": "さくら苑【介護老人福祉施設】岐阜県岐阜市奥２丁目２８番地１", "url": "https://www.kaigokensaku.mhlw.go.jp/21/index.php?action_kouhyou_detail_004_kani=true&JigyosyoCd=2170100297-00&ServiceCd=510&Type=search", "url2": "http://www.inoguchikai.jp/" }, "geometry": { "type": "Point", "coordinates": [ 136.698800300000016, 35.5247863 ] } },
{ "type": "Feature", "properties": { "内容": "特別養護老人ホーム大洞岐協苑【介護老人福祉施設】岐阜県岐阜市大洞3丁目3番1号", "url": "https://www.kaigokensaku.mhlw.go.jp/21/index.php?action_kouhyou_detail_004_kani=true&JigyosyoCd=2170100305-00&ServiceCd=510&Type=search", "url2": "http://www.gikyoen.jp" }, "geometry": { "type": "Point", "coordinates": [ 136.874931790737946, 35.459993359710126 ] } },
{ "type": "Feature", "properties": { "内容": "特別養護老人ホームサンライフ彦坂【介護老人福祉施設】岐阜県岐阜市彦坂川北２３０番地", "url": "https://www.kaigokensaku.mhlw.go.jp/21/index.php?action_kouhyou_detail_004_kani=true&JigyosyoCd=2170100313-00&ServiceCd=510&Type=search", "url2": "http://www.houjyukai.jp/" }, "geometry": { "type": "Point", "coordinates": [ 136.738717800000018, 35.4992456 ] } },
{ "type": "Feature", "properties": { "内容": "特別養護老人ホーム黒野あそか苑【介護老人福祉施設】岐阜県岐阜市黒野404番地1", "url": "https://www.kaigokensaku.mhlw.go.jp/21/index.php?action_kouhyou_detail_004_kani=true&JigyosyoCd=2170100321-00&ServiceCd=510&Type=search", "url2": "http://www.k-asoka.jp" }, "geometry": { "type": "Point", "coordinates": [ 136.719405, 35.4600589 ] } },
{ "type": "Feature", "properties": { "内容": "特別養護老人ホーム養生訓園【介護老人福祉施設】岐阜県岐阜市雄総柳町2丁目60番地", "url": "https://www.kaigokensaku.mhlw.go.jp/21/index.php?action_kouhyou_detail_004_kani=true&JigyosyoCd=2170101659-00&ServiceCd=510&Type=search", "url2": "http://www.youjoukunen.com/" }, "geometry": { "type": "Point", "coordinates": [ 136.791003100000012, 35.4424932 ] } },
{ "type": "Feature", "properties": { "内容": "特別養護老人ホーム　コート・スマイル【介護老人福祉施設】岐阜県岐阜市芥見野畑１丁目２５番地", "url": "https://www.kaigokensaku.mhlw.go.jp/21/index.php?action_kouhyou_detail_004_kani=true&JigyosyoCd=2170102004-00&ServiceCd=510&Type=search", "url2": "http://www.court-smile.jp/" }, "geometry": { "type": "Point", "coordinates": [ 136.842971900000066, 35.4406111 ] } },
{ "type": "Feature", "properties": { "内容": "特別養護老人ホーム燦燦（さんさん）【介護老人福祉施設】岐阜県岐阜市鏡島南1丁目2番30号", "url": "https://www.kaigokensaku.mhlw.go.jp/21/index.php?action_kouhyou_detail_004_kani=true&JigyosyoCd=2170103556-00&ServiceCd=510&Type=search", "url2": "http://www.koukikai.gr.jp" }, "geometry": { "type": "Point", "coordinates": [ 136.717054800000028, 35.4077833 ] } },
{ "type": "Feature", "properties": { "内容": "特別養護老人ホームやすらぎの里川部苑本館【介護老人福祉施設】岐阜県岐阜市川部３丁目４３番地", "url": "https://www.kaigokensaku.mhlw.go.jp/21/index.php?action_kouhyou_detail_004_kani=true&JigyosyoCd=2170104075-00&ServiceCd=510&Type=search", "url2": "http://www.care-kawabe.jp/" }, "geometry": { "type": "Point", "coordinates": [ 136.709291300000018, 35.4347599 ] } },
{ "type": "Feature", "properties": { "内容": "特別養護老人ホームあんきの家細畑【介護老人福祉施設】岐阜県岐阜市細畑3丁目16番8号", "url": "https://www.kaigokensaku.mhlw.go.jp/21/index.php?action_kouhyou_detail_004_kani=true&JigyosyoCd=2170104109-00&ServiceCd=510&Type=search", "url2": "http://gifu-min.jp/fukushi/" }, "geometry": { "type": "Point", "coordinates": [ 136.7899294, 35.4035869 ] } },
{ "type": "Feature", "properties": { "内容": "特別養護老人ホーム　ナーシングケア加納【介護老人福祉施設】岐阜県岐阜市加納愛宕町18番地2", "url": "https://www.kaigokensaku.mhlw.go.jp/21/index.php?action_kouhyou_detail_004_kani=true&JigyosyoCd=2170110478-00&ServiceCd=510&Type=search", "url2": "http://www.wakokai.or.jp" }, "geometry": { "type": "Point", "coordinates": [ 136.750966708073406, 35.408981836930955 ] } },
{ "type": "Feature", "properties": { "内容": "特別養護老人ホーム　るぴなすビラ【介護老人福祉施設】岐阜県岐阜市須賀2丁目5番1号", "url": "https://www.kaigokensaku.mhlw.go.jp/21/index.php?action_kouhyou_detail_004_kani=true&JigyosyoCd=2170111013-00&ServiceCd=510&Type=search", "url2": "http://lupinusvilla.jp/" }, "geometry": { "type": "Point", "coordinates": [ 136.720535400000017, 35.3881025 ] } },
{ "type": "Feature", "properties": { "内容": "特別養護老人ホーム　ハートステージ鳳【介護老人福祉施設】岐阜県岐阜市長旗町2-18", "url": "https://www.kaigokensaku.mhlw.go.jp/21/index.php?action_kouhyou_detail_004_kani=true&JigyosyoCd=2170111724-00&ServiceCd=510&Type=search", "url2": null }, "geometry": { "type": "Point", "coordinates": [ 136.761874108589438, 35.41406772646399 ] } },
{ "type": "Feature", "properties": { "内容": "介護老人福祉施設ジョイフル岐阜駅【介護老人福祉施設】岐阜県岐阜市高砂町一丁目１７番地岐阜イーストライジング24", "url": "https://www.kaigokensaku.mhlw.go.jp/21/index.php?action_kouhyou_detail_004_kani=true&JigyosyoCd=2170114074-00&ServiceCd=510&Type=search", "url2": "https://sun-vision.or.jp/" }, "geometry": { "type": "Point", "coordinates": [ 136.759411499999942, 35.4101011 ] } },
{ "type": "Feature", "properties": { "内容": "ナーシングケア寺田【介護老人福祉施設】岐阜県岐阜市寺田７丁目８５番地", "url": "https://www.kaigokensaku.mhlw.go.jp/21/index.php?action_kouhyou_detail_004_kani=true&JigyosyoCd=2170102012-00&ServiceCd=510&Type=search", "url2": "http://www.wakokai.or.jp" }, "geometry": { "type": "Point", "coordinates": [ 136.70069860000001, 35.4192647 ] } },
{ "type": "Feature", "properties": { "内容": "特別養護老人ホーム　みたほら苑【介護老人福祉施設】岐阜県岐阜市三田洞東４丁目９番1号", "url": "https://www.kaigokensaku.mhlw.go.jp/21/index.php?action_kouhyou_detail_004_kani=true&JigyosyoCd=2170103499-00&ServiceCd=510&Type=search", "url2": "http://gifu-shinwakai.org/" }, "geometry": { "type": "Point", "coordinates": [ 136.796615400000064, 35.4730861 ] } },
{ "type": "Feature", "properties": { "内容": "岐阜県立寿楽苑【介護老人福祉施設】岐阜県岐阜市中２丁目４７０番地", "url": "https://www.kaigokensaku.mhlw.go.jp/21/index.php?action_kouhyou_detail_004_kani=true&JigyosyoCd=2170114330-00&ServiceCd=510&Type=search", "url2": "https://gifu-fukushi.jp/" }, "geometry": { "type": "Point", "coordinates": [ 136.708207499999986, 35.468912400000022 ] } },
{ "type": "Feature", "properties": { "内容": "特別養護老人ホーム友和苑【介護老人福祉施設】岐阜県大垣市入方3丁目70番地1", "url": "https://www.kaigokensaku.mhlw.go.jp/21/index.php?action_kouhyou_detail_004_kani=true&JigyosyoCd=2172100139-00&ServiceCd=510&Type=search", "url2": "http://www.yuuwaen.jp" }, "geometry": { "type": "Point", "coordinates": [ 136.598297900000034, 35.3243626 ] } },
{ "type": "Feature", "properties": { "内容": "特別養護老人ホームゴールドライフ大東【介護老人福祉施設】岐阜県大垣市東前１丁目７９番地", "url": "https://www.kaigokensaku.mhlw.go.jp/21/index.php?action_kouhyou_detail_004_kani=true&JigyosyoCd=2172100147-00&ServiceCd=510&Type=search", "url2": "http://294.or.jp" }, "geometry": { "type": "Point", "coordinates": [ 136.630231699999968, 35.3507245 ] } },
{ "type": "Feature", "properties": { "内容": "特別養護老人ホーム　サンヴェール大垣【介護老人福祉施設】岐阜県大垣市東町4丁目43-2", "url": "https://www.kaigokensaku.mhlw.go.jp/21/index.php?action_kouhyou_detail_004_kani=true&JigyosyoCd=2172100758-00&ServiceCd=510&Type=search", "url2": "http://www.sunvale.net" }, "geometry": { "type": "Point", "coordinates": [ 136.6476907, 35.3697139 ] } },
{ "type": "Feature", "properties": { "内容": "特別養護老人ホームパサーダ【介護老人福祉施設】岐阜県大垣市北方町二丁目７０番１", "url": "https://www.kaigokensaku.mhlw.go.jp/21/index.php?action_kouhyou_detail_004_kani=true&JigyosyoCd=2172101046-00&ServiceCd=510&Type=search", "url2": "http://www.haroro.com/hokushin" }, "geometry": { "type": "Point", "coordinates": [ 136.610505800000027, 35.3964656 ] } },
{ "type": "Feature", "properties": { "内容": "大垣市くすのき苑【介護老人福祉施設】岐阜県大垣市多芸島4丁目64番地1", "url": "https://www.kaigokensaku.mhlw.go.jp/21/index.php?action_kouhyou_detail_004_kani=true&JigyosyoCd=2172101376-00&ServiceCd=510&Type=search", "url2": "https://ogaki-fukushi.jp" }, "geometry": { "type": "Point", "coordinates": [ 136.5948929, 35.3236653 ] } },
{ "type": "Feature", "properties": { "内容": "特別養護老人ホーム　すいと大垣【介護老人福祉施設】岐阜県大垣市北方町５丁目２５番地１", "url": "https://www.kaigokensaku.mhlw.go.jp/21/index.php?action_kouhyou_detail_004_kani=true&JigyosyoCd=2172102036-00&ServiceCd=510&Type=search", "url2": "http://www.inoguchikai.jp/" }, "geometry": { "type": "Point", "coordinates": [ 136.618801800000028, 35.3955912 ] } },
{ "type": "Feature", "properties": { "内容": "特別養護老人ホーム　優・悠・邑　和合【介護老人福祉施設】岐阜県大垣市和合本町2丁目114-1特別養護老人ホーム　優・悠・邑　和合", "url": "https://www.kaigokensaku.mhlw.go.jp/21/index.php?action_kouhyou_detail_004_kani=true&JigyosyoCd=2172102317-00&ServiceCd=510&Type=search", "url2": "http://www.sugiwakai.jp/" }, "geometry": { "type": "Point", "coordinates": [ 136.647583057845594, 35.374314093574895 ] } },
{ "type": "Feature", "properties": { "内容": "特別養護老人ホーム　静風苑【介護老人福祉施設】岐阜県大垣市林町七丁目字恵比寿堂６１８－１", "url": "https://www.kaigokensaku.mhlw.go.jp/21/index.php?action_kouhyou_detail_004_kani=true&JigyosyoCd=2172102382-00&ServiceCd=510&Type=search", "url2": "http://ogaki-seifuen.jp/" }, "geometry": { "type": "Point", "coordinates": [ 136.62289464396909, 35.376371740050942 ] } },
{ "type": "Feature", "properties": { "内容": "特別養護老人ホーム　清心苑【介護老人福祉施設】岐阜県大垣市矢道町１丁目３０３番地", "url": "https://www.kaigokensaku.mhlw.go.jp/21/index.php?action_kouhyou_detail_004_kani=true&JigyosyoCd=2172101111-00&ServiceCd=510&Type=search", "url2": "https://seishinkai.heart-gp.org/tokuyou/" }, "geometry": { "type": "Point", "coordinates": [ 136.560023600000022, 35.3720979 ] } },
{ "type": "Feature", "properties": { "内容": "特別養護老人ホーム　優心苑【介護老人福祉施設】岐阜県大垣市矢道町1丁目255番地1", "url": "https://www.kaigokensaku.mhlw.go.jp/21/index.php?action_kouhyou_detail_004_kani=true&JigyosyoCd=2172103083-00&ServiceCd=510&Type=search", "url2": "https://seishinkai.heart-gp.org/" }, "geometry": { "type": "Point", "coordinates": [ 136.5598741, 35.372641 ] } },
{ "type": "Feature", "properties": { "内容": "特別養護老人ホーム豊楽園【介護老人福祉施設】岐阜県高山市三福寺町1110番地の5", "url": "https://www.kaigokensaku.mhlw.go.jp/21/index.php?action_kouhyou_detail_004_kani=true&JigyosyoCd=2172700078-00&ServiceCd=510&Type=search", "url2": "http://www.seitokukai.or.jp" }, "geometry": { "type": "Point", "coordinates": [ 137.265304799999967, 36.1548368 ] } },
{ "type": "Feature", "properties": { "内容": "特別養護老人ホーム新宮園【介護老人福祉施設】岐阜県高山市新宮町1322番地1", "url": "https://www.kaigokensaku.mhlw.go.jp/21/index.php?action_kouhyou_detail_004_kani=true&JigyosyoCd=2172700086-00&ServiceCd=510&Type=search", "url2": "http://www.seitokukai.or.jp" }, "geometry": { "type": "Point", "coordinates": [ 137.209277400000019, 36.1351856 ] } },
{ "type": "Feature", "properties": { "内容": "特別養護老人ホーム南風園【介護老人福祉施設】岐阜県高山市千島町1257-2", "url": "https://www.kaigokensaku.mhlw.go.jp/21/index.php?action_kouhyou_detail_004_kani=true&JigyosyoCd=2172700524-00&ServiceCd=510&Type=search", "url2": "http://www.seitokukai.or.jp" }, "geometry": { "type": "Point", "coordinates": [ 137.242376150926219, 36.115064558283926 ] } },
{ "type": "Feature", "properties": { "内容": "特別養護老人ホーム丹生川苑【介護老人福祉施設】岐阜県高山市丹生川町町方98-1", "url": "https://www.kaigokensaku.mhlw.go.jp/21/index.php?action_kouhyou_detail_004_kani=true&JigyosyoCd=2172700730-00&ServiceCd=510&Type=search", "url2": "http://www.hachijukai.com/" }, "geometry": { "type": "Point", "coordinates": [ 137.308236, 36.1719193 ] } },
{ "type": "Feature", "properties": { "内容": "こころの丘高山【介護老人福祉施設】岐阜県高山市赤保木町1164-1", "url": "https://www.kaigokensaku.mhlw.go.jp/21/index.php?action_kouhyou_detail_004_kani=true&JigyosyoCd=2172701308-00&ServiceCd=510&Type=search", "url2": "http://www.keiyu-kai.com" }, "geometry": { "type": "Point", "coordinates": [ 137.231343700000025, 36.1606824 ] } },
{ "type": "Feature", "properties": { "内容": "特別養護老人ホーム八光苑【介護老人福祉施設】岐阜県高山市久々野町久々野１２０２番地八光苑", "url": "https://www.kaigokensaku.mhlw.go.jp/21/index.php?action_kouhyou_detail_004_kani=true&JigyosyoCd=2172900322-00&ServiceCd=510&Type=search", "url2": "http://www.hachijukai.com/" }, "geometry": { "type": "Point", "coordinates": [ 137.274811699999987, 36.0591307 ] } },
{ "type": "Feature", "properties": { "内容": "特別養護老人ホームたじみ陶生苑【介護老人福祉施設】岐阜県多治見市小名田町小滝５－４１１", "url": "https://www.kaigokensaku.mhlw.go.jp/21/index.php?action_kouhyou_detail_004_kani=true&JigyosyoCd=2171100114-00&ServiceCd=510&Type=search", "url2": "https://www.toseien.com/" }, "geometry": { "type": "Point", "coordinates": [ 137.122067799999968, 35.3764531 ] } },
{ "type": "Feature", "properties": { "内容": "特別養護老人ホームベルツリー【介護老人福祉施設】岐阜県多治見市脇之島町３－１６－１", "url": "https://www.kaigokensaku.mhlw.go.jp/21/index.php?action_kouhyou_detail_004_kani=true&JigyosyoCd=2171100122-00&ServiceCd=510&Type=search", "url2": "http://www.belltree.or.jp/" }, "geometry": { "type": "Point", "coordinates": [ 137.119214300000067, 35.3167815 ] } },
{ "type": "Feature", "properties": { "内容": "特別養護老人ホームビアンカ【介護老人福祉施設】岐阜県多治見市上山町１－９７－２", "url": "https://www.kaigokensaku.mhlw.go.jp/21/index.php?action_kouhyou_detail_004_kani=true&JigyosyoCd=2171100247-00&ServiceCd=510&Type=search", "url2": "http://bitokukai.com" }, "geometry": { "type": "Point", "coordinates": [ 137.137798100000026, 35.3395467 ] } },
{ "type": "Feature", "properties": { "内容": "特別養護老人ホーム　エバーグリーン【介護老人福祉施設】岐阜県多治見市小名田町西ヶ洞1-325", "url": "https://www.kaigokensaku.mhlw.go.jp/21/index.php?action_kouhyou_detail_004_kani=true&JigyosyoCd=2171100551-00&ServiceCd=510&Type=search", "url2": "http://www.i-jinjukai.or.jp/evergreen/" }, "geometry": { "type": "Point", "coordinates": [ 137.1174909, 35.3659651 ] } },
{ "type": "Feature", "properties": { "内容": "介護老人福祉施設　清凉苑【介護老人福祉施設】岐阜県多治見市旭ヶ丘7-17-1", "url": "https://www.kaigokensaku.mhlw.go.jp/21/index.php?action_kouhyou_detail_004_kani=true&JigyosyoCd=2171100858-00&ServiceCd=510&Type=search", "url2": "https://www.seiryouen.or.jp" }, "geometry": { "type": "Point", "coordinates": [ 137.100637300000017, 35.3667422 ] } },
{ "type": "Feature", "properties": { "内容": "介護老人福祉施設ジョイフル多治見【介護老人福祉施設】岐阜県多治見市音羽町一丁目235番地", "url": "https://www.kaigokensaku.mhlw.go.jp/21/index.php?action_kouhyou_detail_004_kani=true&JigyosyoCd=2171102268-00&ServiceCd=510&Type=search", "url2": "https://sun-vision.or.jp/" }, "geometry": { "type": "Point", "coordinates": [ 137.119131207270812, 35.336489822999489 ] } },
{ "type": "Feature", "properties": { "内容": "特別養護老人ホームかさはら陶生苑【介護老人福祉施設】岐阜県多治見市笠原町２８５４－１", "url": "https://www.kaigokensaku.mhlw.go.jp/21/index.php?action_kouhyou_detail_004_kani=true&JigyosyoCd=2171900075-00&ServiceCd=510&Type=search", "url2": "http://www.toseien.com/" }, "geometry": { "type": "Point", "coordinates": [ 137.154621600000041, 35.3029293 ] } },
{ "type": "Feature", "properties": { "内容": "特別養護老人ホームハートフル【介護老人福祉施設】岐阜県関市下有知５３６７番地４", "url": "https://www.kaigokensaku.mhlw.go.jp/21/index.php?action_kouhyou_detail_004_kani=true&JigyosyoCd=2170200188-00&ServiceCd=510&Type=search", "url2": "https://swct.or.jp/swch.html" }, "geometry": { "type": "Point", "coordinates": [ 136.918938799999978, 35.5109415 ] } },
{ "type": "Feature", "properties": { "内容": "特別養護老人ホームほほえみ福寿の家【介護老人福祉施設】岐阜県関市稲口字柳洞845番地", "url": "https://www.kaigokensaku.mhlw.go.jp/21/index.php?action_kouhyou_detail_004_kani=true&JigyosyoCd=2170200196-00&ServiceCd=510&Type=search", "url2": "https://www.hohoemi.or.jp" }, "geometry": { "type": "Point", "coordinates": [ 136.926750199999987, 35.470019 ] } },
{ "type": "Feature", "properties": { "内容": "特別養護老人ホームあかつき【介護老人福祉施設】岐阜県関市下白金912番地1", "url": "https://www.kaigokensaku.mhlw.go.jp/21/index.php?action_kouhyou_detail_004_kani=true&JigyosyoCd=2170200527-00&ServiceCd=510&Type=search", "url2": "http://www.shounkai.or.jp" }, "geometry": { "type": "Point", "coordinates": [ 136.851906, 35.4768014 ] } },
{ "type": "Feature", "properties": { "内容": "特別養護老人ホームハートタウン平成の杜【介護老人福祉施設】岐阜県関市中之保4517-2", "url": "https://www.kaigokensaku.mhlw.go.jp/21/index.php?action_kouhyou_detail_004_kani=true&JigyosyoCd=2170200675-00&ServiceCd=510&Type=search", "url2": "http://www.daiwa-center.jp/" }, "geometry": { "type": "Point", "coordinates": [ 137.026642150970474, 35.573218166177845 ] } },
{ "type": "Feature", "properties": { "内容": "特別養護老人ホームあかつき　別館【介護老人福祉施設】岐阜県関市下白金913番地6", "url": "https://www.kaigokensaku.mhlw.go.jp/21/index.php?action_kouhyou_detail_004_kani=true&JigyosyoCd=2170201038-00&ServiceCd=510&Type=search", "url2": "http://www.shounkai.or.jp" }, "geometry": { "type": "Point", "coordinates": [ 136.852026466270445, 35.476957868320874 ] } },
{ "type": "Feature", "properties": { "内容": "特別養護老人ホーム寿和苑【介護老人福祉施設】岐阜県関市武芸川町跡部１５５５番地１", "url": "https://www.kaigokensaku.mhlw.go.jp/21/index.php?action_kouhyou_detail_004_kani=true&JigyosyoCd=2170900084-00&ServiceCd=510&Type=search", "url2": "http://www.juwaen.or.jp" }, "geometry": { "type": "Point", "coordinates": [ 136.849678400000016, 35.5119808 ] } },
{ "type": "Feature", "properties": { "内容": "介護老人福祉施設　ゴールドヴィレッジほらど【介護老人福祉施設】岐阜県関市洞戸通元寺261番地", "url": "https://www.kaigokensaku.mhlw.go.jp/21/index.php?action_kouhyou_detail_004_kani=true&JigyosyoCd=2170200832-00&ServiceCd=510&Type=search", "url2": "http://miwakai.or.jp/" }, "geometry": { "type": "Point", "coordinates": [ 136.819419499999981, 35.6073577 ] } },
{ "type": "Feature", "properties": { "内容": "特別養護老人ホームせきこもれび【介護老人福祉施設】岐阜県関市肥田瀬4027番2", "url": "https://www.kaigokensaku.mhlw.go.jp/21/index.php?action_kouhyou_detail_004_kani=true&JigyosyoCd=2170201343-00&ServiceCd=510&Type=search", "url2": "http://www.seki-komorebi.jp" }, "geometry": { "type": "Point", "coordinates": [ 136.936623065853837, 35.470341019214018 ] } },
{ "type": "Feature", "properties": { "内容": "特別養護老人ホーム延暦寺広済寮【介護老人福祉施設】岐阜県中津川市落合1336-13", "url": "https://www.kaigokensaku.mhlw.go.jp/21/index.php?action_kouhyou_detail_004_kani=true&JigyosyoCd=2171500040-00&ServiceCd=510&Type=search", "url2": "https://kayagakikai-nakatsugawa.jp/" }, "geometry": { "type": "Point", "coordinates": [ 137.547850211938595, 35.499230214168847 ] } },
{ "type": "Feature", "properties": { "内容": "特別養護老人ホーム瀬戸の里【介護老人福祉施設】岐阜県中津川市瀬戸1387番地の8", "url": "https://www.kaigokensaku.mhlw.go.jp/21/index.php?action_kouhyou_detail_004_kani=true&JigyosyoCd=2171500057-00&ServiceCd=510&Type=search", "url2": "http://www.gojoukai.or.jp/" }, "geometry": { "type": "Point", "coordinates": [ 137.497419799999989, 35.5166269 ] } },
{ "type": "Feature", "properties": { "内容": "特別養護老人ホームシクラメン【介護老人福祉施設】岐阜県中津川市阿木2811番地の1", "url": "https://www.kaigokensaku.mhlw.go.jp/21/index.php?action_kouhyou_detail_004_kani=true&JigyosyoCd=2171500289-00&ServiceCd=510&Type=search", "url2": "http://www.cyclamen.or.jp/" }, "geometry": { "type": "Point", "coordinates": [ 137.447185900000022, 35.4092996 ] } },
{ "type": "Feature", "properties": { "内容": "特別養護老人ホーム　ふくろうの杜【介護老人福祉施設】岐阜県中津川市苗木4002", "url": "https://www.kaigokensaku.mhlw.go.jp/21/index.php?action_kouhyou_detail_004_kani=true&JigyosyoCd=2171500602-00&ServiceCd=510&Type=search", "url2": "http://fukurounomori.jp/" }, "geometry": { "type": "Point", "coordinates": [ 137.4592841, 35.5119179 ] } },
{ "type": "Feature", "properties": { "内容": "特別養護老人ホーム二ツ森【介護老人福祉施設】岐阜県中津川市福岡1693-608", "url": "https://www.kaigokensaku.mhlw.go.jp/21/index.php?action_kouhyou_detail_004_kani=true&JigyosyoCd=2171500719-00&ServiceCd=510&Type=search", "url2": "http://www.futatsumori.or.jp/" }, "geometry": { "type": "Point", "coordinates": [ 137.432450099999983, 35.5686734 ] } },
{ "type": "Feature", "properties": { "内容": "特別養護老人ホーム　恵翔苑　（ユニット型）【介護老人福祉施設】岐阜県中津川市付知町4575番地１", "url": "https://www.kaigokensaku.mhlw.go.jp/21/index.php?action_kouhyou_detail_004_kani=true&JigyosyoCd=2171501048-00&ServiceCd=510&Type=search", "url2": "https://keihoku.or.jp" }, "geometry": { "type": "Point", "coordinates": [ 137.426606699999979, 35.6666884 ] } },
{ "type": "Feature", "properties": { "内容": "特別養護老人ホーム　延暦寺広済寮【介護老人福祉施設】岐阜県中津川市落合1336－13", "url": "https://www.kaigokensaku.mhlw.go.jp/21/index.php?action_kouhyou_detail_004_kani=true&JigyosyoCd=2171501238-00&ServiceCd=510&Type=search", "url2": "https://kayagakikai-nakatsugawa.jp/" }, "geometry": { "type": "Point", "coordinates": [ 137.547875125886691, 35.499207700369283 ] } },
{ "type": "Feature", "properties": { "内容": "特別養護老人ホーム　恵翔苑(従来型）【介護老人福祉施設】岐阜県中津川市付知町４５７５番地１", "url": "https://www.kaigokensaku.mhlw.go.jp/21/index.php?action_kouhyou_detail_004_kani=true&JigyosyoCd=2172000131-00&ServiceCd=510&Type=search", "url2": "https://keihoku.or.jp" }, "geometry": { "type": "Point", "coordinates": [ 137.426606699999979, 35.6666884 ] } },
{ "type": "Feature", "properties": { "内容": "特別養護老人ホーム　美和の里【介護老人福祉施設】岐阜県美濃市極楽寺213番地の1", "url": "https://www.kaigokensaku.mhlw.go.jp/21/index.php?action_kouhyou_detail_004_kani=true&JigyosyoCd=2170300111-00&ServiceCd=510&Type=search", "url2": "http://gifu-shinwakai.org/" }, "geometry": { "type": "Point", "coordinates": [ 136.882842100000062, 35.530543 ] } },
{ "type": "Feature", "properties": { "内容": "特別養護老人ホームみのがみの郷【介護老人福祉施設】岐阜県美濃市乙狩８３７番地１", "url": "https://www.kaigokensaku.mhlw.go.jp/21/index.php?action_kouhyou_detail_004_kani=true&JigyosyoCd=2170300392-00&ServiceCd=510&Type=search", "url2": "http://www.minogami.or.jp/" }, "geometry": { "type": "Point", "coordinates": [ 136.858617, 35.5911188 ] } },
{ "type": "Feature", "properties": { "内容": "特別養護老人ホームみの輝きの杜【介護老人福祉施設】岐阜県美濃市桑原3008番地１", "url": "https://www.kaigokensaku.mhlw.go.jp/21/index.php?action_kouhyou_detail_004_kani=true&JigyosyoCd=2170300285-00&ServiceCd=510&Type=search", "url2": "http://www.minokagayaki.com/" }, "geometry": { "type": "Point", "coordinates": [ 136.918062955503075, 35.541614022053402 ] } },
{ "type": "Feature", "properties": { "内容": "特別養護老人ホームみずなみ陶生苑【介護老人福祉施設】岐阜県瑞浪市釜戸町833番地", "url": "https://www.kaigokensaku.mhlw.go.jp/21/index.php?action_kouhyou_detail_004_kani=true&JigyosyoCd=2171600089-00&ServiceCd=510&Type=search", "url2": null }, "geometry": { "type": "Point", "coordinates": [ 137.283614700000044, 35.3997005 ] } },
{ "type": "Feature", "properties": { "内容": "特別養護老人ホーム　千寿の里【介護老人福祉施設】岐阜県瑞浪市山田町1018番地の1", "url": "https://www.kaigokensaku.mhlw.go.jp/21/index.php?action_kouhyou_detail_004_kani=true&JigyosyoCd=2171600147-00&ServiceCd=510&Type=search", "url2": "https://www.senjyukai.or.jp/" }, "geometry": { "type": "Point", "coordinates": [ 137.251603599999953, 35.3427507 ] } },
{ "type": "Feature", "properties": { "内容": "特別養護老人ホームみずなみ瀬戸の里【介護老人福祉施設】岐阜県瑞浪市稲津町小里2723-1", "url": "https://www.kaigokensaku.mhlw.go.jp/21/index.php?action_kouhyou_detail_004_kani=true&JigyosyoCd=2171600436-00&ServiceCd=510&Type=search", "url2": "http://www.gojoukai.or.jp" }, "geometry": { "type": "Point", "coordinates": [ 137.291118399999959, 35.327735 ] } },
{ "type": "Feature", "properties": { "内容": "特別養護老人ホームやすらぎ苑【介護老人福祉施設】岐阜県羽島市下中町石田687番地", "url": "https://www.kaigokensaku.mhlw.go.jp/21/index.php?action_kouhyou_detail_004_kani=true&JigyosyoCd=2170400119-00&ServiceCd=510&Type=search", "url2": "https://www.denshinkai.jp" }, "geometry": { "type": "Point", "coordinates": [ 136.6989347, 35.2759428 ] } },
{ "type": "Feature", "properties": { "内容": "特別養護老人ホーム　寿光苑【介護老人福祉施設】岐阜県羽島市小熊町２丁目７５０番地", "url": "https://www.kaigokensaku.mhlw.go.jp/21/index.php?action_kouhyou_detail_004_kani=true&JigyosyoCd=2170400408-00&ServiceCd=510&Type=search", "url2": "http://www.shahuku-hashima.jp/" }, "geometry": { "type": "Point", "coordinates": [ 136.71046780000006, 35.3492708 ] } },
{ "type": "Feature", "properties": { "内容": "特別養護老人ホーム美輝苑【介護老人福祉施設】岐阜県羽島市桑原町大須２丁目１５７番地１", "url": "https://www.kaigokensaku.mhlw.go.jp/21/index.php?action_kouhyou_detail_004_kani=true&JigyosyoCd=2170400812-00&ServiceCd=510&Type=search", "url2": "http://www.shahuku-hashima.jp/" }, "geometry": { "type": "Point", "coordinates": [ 136.676854100000014, 35.2638856 ] } },
{ "type": "Feature", "properties": { "内容": "特別養護老人ホーム　光輝苑【介護老人福祉施設】岐阜県羽島市桑原町東方２８７番地１", "url": "https://www.kaigokensaku.mhlw.go.jp/21/index.php?action_kouhyou_detail_004_kani=true&JigyosyoCd=2170401190-00&ServiceCd=510&Type=search", "url2": "http://www.shahuku-hashima.jp/" }, "geometry": { "type": "Point", "coordinates": [ 136.679286430147641, 35.286588189370086 ] } },
{ "type": "Feature", "properties": { "内容": "介護老人福祉施設ジョイフル羽島【介護老人福祉施設】岐阜県羽島市下中町城屋敷　318-5", "url": "https://www.kaigokensaku.mhlw.go.jp/21/index.php?action_kouhyou_detail_004_kani=true&JigyosyoCd=2170401372-00&ServiceCd=510&Type=search", "url2": "https://sun-vision.or.jp/" }, "geometry": { "type": "Point", "coordinates": [ 136.704144499999984, 35.2874288 ] } },
{ "type": "Feature", "properties": { "内容": "特別養護老人ホームことほぎ苑【介護老人福祉施設】岐阜県羽島市堀津町前谷８６番地１", "url": "https://www.kaigokensaku.mhlw.go.jp/21/index.php?action_kouhyou_detail_004_kani=true&JigyosyoCd=2170401398-00&ServiceCd=510&Type=search", "url2": "https://kotohogien.jp/" }, "geometry": { "type": "Point", "coordinates": [ 136.674530134172983, 35.303731084804696 ] } },
{ "type": "Feature", "properties": { "内容": "特別養護老人ホーム　こころの丘【介護老人福祉施設】岐阜県恵那市岩村町2453-123", "url": "https://www.kaigokensaku.mhlw.go.jp/21/index.php?action_kouhyou_detail_004_kani=true&JigyosyoCd=2171700657-00&ServiceCd=510&Type=search", "url2": "http://www.keiyu-kai.com/" }, "geometry": { "type": "Point", "coordinates": [ 137.42875789012146, 35.368333740882491 ] } },
{ "type": "Feature", "properties": { "内容": "特別養護老人ホーム万年青苑【介護老人福祉施設】岐阜県恵那市長島町永田３８１番地４９", "url": "https://www.kaigokensaku.mhlw.go.jp/21/index.php?action_kouhyou_detail_004_kani=true&JigyosyoCd=2171700046-00&ServiceCd=510&Type=search", "url2": "http://www.keiwakai.or.jp/" }, "geometry": { "type": "Point", "coordinates": [ 137.4055284, 35.4456002 ] } },
{ "type": "Feature", "properties": { "内容": "特別養護老人ホーム福寿苑（従来型）【介護老人福祉施設】岐阜県恵那市上矢作町下723番地1", "url": "https://www.kaigokensaku.mhlw.go.jp/21/index.php?action_kouhyou_detail_004_kani=true&JigyosyoCd=2171700459-00&ServiceCd=510&Type=search", "url2": "https://keihoku.or.jp/" }, "geometry": { "type": "Point", "coordinates": [ 137.474648200000047, 35.274635 ] } },
{ "type": "Feature", "properties": { "内容": "特別養護老人ホーム明日香苑【介護老人福祉施設】岐阜県恵那市三郷町佐々良木1470-1", "url": "https://www.kaigokensaku.mhlw.go.jp/21/index.php?action_kouhyou_detail_004_kani=true&JigyosyoCd=2171700996-00&ServiceCd=510&Type=search", "url2": "http://www.keiwakai.or.jp" }, "geometry": { "type": "Point", "coordinates": [ 137.356189299999983, 35.405139 ] } },
{ "type": "Feature", "properties": { "内容": "特別養護老人ホーム福寿苑（ユニット型）【介護老人福祉施設】岐阜県恵那市上矢作町下723番地1", "url": "https://www.kaigokensaku.mhlw.go.jp/21/index.php?action_kouhyou_detail_004_kani=true&JigyosyoCd=2171701135-00&ServiceCd=510&Type=search", "url2": "https://keihoku.or.jp/" }, "geometry": { "type": "Point", "coordinates": [ 137.474495026319914, 35.274807591497193 ] } },
{ "type": "Feature", "properties": { "内容": "特別養護老人ホーム　さわやかナーシングビラ【介護老人福祉施設】岐阜県美濃加茂市下米田町東栃井81番地の2", "url": "https://www.kaigokensaku.mhlw.go.jp/21/index.php?action_kouhyou_detail_004_kani=true&JigyosyoCd=2171200096-00&ServiceCd=510&Type=search", "url2": "http://www.jikeikai-sawayaka.jp" }, "geometry": { "type": "Point", "coordinates": [ 137.066200400000071, 35.4772158 ] } },
{ "type": "Feature", "properties": { "内容": "社会福祉法人　清風会　特別養護老人ホーム　ハニーヒルズ【介護老人福祉施設】岐阜県美濃加茂市蜂屋町伊瀬540-1", "url": "https://www.kaigokensaku.mhlw.go.jp/21/index.php?action_kouhyou_detail_004_kani=true&JigyosyoCd=2171200500-00&ServiceCd=510&Type=search", "url2": "https://www.hayasi-clinic.org/publics/index/33/" }, "geometry": { "type": "Point", "coordinates": [ 136.991814299999987, 35.4613569 ] } },
{ "type": "Feature", "properties": { "内容": "特別養護老人ホームとき陶生苑【介護老人福祉施設】岐阜県土岐市駄知町1858番地の2", "url": "https://www.kaigokensaku.mhlw.go.jp/21/index.php?action_kouhyou_detail_004_kani=true&JigyosyoCd=2171800051-00&ServiceCd=510&Type=search", "url2": "http://www.toseien.com/" }, "geometry": { "type": "Point", "coordinates": [ 137.22297930000002, 35.329157 ] } },
{ "type": "Feature", "properties": { "内容": "特別養護老人ホームドリーム陶都【介護老人福祉施設】岐阜県土岐市下石町304番地839", "url": "https://www.kaigokensaku.mhlw.go.jp/21/index.php?action_kouhyou_detail_004_kani=true&JigyosyoCd=2171800325-00&ServiceCd=510&Type=search", "url2": "https://www.tohtokai.jp/" }, "geometry": { "type": "Point", "coordinates": [ 137.1732366, 35.3159174 ] } },
{ "type": "Feature", "properties": { "内容": "特別養護老人ホームつつじ苑【介護老人福祉施設】岐阜県各務原市大佐野町２丁目５８番地", "url": "https://www.kaigokensaku.mhlw.go.jp/21/index.php?action_kouhyou_detail_004_kani=true&JigyosyoCd=2170500066-00&ServiceCd=510&Type=search", "url2": "https://www.tutujien.jp/nursinghome/" }, "geometry": { "type": "Point", "coordinates": [ 136.841890700000022, 35.3854516 ] } },
{ "type": "Feature", "properties": { "内容": "特別養護老人ホーム　カーサ・レスペート【介護老人福祉施設】岐阜県各務原市蘇原東栄町1丁目50番", "url": "https://www.kaigokensaku.mhlw.go.jp/21/index.php?action_kouhyou_detail_004_kani=true&JigyosyoCd=2170500074-00&ServiceCd=510&Type=search", "url2": "http://www.casa.or.jp/" }, "geometry": { "type": "Point", "coordinates": [ 136.875052163575475, 35.411086734989553 ] } },
{ "type": "Feature", "properties": { "内容": "特別養護老人ホーム飛鳥美谷苑【介護老人福祉施設】岐阜県各務原市那加西市場町７丁目２８５－１", "url": "https://www.kaigokensaku.mhlw.go.jp/21/index.php?action_kouhyou_detail_004_kani=true&JigyosyoCd=2170500306-00&ServiceCd=510&Type=search", "url2": "https://www.mitanikai.com" }, "geometry": { "type": "Point", "coordinates": [ 136.837903800000049, 35.417525 ] } },
{ "type": "Feature", "properties": { "内容": "特別養護老人ホームジョイフル各務原【介護老人福祉施設】岐阜県各務原市鵜沼小伊木町3-170-1", "url": "https://www.kaigokensaku.mhlw.go.jp/21/index.php?action_kouhyou_detail_004_kani=true&JigyosyoCd=2170502039-00&ServiceCd=510&Type=search", "url2": "https://sun-vision.or.jp/" }, "geometry": { "type": "Point", "coordinates": [ 136.923102200000017, 35.3887208 ] } },
{ "type": "Feature", "properties": { "内容": "特別養護老人ホームリバーサイド川島園【介護老人福祉施設】岐阜県各務原市川島河田町1348番地", "url": "https://www.kaigokensaku.mhlw.go.jp/21/index.php?action_kouhyou_detail_004_kani=true&JigyosyoCd=2170600122-00&ServiceCd=510&Type=search", "url2": "http://www.h-fukujyu.or.jp/kawashima/" }, "geometry": { "type": "Point", "coordinates": [ 136.823176699999976, 35.3601354 ] } },
{ "type": "Feature", "properties": { "内容": "特別養護老人ホーム菜の花【介護老人福祉施設】岐阜県各務原市鵜沼山崎町4丁目1番地１", "url": "https://www.kaigokensaku.mhlw.go.jp/21/index.php?action_kouhyou_detail_004_kani=true&JigyosyoCd=2170501940-00&ServiceCd=510&Type=search", "url2": "http://unuma-seikoukai.or.jp/" }, "geometry": { "type": "Point", "coordinates": [ 136.946333777909814, 35.399027854264325 ] } },
{ "type": "Feature", "properties": { "内容": "特別養護老人ホーム春里苑【介護老人福祉施設】岐阜県可児市塩河2709番地1", "url": "https://www.kaigokensaku.mhlw.go.jp/21/index.php?action_kouhyou_detail_004_kani=true&JigyosyoCd=2173100054-00&ServiceCd=510&Type=search", "url2": "http://www.harusatoen.or.jp" }, "geometry": { "type": "Point", "coordinates": [ 137.042379899999986, 35.3953982 ] } },
{ "type": "Feature", "properties": { "内容": "チェリーヴィラ広見苑【介護老人福祉施設】岐阜県可児市広見1362", "url": "https://www.kaigokensaku.mhlw.go.jp/21/index.php?action_kouhyou_detail_004_kani=true&JigyosyoCd=2173100567-00&ServiceCd=510&Type=search", "url2": "http://www.cherryvilla.or.jp/" }, "geometry": { "type": "Point", "coordinates": [ 137.064952400000038, 35.4171663 ] } },
{ "type": "Feature", "properties": { "内容": "特別養護老人ホーム　瀬田の杜【介護老人福祉施設】岐阜県可児市瀬田８８番地", "url": "https://www.kaigokensaku.mhlw.go.jp/21/index.php?action_kouhyou_detail_004_kani=true&JigyosyoCd=2173100732-00&ServiceCd=510&Type=search", "url2": "http://www.setano-mori.com" }, "geometry": { "type": "Point", "coordinates": [ 137.077509500000019, 35.4238828 ] } },
{ "type": "Feature", "properties": { "内容": "特別養護老人ホームフローレ川合【介護老人福祉施設】岐阜県可児市川合793-1特別養護老人ホームフローレ川合", "url": "https://www.kaigokensaku.mhlw.go.jp/21/index.php?action_kouhyou_detail_004_kani=true&JigyosyoCd=2173100922-00&ServiceCd=510&Type=search", "url2": "http://www.flore-kawai.com/" }, "geometry": { "type": "Point", "coordinates": [ 137.060460400000011, 35.4364504 ] } },
{ "type": "Feature", "properties": { "内容": "特別養護老人ホーム椿野苑【介護老人福祉施設】岐阜県山県市大桑3615番地１", "url": "https://www.kaigokensaku.mhlw.go.jp/21/index.php?action_kouhyou_detail_004_kani=true&JigyosyoCd=2170800045-00&ServiceCd=510&Type=search", "url2": "http://www.douhoukai.com" }, "geometry": { "type": "Point", "coordinates": [ 136.769015800000034, 35.5497018 ] } },
{ "type": "Feature", "properties": { "内容": "介護老人福祉施設オレンジヒルズやまがた【介護老人福祉施設】岐阜県山県市高木1367-1", "url": "https://www.kaigokensaku.mhlw.go.jp/21/index.php?action_kouhyou_detail_004_kani=true&JigyosyoCd=2170800466-00&ServiceCd=510&Type=search", "url2": "http://miwakai.or.jp" }, "geometry": { "type": "Point", "coordinates": [ 136.783134896439947, 35.50688386582965 ] } },
{ "type": "Feature", "properties": { "内容": "特別養護老人ホーム　山県グリーンビレッジ【介護老人福祉施設】岐阜県山県市大門803", "url": "https://www.kaigokensaku.mhlw.go.jp/21/index.php?action_kouhyou_detail_004_kani=true&JigyosyoCd=2170800185-00&ServiceCd=510&Type=search", "url2": "https://yuuaikai-gifu.or.jp/" }, "geometry": { "type": "Point", "coordinates": [ 136.725382, 35.5390714 ] } },
{ "type": "Feature", "properties": { "内容": "特別養護老人ホームほづみ園【介護老人福祉施設】岐阜県瑞穂市宝江５７６－１", "url": "https://www.kaigokensaku.mhlw.go.jp/21/index.php?action_kouhyou_detail_004_kani=true&JigyosyoCd=2170700104-00&ServiceCd=510&Type=search", "url2": "https://www.sinwakai-hozumien.jp/" }, "geometry": { "type": "Point", "coordinates": [ 136.671236200000067, 35.370842 ] } },
{ "type": "Feature", "properties": { "内容": "特別養護老人ホーム　サンビレッジ瑞穂【介護老人福祉施設】岐阜県瑞穂市只越219番地2", "url": "https://www.kaigokensaku.mhlw.go.jp/21/index.php?action_kouhyou_detail_004_kani=true&JigyosyoCd=2173200276-00&ServiceCd=510&Type=search", "url2": "https://www.sun-village.jp/" }, "geometry": { "type": "Point", "coordinates": [ 136.674405092745928, 35.400863156488441 ] } },
{ "type": "Feature", "properties": { "内容": "特別養護老人ホームたんぽぽ苑【介護老人福祉施設】岐阜県飛騨市神岡町東町690-1", "url": "https://www.kaigokensaku.mhlw.go.jp/21/index.php?action_kouhyou_detail_004_kani=true&JigyosyoCd=2173000080-00&ServiceCd=510&Type=search", "url2": "http://www.tanpopoen.jp/" }, "geometry": { "type": "Point", "coordinates": [ 137.301829099999964, 36.3345972 ] } },
{ "type": "Feature", "properties": { "内容": "特別養護老人ホーム　飛騨古川さくらの郷【介護老人福祉施設】岐阜県飛騨市古川町杉崎598番地1", "url": "https://www.kaigokensaku.mhlw.go.jp/21/index.php?action_kouhyou_detail_004_kani=true&JigyosyoCd=2173000569-00&ServiceCd=510&Type=search", "url2": "http://www.sakura-asagiri.com" }, "geometry": { "type": "Point", "coordinates": [ 137.15679190000003, 36.2523167 ] } },
{ "type": "Feature", "properties": { "内容": "岐阜県立飛騨寿楽苑【介護老人福祉施設】岐阜県飛騨市古川町是重102", "url": "https://www.kaigokensaku.mhlw.go.jp/21/index.php?action_kouhyou_detail_004_kani=true&JigyosyoCd=2173300258-00&ServiceCd=510&Type=search", "url2": "http://www.gifu-fukushi.jp/" }, "geometry": { "type": "Point", "coordinates": [ 137.19956163589768, 36.225080598481405 ] } },
{ "type": "Feature", "properties": { "内容": "もとす広域連合老人福祉施設大和園【介護老人福祉施設】岐阜県本巣市曽井中島１１５６－４", "url": "https://www.kaigokensaku.mhlw.go.jp/21/index.php?action_kouhyou_detail_004_kani=true&JigyosyoCd=2170700435-00&ServiceCd=510&Type=search", "url2": "https://www.motosu-union.gifu.jp" }, "geometry": { "type": "Point", "coordinates": [ 136.666152900000043, 35.4826384 ] } },
{ "type": "Feature", "properties": { "内容": "特別養護老人ホーム　さはら苑【介護老人福祉施設】岐阜県本巣市佐原３５３番地１", "url": "https://www.kaigokensaku.mhlw.go.jp/21/index.php?action_kouhyou_detail_004_kani=true&JigyosyoCd=2170700518-00&ServiceCd=510&Type=search", "url2": "http://www.usuzumikai.or.jp" }, "geometry": { "type": "Point", "coordinates": [ 136.641561, 35.5576764 ] } },
{ "type": "Feature", "properties": { "内容": "フレンドリーおりべ【介護老人福祉施設】岐阜県本巣市七五三735", "url": "https://www.kaigokensaku.mhlw.go.jp/21/index.php?action_kouhyou_detail_004_kani=true&JigyosyoCd=2173400157-00&ServiceCd=510&Type=search", "url2": "https://www.inoguchikai.jp/" }, "geometry": { "type": "Point", "coordinates": [ 136.652819499999964, 35.4483429 ] } },
{ "type": "Feature", "properties": { "内容": "特別養護老人ホーム　根尾川ガーデン【介護老人福祉施設】岐阜県本巣市佐原340番地2", "url": "https://www.kaigokensaku.mhlw.go.jp/21/index.php?action_kouhyou_detail_004_kani=true&JigyosyoCd=2173400496-00&ServiceCd=510&Type=search", "url2": "http://www.usuzumikai.or.jp/" }, "geometry": { "type": "Point", "coordinates": [ 136.643164800000022, 35.5563277 ] } },
{ "type": "Feature", "properties": { "内容": "特別養護老人ホームせせらぎ緑風苑【介護老人福祉施設】岐阜県郡上市八幡町旭663番地６", "url": "https://www.kaigokensaku.mhlw.go.jp/21/index.php?action_kouhyou_detail_004_kani=true&JigyosyoCd=2171000140-00&ServiceCd=510&Type=search", "url2": "http://www.seseragi-r.com" }, "geometry": { "type": "Point", "coordinates": [ 136.993498100000011, 35.7715423 ] } },
{ "type": "Feature", "properties": { "内容": "郡上偕楽園【介護老人福祉施設】岐阜県郡上市大和町島２３４７－６", "url": "https://www.kaigokensaku.mhlw.go.jp/21/index.php?action_kouhyou_detail_004_kani=true&JigyosyoCd=2171000603-00&ServiceCd=510&Type=search", "url2": "gujokairakuen.jp" }, "geometry": { "type": "Point", "coordinates": [ 136.911637, 35.7874724 ] } },
{ "type": "Feature", "properties": { "内容": "介護老人福祉施設アットホームしろとり【介護老人福祉施設】岐阜県郡上市白鳥町為真１８７８－１", "url": "https://www.kaigokensaku.mhlw.go.jp/21/index.php?action_kouhyou_detail_004_kani=true&JigyosyoCd=2171000660-00&ServiceCd=510&Type=search", "url2": "http://attohome.or.jp/" }, "geometry": { "type": "Point", "coordinates": [ 136.871151700000041, 35.8735309 ] } },
{ "type": "Feature", "properties": { "内容": "特別養護老人ホーム　アルプス【介護老人福祉施設】岐阜県郡上市白鳥町白鳥414番地3", "url": "https://www.kaigokensaku.mhlw.go.jp/21/index.php?action_kouhyou_detail_004_kani=true&JigyosyoCd=2171000801-00&ServiceCd=510&Type=search", "url2": "https://sites.google.com/view/tokuyo-alps/%E3%83%9B%E3%83%BC%E3%83%A0" }, "geometry": { "type": "Point", "coordinates": [ 136.859660599999984, 35.8874959 ] } },
{ "type": "Feature", "properties": { "内容": "特別養護老人ホームあさぎりサニーランド【介護老人福祉施設】岐阜県下呂市萩原町羽根2710番地3あさぎりサニーランド", "url": "https://www.kaigokensaku.mhlw.go.jp/21/index.php?action_kouhyou_detail_004_kani=true&JigyosyoCd=2172800308-00&ServiceCd=510&Type=search", "url2": "http://www.sunnyland.or.jp" }, "geometry": { "type": "Point", "coordinates": [ 137.205904700000019, 35.8805626 ] } },
{ "type": "Feature", "properties": { "内容": "特別養護老人ホームかなやまサニーランド【介護老人福祉施設】岐阜県下呂市金山町金山973番地7", "url": "https://www.kaigokensaku.mhlw.go.jp/21/index.php?action_kouhyou_detail_004_kani=true&JigyosyoCd=2172800316-00&ServiceCd=510&Type=search", "url2": null }, "geometry": { "type": "Point", "coordinates": [ 137.146001100000035, 35.6670503 ] } },
{ "type": "Feature", "properties": { "内容": "特別養護老人ホームさわやかナーシング下呂【介護老人福祉施設】岐阜県下呂市乗政1267-5", "url": "https://www.kaigokensaku.mhlw.go.jp/21/index.php?action_kouhyou_detail_004_kani=true&JigyosyoCd=2172800514-00&ServiceCd=510&Type=search", "url2": "http://www.jikeikai-sawayaka.jp" }, "geometry": { "type": "Point", "coordinates": [ 137.2848328, 35.7861264 ] } },
{ "type": "Feature", "properties": { "内容": "特別養護老人ホーム　長寿の里・南濃【介護老人福祉施設】岐阜県海津市南濃町志津719番地１", "url": "https://www.kaigokensaku.mhlw.go.jp/21/index.php?action_kouhyou_detail_004_kani=true&JigyosyoCd=2172200251-00&ServiceCd=510&Type=search", "url2": "http://www.aisankai.jp/" }, "geometry": { "type": "Point", "coordinates": [ 136.5616652, 35.2447162 ] } },
{ "type": "Feature", "properties": { "内容": "特別養護老人ホームしょうふう海津【介護老人福祉施設】岐阜県海津市海津町福江656‐1", "url": "https://www.kaigokensaku.mhlw.go.jp/21/index.php?action_kouhyou_detail_004_kani=true&JigyosyoCd=2172200699-00&ServiceCd=510&Type=search", "url2": "https://www.houjyukai.jp/" }, "geometry": { "type": "Point", "coordinates": [ 136.660500899999988, 35.1719086 ] } },
{ "type": "Feature", "properties": { "内容": "岐南仙寿うれし野【介護老人福祉施設】岐阜県羽島郡岐南町伏屋8丁目33番地", "url": "https://www.kaigokensaku.mhlw.go.jp/21/index.php?action_kouhyou_detail_004_kani=true&JigyosyoCd=2170600791-00&ServiceCd=510&Type=search", "url2": "http://www.ureshino.or.jp" }, "geometry": { "type": "Point", "coordinates": [ 136.7917493, 35.3788573 ] } },
{ "type": "Feature", "properties": { "内容": "特別養護老人ホームさくらの舞本館【介護老人福祉施設】岐阜県羽島郡岐南町伏屋9丁目88番地", "url": "https://www.kaigokensaku.mhlw.go.jp/21/index.php?action_kouhyou_detail_004_kani=true&JigyosyoCd=2170601377-00&ServiceCd=510&Type=search", "url2": "https://sakurayuki.or.jp/" }, "geometry": { "type": "Point", "coordinates": [ 136.787426407359249, 35.38095821770132 ] } },
{ "type": "Feature", "properties": { "内容": "特別養護老人ホームリバーサイド笠松園【介護老人福祉施設】岐阜県羽島郡笠松町田代６２１番地の１", "url": "https://www.kaigokensaku.mhlw.go.jp/21/index.php?action_kouhyou_detail_004_kani=true&JigyosyoCd=2170600593-00&ServiceCd=510&Type=search", "url2": "http://h-fukujyu.or.jp" }, "geometry": { "type": "Point", "coordinates": [ 136.752468200000067, 35.3598837 ] } },
{ "type": "Feature", "properties": { "内容": "特別養護老人ホーム　白鶴荘【介護老人福祉施設】岐阜県養老郡養老町柏尾463番地1", "url": "https://www.kaigokensaku.mhlw.go.jp/21/index.php?action_kouhyou_detail_004_kani=true&JigyosyoCd=2172300044-00&ServiceCd=510&Type=search", "url2": "http://www.hakkakuso.com/" }, "geometry": { "type": "Point", "coordinates": [ 136.546368199999961, 35.2938287 ] } },
{ "type": "Feature", "properties": { "内容": "特別養護老人ホーム　いぶき苑【介護老人福祉施設】岐阜県不破郡垂井町岩手４５３８", "url": "https://www.kaigokensaku.mhlw.go.jp/21/index.php?action_kouhyou_detail_004_kani=true&JigyosyoCd=2172400042-00&ServiceCd=510&Type=search", "url2": "https://www.ibukien.jp" }, "geometry": { "type": "Point", "coordinates": [ 136.519763499999954, 35.3762889 ] } },
{ "type": "Feature", "properties": { "内容": "特別養護老人ホームゆのきがわ【介護老人福祉施設】岐阜県不破郡垂井町宮代1155-2", "url": "https://www.kaigokensaku.mhlw.go.jp/21/index.php?action_kouhyou_detail_004_kani=true&JigyosyoCd=2172400240-00&ServiceCd=510&Type=search", "url2": "http://www.hakuaikai.jp" }, "geometry": { "type": "Point", "coordinates": [ 136.533321300000011, 35.3538055 ] } },
{ "type": "Feature", "properties": { "内容": "いぶき苑別館【介護老人福祉施設】岐阜県不破郡垂井町府中１９４７番地の１", "url": "https://www.kaigokensaku.mhlw.go.jp/21/index.php?action_kouhyou_detail_004_kani=true&JigyosyoCd=2172400349-00&ServiceCd=510&Type=search", "url2": "https://www.ibukien.jp" }, "geometry": { "type": "Point", "coordinates": [ 136.520894581584145, 35.376511358871404 ] } },
{ "type": "Feature", "properties": { "内容": "特別養護老人ホーム優・悠・邑【介護老人福祉施設】岐阜県不破郡関ケ原町大字今須782-1", "url": "https://www.kaigokensaku.mhlw.go.jp/21/index.php?action_kouhyou_detail_004_kani=true&JigyosyoCd=2172400059-00&ServiceCd=510&Type=search", "url2": "http://www.sugiwakai.jp" }, "geometry": { "type": "Point", "coordinates": [ 136.4176122, 35.3308311 ] } },
{ "type": "Feature", "properties": { "内容": "特別養護老人ホーム　ラック【介護老人福祉施設】岐阜県安八郡神戸町北一色10番地", "url": "https://www.kaigokensaku.mhlw.go.jp/21/index.php?action_kouhyou_detail_004_kani=true&JigyosyoCd=2172500189-00&ServiceCd=510&Type=search", "url2": "http://www.zenshinkai.or.jp" }, "geometry": { "type": "Point", "coordinates": [ 136.586974205790739, 35.428838839740806 ] } },
{ "type": "Feature", "properties": { "内容": "特別養護老人ホームハピネスビラ【介護老人福祉施設】岐阜県安八郡輪之内町中郷新田２４０８番地", "url": "https://www.kaigokensaku.mhlw.go.jp/21/index.php?action_kouhyou_detail_004_kani=true&JigyosyoCd=2172500312-00&ServiceCd=510&Type=search", "url2": "http://happinessvilla.jp" }, "geometry": { "type": "Point", "coordinates": [ 136.633355299999948, 35.2837799 ] } },
{ "type": "Feature", "properties": { "内容": "特別養護老人ホ－ムあすわ苑【介護老人福祉施設】岐阜県安八郡安八町中須４１０番地の１", "url": "https://www.kaigokensaku.mhlw.go.jp/21/index.php?action_kouhyou_detail_004_kani=true&JigyosyoCd=2172500049-00&ServiceCd=510&Type=search", "url2": "http://asuwaen-sub.co-site.jp/" }, "geometry": { "type": "Point", "coordinates": [ 136.65211069999998, 35.3305326 ] } },
{ "type": "Feature", "properties": { "内容": "特別養護老人ホーム　サンライズ長良【介護老人福祉施設】岐阜県安八郡安八町森部1875-1", "url": "https://www.kaigokensaku.mhlw.go.jp/21/index.php?action_kouhyou_detail_004_kani=true&JigyosyoCd=2172500213-00&ServiceCd=510&Type=search", "url2": "http://www14.plala.or.jp/sunrise-nagara/" }, "geometry": { "type": "Point", "coordinates": [ 136.676170550926145, 35.338893651996422 ] } },
{ "type": "Feature", "properties": { "内容": "特別養護老人ホームハートヴィレッヂ谷汲の杜（従来型）【介護老人福祉施設】岐阜県揖斐郡揖斐川町谷汲名礼1248-13", "url": "https://www.kaigokensaku.mhlw.go.jp/21/index.php?action_kouhyou_detail_004_kani=true&JigyosyoCd=2172600526-00&ServiceCd=510&Type=search", "url2": "http://www.daiwa-center.jp/" }, "geometry": { "type": "Point", "coordinates": [ 136.60143370000003, 35.5279404 ] } },
{ "type": "Feature", "properties": { "内容": "特別養護老人ホームかりやど【介護老人福祉施設】岐阜県揖斐郡揖斐川町黒田４１９番地３", "url": "https://www.kaigokensaku.mhlw.go.jp/21/index.php?action_kouhyou_detail_004_kani=true&JigyosyoCd=2172600989-00&ServiceCd=510&Type=search", "url2": "http://www.syuwa-kai.jp" }, "geometry": { "type": "Point", "coordinates": [ 136.54704177399671, 35.472858893524794 ] } },
{ "type": "Feature", "properties": { "内容": "特別養護老人ホームハートヴィレッヂ谷汲の杜（ユニット型）【介護老人福祉施設】岐阜県揖斐郡揖斐川町谷汲名礼1248-13", "url": "https://www.kaigokensaku.mhlw.go.jp/21/index.php?action_kouhyou_detail_004_kani=true&JigyosyoCd=2172601276-00&ServiceCd=510&Type=search", "url2": "http://www.daiwa-center.jp/" }, "geometry": { "type": "Point", "coordinates": [ 136.60143370000003, 35.5279404 ] } },
{ "type": "Feature", "properties": { "内容": "特別養護老人ホーム　尚和園【介護老人福祉施設】岐阜県揖斐郡揖斐川町清水77", "url": "https://www.kaigokensaku.mhlw.go.jp/21/index.php?action_kouhyou_detail_004_kani=true&JigyosyoCd=2172601474-00&ServiceCd=510&Type=search", "url2": "https://www.plaza21oono.jp/koujinkai/" }, "geometry": { "type": "Point", "coordinates": [ 136.5970534, 35.4735964 ] } },
{ "type": "Feature", "properties": { "内容": "特別養護老人ホームまほろば【介護老人福祉施設】岐阜県揖斐郡大野町南方石ノ上356番地1", "url": "https://www.kaigokensaku.mhlw.go.jp/21/index.php?action_kouhyou_detail_004_kani=true&JigyosyoCd=2172600708-00&ServiceCd=510&Type=search", "url2": "http://www.plaza21oono.jp/koujinkai" }, "geometry": { "type": "Point", "coordinates": [ 136.618865834640474, 35.452471190191858 ] } },
{ "type": "Feature", "properties": { "内容": "特別養護老人ホーム　ぎふ愛の里【介護老人福祉施設】岐阜県揖斐郡大野町大字大野742-14", "url": "https://www.kaigokensaku.mhlw.go.jp/21/index.php?action_kouhyou_detail_004_kani=true&JigyosyoCd=2172601060-00&ServiceCd=510&Type=search", "url2": "https://www.gifu-ainosato.jp" }, "geometry": { "type": "Point", "coordinates": [ 136.6398388, 35.4799964 ] } },
{ "type": "Feature", "properties": { "内容": "特別養護老人ホーム　サンビレッジ新生苑【介護老人福祉施設】岐阜県揖斐郡池田町本郷１５０１", "url": "https://www.kaigokensaku.mhlw.go.jp/21/index.php?action_kouhyou_detail_004_kani=true&JigyosyoCd=2172600070-00&ServiceCd=510&Type=search", "url2": "https://www.sun-village.jp/" }, "geometry": { "type": "Point", "coordinates": [ 136.575547799999981, 35.4440335 ] } },
{ "type": "Feature", "properties": { "内容": "リハビリセンター白鳥【介護老人福祉施設】岐阜県揖斐郡池田町白鳥３８６番地", "url": "https://www.kaigokensaku.mhlw.go.jp/21/index.php?action_kouhyou_detail_004_kani=true&JigyosyoCd=2172601177-00&ServiceCd=510&Type=search", "url2": "https://www.sun-village.jp/publics/index/92/" }, "geometry": { "type": "Point", "coordinates": [ 136.590963, 35.444767 ] } },
{ "type": "Feature", "properties": { "内容": "特別養護老人ホーム　ナーシングケア北方【介護老人福祉施設】岐阜県本巣郡北方町柱本白坪2丁目3番地", "url": "https://www.kaigokensaku.mhlw.go.jp/21/index.php?action_kouhyou_detail_004_kani=true&JigyosyoCd=2170700658-00&ServiceCd=510&Type=search", "url2": "https://www.wakokai.or.jp/search/nursing/nursingcare-kitagata" }, "geometry": { "type": "Point", "coordinates": [ 136.694757314749921, 35.42699818164229 ] } },
{ "type": "Feature", "properties": { "内容": "介護老人福祉施設アルトシュタットとみか【介護老人福祉施設】岐阜県加茂郡富加町大平賀1495-1", "url": "https://www.kaigokensaku.mhlw.go.jp/21/index.php?action_kouhyou_detail_004_kani=true&JigyosyoCd=2171300938-00&ServiceCd=510&Type=search", "url2": "http://miwakai.or.jp" }, "geometry": { "type": "Point", "coordinates": [ 136.972968712503047, 35.50769992788684 ] } },
{ "type": "Feature", "properties": { "内容": "特別養護老人ホームさわやかナーシング川辺【介護老人福祉施設】岐阜県加茂郡川辺町上川辺930-1", "url": "https://www.kaigokensaku.mhlw.go.jp/21/index.php?action_kouhyou_detail_004_kani=true&JigyosyoCd=2171300151-00&ServiceCd=510&Type=search", "url2": "http://www.jikeikai-sawayaka.jp/" }, "geometry": { "type": "Point", "coordinates": [ 137.080407199999968, 35.5125789 ] } },
{ "type": "Feature", "properties": { "内容": "特別養護老人ホーム敬和園【介護老人福祉施設】岐阜県加茂郡八百津町伊岐津志2053-1", "url": "https://www.kaigokensaku.mhlw.go.jp/21/index.php?action_kouhyou_detail_004_kani=true&JigyosyoCd=2171300169-00&ServiceCd=510&Type=search", "url2": "https://www.souwa-kai.jp/" }, "geometry": { "type": "Point", "coordinates": [ 137.12824028382272, 35.471860728434663 ] } },
{ "type": "Feature", "properties": { "内容": "特別養護老人ホームサンシャイン美濃白川【介護老人福祉施設】岐阜県加茂郡白川町坂ノ東5500-1", "url": "https://www.kaigokensaku.mhlw.go.jp/21/index.php?action_kouhyou_detail_004_kani=true&JigyosyoCd=2171301050-00&ServiceCd=510&Type=search", "url2": "https://shirakawa-shakyo.or.jp" }, "geometry": { "type": "Point", "coordinates": [ 137.166298146032688, 35.602852553374277 ] } },
{ "type": "Feature", "properties": { "内容": "特別養護老人ホーム　さわやかナーシングみたけ【介護老人福祉施設】岐阜県可児郡御嵩町井尻65番地1", "url": "https://www.kaigokensaku.mhlw.go.jp/21/index.php?action_kouhyou_detail_004_kani=true&JigyosyoCd=2171400134-00&ServiceCd=510&Type=search", "url2": "http://www.jikeikai-sawayaka.jp" }, "geometry": { "type": "Point", "coordinates": [ 137.1483389, 35.4306906 ] } }
]
}
