{
"type": "FeatureCollection",
"name": "geo_21_各種学校",
"crs": { "type": "name", "properties": { "name": "urn:ogc:def:crs:EPSG::6668" } },
"features": [
{ "type": "Feature", "properties": { "P29_001": "21201", "P29_002": "H220336100013", "P29_003": "16015", "P29_004": "日進学園", "P29_005": "長野県諏訪郡下諏訪町3310", "P29_006": "4", "P29_007": "0", "P29_008": "00", "P29_009": null }, "geometry": { "type": "Point", "coordinates": [ 136.760980999456791, 35.41538499922251 ] } },
{ "type": "Feature", "properties": { "P29_001": "21201", "P29_002": "H221320100016", "P29_003": "16015", "P29_004": "いぬい洋裁学院", "P29_005": "岐阜県岐阜市吉津町2-12", "P29_006": "4", "P29_007": "0", "P29_008": "00", "P29_009": null }, "geometry": { "type": "Point", "coordinates": [ 136.760500001346344, 35.415580002011211 ] } },
{ "type": "Feature", "properties": { "P29_001": "21201", "P29_002": "H221320100025", "P29_003": "16015", "P29_004": "岐阜編物専門学院", "P29_005": "岐阜県岐阜市加納中広江町33", "P29_006": "4", "P29_007": "0", "P29_008": "00", "P29_009": null }, "geometry": { "type": "Point", "coordinates": [ 136.76243545675743, 35.407053685727085 ] } },
{ "type": "Feature", "properties": { "P29_001": "21201", "P29_002": "H221320100034", "P29_003": "16015", "P29_004": "河合塾岐阜校", "P29_005": "岐阜県岐阜市高砂町1-1", "P29_006": "4", "P29_007": "0", "P29_008": "00", "P29_009": null }, "geometry": { "type": "Point", "coordinates": [ 136.758745338487159, 35.41026730331388 ] } },
{ "type": "Feature", "properties": { "P29_001": "21201", "P29_002": "H221320100043", "P29_003": "16015", "P29_004": "岐阜朝鮮初・中級学校", "P29_005": "岐阜県岐阜市柳津町下佐波6-56", "P29_006": "4", "P29_007": "0", "P29_008": "00", "P29_009": null }, "geometry": { "type": "Point", "coordinates": [ 136.723454788510196, 35.356370483024449 ] } },
{ "type": "Feature", "properties": { "P29_001": "21201", "P29_002": "H221320100052", "P29_003": "16015", "P29_004": "岐阜市医師会准看護学校", "P29_005": "岐阜県岐阜市青柳町5-4", "P29_006": "4", "P29_007": "0", "P29_008": "00", "P29_009": null }, "geometry": { "type": "Point", "coordinates": [ 136.748627203777801, 35.427172458617008 ] } },
{ "type": "Feature", "properties": { "P29_001": "21201", "P29_002": "H221320100061", "P29_003": "16015", "P29_004": "加納高等珠算簿記学校", "P29_005": "岐阜県岐阜市加納黒木町1-7", "P29_006": "4", "P29_007": "0", "P29_008": "00", "P29_009": null }, "geometry": { "type": "Point", "coordinates": [ 136.749730024357973, 35.407942048802013 ] } },
{ "type": "Feature", "properties": { "P29_001": "21201", "P29_002": "H221320100089", "P29_003": "16015", "P29_004": "中日喫茶調理学院岐阜校", "P29_005": "岐阜県岐阜市薮田東1-4-4", "P29_006": "4", "P29_007": "0", "P29_008": "00", "P29_009": null }, "geometry": { "type": "Point", "coordinates": [ 136.724863771665611, 35.397706693602224 ] } },
{ "type": "Feature", "properties": { "P29_001": "21201", "P29_002": "H221320100098", "P29_003": "16015", "P29_004": "ホツマインターナショナルスクール", "P29_005": "岐阜県岐阜市宇佐南4-20-12", "P29_006": "4", "P29_007": "0", "P29_008": "00", "P29_009": null }, "geometry": { "type": "Point", "coordinates": [ 136.729196396441552, 35.395453443726296 ] } },
{ "type": "Feature", "properties": { "P29_001": "21202", "P29_002": "H221320200015", "P29_003": "16015", "P29_004": "大垣ドレスメーカー女学院", "P29_005": "岐阜県大垣市御殿町1-75", "P29_006": "4", "P29_007": "0", "P29_008": "00", "P29_009": null }, "geometry": { "type": "Point", "coordinates": [ 136.614488567870382, 35.359490302577761 ] } },
{ "type": "Feature", "properties": { "P29_001": "21202", "P29_002": "H221320200024", "P29_003": "16015", "P29_004": "ＨＩＲＯ学園エスコーラブラジレイラプロフェソールカワセ", "P29_005": "岐阜県大垣市上面2-90-2", "P29_006": "4", "P29_007": "0", "P29_008": "00", "P29_009": null }, "geometry": { "type": "Point", "coordinates": [ 136.643191736430509, 35.360706789417897 ] } },
{ "type": "Feature", "properties": { "P29_001": "21202", "P29_002": "H221320200033", "P29_003": "16015", "P29_004": "大垣市医師会准看護学校", "P29_005": "岐阜県大垣市新田町1-8", "P29_006": "4", "P29_007": "0", "P29_008": "00", "P29_009": null }, "geometry": { "type": "Point", "coordinates": [ 136.628082524742723, 35.344283224752644 ] } },
{ "type": "Feature", "properties": { "P29_001": "21202", "P29_002": "H221320200042", "P29_003": "16015", "P29_004": "大石高等速算学校", "P29_005": "岐阜県大垣市西外側町1-21", "P29_006": "4", "P29_007": "0", "P29_008": "00", "P29_009": null }, "geometry": { "type": "Point", "coordinates": [ 136.611852306203673, 35.362720376383038 ] } },
{ "type": "Feature", "properties": { "P29_001": "21202", "P29_002": "H221320200051", "P29_003": "16015", "P29_004": "スバル学院大垣校", "P29_005": "岐阜県大垣市東外側町1-4", "P29_006": "4", "P29_007": "0", "P29_008": "00", "P29_009": null }, "geometry": { "type": "Point", "coordinates": [ 136.61796543893422, 35.363708506675096 ] } },
{ "type": "Feature", "properties": { "P29_001": "21203", "P29_002": "H221320300014", "P29_003": "16015", "P29_004": "ＢｅＳｃｈｏｏｌ", "P29_005": "岐阜県高山市桐生町3-104", "P29_006": "4", "P29_007": "0", "P29_008": "00", "P29_009": null }, "geometry": { "type": "Point", "coordinates": [ 137.251188181240707, 36.151811056923627 ] } },
{ "type": "Feature", "properties": { "P29_001": "21204", "P29_002": "H221320400013", "P29_003": "16015", "P29_004": "多治見市医師会准看護学校", "P29_005": "岐阜県多治見市音羽町3-19", "P29_006": "4", "P29_007": "0", "P29_008": "00", "P29_009": null }, "geometry": { "type": "Point", "coordinates": [ 137.116347867183691, 35.334568854786305 ] } },
{ "type": "Feature", "properties": { "P29_001": "21204", "P29_002": "H221320400022", "P29_003": "16015", "P29_004": "大原自動車学校", "P29_005": "岐阜県多治見市幸町7-29-1", "P29_006": "4", "P29_007": "0", "P29_008": "00", "P29_009": null }, "geometry": { "type": "Point", "coordinates": [ 137.088231798352552, 35.352549658193432 ] } },
{ "type": "Feature", "properties": { "P29_001": "21209", "P29_002": "H221320900018", "P29_003": "16015", "P29_004": "羽島市医師会准看護学校", "P29_005": "岐阜県羽島市江吉良町1997-1", "P29_006": "4", "P29_007": "0", "P29_008": "00", "P29_009": null }, "geometry": { "type": "Point", "coordinates": [ 136.698763148301282, 35.313300387760094 ] } },
{ "type": "Feature", "properties": { "P29_001": "21209", "P29_002": "H221320900027", "P29_003": "16015", "P29_004": "大喜スタディ・スクール", "P29_005": "岐阜県羽島市竹鼻町2524-2", "P29_006": "4", "P29_007": "0", "P29_008": "00", "P29_009": null }, "geometry": { "type": "Point", "coordinates": [ 136.703534082541552, 35.324293636704688 ] } },
{ "type": "Feature", "properties": { "P29_001": "21211", "P29_002": "H221321100014", "P29_003": "16015", "P29_004": "イザキニュートン学校", "P29_005": "岐阜県美濃加茂市牧野2113-17", "P29_006": "4", "P29_007": "0", "P29_008": "00", "P29_009": null }, "geometry": { "type": "Point", "coordinates": [ 137.057175471723525, 35.448616515675937 ] } },
{ "type": "Feature", "properties": { "P29_001": "21212", "P29_002": "H221321200013", "P29_003": "16015", "P29_004": "土岐医師会准看護学校", "P29_005": "岐阜県土岐市土岐津町高山4", "P29_006": "4", "P29_007": "0", "P29_008": "00", "P29_009": null }, "geometry": { "type": "Point", "coordinates": [ 137.18810944057978, 35.357950575558519 ] } },
{ "type": "Feature", "properties": { "P29_001": "21212", "P29_002": "H221321200022", "P29_003": "16015", "P29_004": "中部速算学校", "P29_005": "岐阜県土岐市泉寺田町2-19", "P29_006": "4", "P29_007": "0", "P29_008": "00", "P29_009": null }, "geometry": { "type": "Point", "coordinates": [ 137.192763288778394, 35.367008184945995 ] } },
{ "type": "Feature", "properties": { "P29_001": "21213", "P29_002": "H221321300012", "P29_003": "16015", "P29_004": "各務原市医師会准看護学校", "P29_005": "岐阜県各務原市那加東亜町106", "P29_006": "4", "P29_007": "0", "P29_008": "00", "P29_009": null }, "geometry": { "type": "Point", "coordinates": [ 136.839241226607697, 35.401050186617432 ] } },
{ "type": "Feature", "properties": { "P29_001": "21213", "P29_002": "H221321300021", "P29_003": "16015", "P29_004": "那加自動車学校", "P29_005": "岐阜県各務原市那加西那加町28", "P29_006": "4", "P29_007": "0", "P29_008": "00", "P29_009": null }, "geometry": { "type": "Point", "coordinates": [ 136.834591575129082, 35.397347768254122 ] } },
{ "type": "Feature", "properties": { "P29_001": "21214", "P29_002": "H221321400011", "P29_003": "16015", "P29_004": "可茂准看護学校", "P29_005": "岐阜県可児市広見5-20", "P29_006": "4", "P29_007": "0", "P29_008": "00", "P29_009": null }, "geometry": { "type": "Point", "coordinates": [ 137.06429686648255, 35.425420376811793 ] } },
{ "type": "Feature", "properties": { "P29_001": "21218", "P29_002": "H221321800017", "P29_003": "16015", "P29_004": "スバル学院本巣校", "P29_005": "岐阜県本巣市上真桑1963", "P29_006": "4", "P29_007": "0", "P29_008": "00", "P29_009": null }, "geometry": { "type": "Point", "coordinates": [ 136.676203931480728, 35.434698525097062 ] } },
{ "type": "Feature", "properties": { "P29_001": "21219", "P29_002": "H221321900016", "P29_003": "16015", "P29_004": "郡上高等珠算学校", "P29_005": "岐阜県郡上市八幡町島谷384-9", "P29_006": "4", "P29_007": "0", "P29_008": "00", "P29_009": null }, "geometry": { "type": "Point", "coordinates": [ 136.961331209845241, 35.748379521930822 ] } },
{ "type": "Feature", "properties": { "P29_001": "21221", "P29_002": "H221322100012", "P29_003": "16015", "P29_004": "西濃自動車学校", "P29_005": "岐阜県海津市平田町今尾600", "P29_006": "4", "P29_007": "0", "P29_008": "00", "P29_009": null }, "geometry": { "type": "Point", "coordinates": [ 136.633309044160825, 35.254371592876247 ] } },
{ "type": "Feature", "properties": { "P29_001": "21303", "P29_002": "H221330300013", "P29_003": "16015", "P29_004": "関谷そろばん学校", "P29_005": "岐阜県羽島郡笠松町弥生町32", "P29_006": "4", "P29_007": "0", "P29_008": "00", "P29_009": null }, "geometry": { "type": "Point", "coordinates": [ 136.758734568176095, 35.370872027835965 ] } },
{ "type": "Feature", "properties": { "P29_001": "21403", "P29_002": "H221340300012", "P29_003": "16015", "P29_004": "立木珠算学校", "P29_005": "岐阜県揖斐郡大野町大野1156", "P29_006": "4", "P29_007": "0", "P29_008": "00", "P29_009": null }, "geometry": { "type": "Point", "coordinates": [ 136.634531544667993, 35.471973475484518 ] } },
{ "type": "Feature", "properties": { "P29_001": "21403", "P29_002": "H221340300021", "P29_003": "16015", "P29_004": "立木書写書道学校", "P29_005": "岐阜県揖斐郡大野町相羽5-1407", "P29_006": "4", "P29_007": "0", "P29_008": "00", "P29_009": null }, "geometry": { "type": "Point", "coordinates": [ 136.633981771576117, 35.472110903429758 ] } }
]
}
