{
"type": "FeatureCollection",
"name": "geo_21_大学",
"crs": { "type": "name", "properties": { "name": "urn:ogc:def:crs:EPSG::6668" } },
"features": [
{ "type": "Feature", "properties": { "P29_001": "21201", "P29_002": "F121110105976", "P29_003": "16007", "P29_004": "岐阜大学", "P29_005": "岐阜県岐阜市柳戸1-1", "P29_006": "1", "P29_007": "0", "P29_008": "00", "P29_009": null }, "geometry": { "type": "Point", "coordinates": [ 136.737574380631003, 35.465181325884629 ] } },
{ "type": "Feature", "properties": { "P29_001": "21201", "P29_002": "F121210105983", "P29_003": "16007", "P29_004": "岐阜薬科大学", "P29_005": "岐阜県岐阜市大学西1-25-4", "P29_006": "3", "P29_007": "0", "P29_008": "00", "P29_009": null }, "geometry": { "type": "Point", "coordinates": [ 136.733656936528604, 35.465740847758141 ] } },
{ "type": "Feature", "properties": { "P29_001": "21209", "P29_002": "F121210105992", "P29_003": "16007", "P29_004": "岐阜県立看護大学", "P29_005": "岐阜県羽島市江吉良町字神宮3047-1", "P29_006": "2", "P29_007": "0", "P29_008": "00", "P29_009": null }, "geometry": { "type": "Point", "coordinates": [ 136.685767519758855, 35.30651880527671 ] } },
{ "type": "Feature", "properties": { "P29_001": "21202", "P29_002": "F121210106009", "P29_003": "16007", "P29_004": "情報科学芸術大学院大学", "P29_005": "岐阜県大垣市領家町3-95-1", "P29_006": "2", "P29_007": "0", "P29_008": "00", "P29_009": null }, "geometry": { "type": "Point", "coordinates": [ 136.639574766899841, 35.367566627766017 ] } },
{ "type": "Feature", "properties": { "P29_001": "21206", "P29_002": "F121310106016", "P29_003": "16007", "P29_004": "中京学院大学", "P29_005": "岐阜県中津川市千旦林1-104", "P29_006": "4", "P29_007": "0", "P29_008": "01", "P29_009": "中津川キャンパス" }, "geometry": { "type": "Point", "coordinates": [ 137.489502755734037, 35.467778965447188 ] } },
{ "type": "Feature", "properties": { "P29_001": "21202", "P29_002": "F121310106025", "P29_003": "16007", "P29_004": "岐阜協立大学", "P29_005": "岐阜県大垣市北方町5-50", "P29_006": "4", "P29_007": "0", "P29_008": "00", "P29_009": null }, "geometry": { "type": "Point", "coordinates": [ 136.61920424552784, 35.394482833433734 ] } },
{ "type": "Feature", "properties": { "P29_001": "21201", "P29_002": "F121310106034", "P29_003": "16007", "P29_004": "岐阜女子大学", "P29_005": "岐阜県岐阜市太郎丸80", "P29_006": "4", "P29_007": "0", "P29_008": "00", "P29_009": null }, "geometry": { "type": "Point", "coordinates": [ 136.807460949359466, 35.500319424863505 ] } },
{ "type": "Feature", "properties": { "P29_001": "21216", "P29_002": "F121310106043", "P29_003": "16007", "P29_004": "朝日大学", "P29_005": "岐阜県瑞穂市穂積1851-1", "P29_006": "4", "P29_007": "0", "P29_008": "00", "P29_009": null }, "geometry": { "type": "Point", "coordinates": [ 136.690556460260211, 35.381771664617112 ] } },
{ "type": "Feature", "properties": { "P29_001": "21201", "P29_002": "F121310106052", "P29_003": "16007", "P29_004": "岐阜聖徳学園大学", "P29_005": "岐阜県岐阜市柳津町高桑西1-1", "P29_006": "4", "P29_007": "0", "P29_008": "01", "P29_009": "羽島キャンパス" }, "geometry": { "type": "Point", "coordinates": [ 136.706729201177296, 35.361277514631631 ] } },
{ "type": "Feature", "properties": { "P29_001": "21213", "P29_002": "F121310106061", "P29_003": "16007", "P29_004": "東海学院大学", "P29_005": "岐阜県各務原市那加桐野町5-68", "P29_006": "4", "P29_007": "0", "P29_008": "00", "P29_009": null }, "geometry": { "type": "Point", "coordinates": [ 136.818425405506304, 35.423932149173439 ] } },
{ "type": "Feature", "properties": { "P29_001": "21205", "P29_002": "F121310106070", "P29_003": "16007", "P29_004": "中部学院大学", "P29_005": "岐阜県関市桐ヶ丘2-1", "P29_006": "4", "P29_007": "0", "P29_008": "01", "P29_009": "関キャンパス" }, "geometry": { "type": "Point", "coordinates": [ 136.897632964558994, 35.458391723949305 ] } },
{ "type": "Feature", "properties": { "P29_001": "21502", "P29_002": "F121310106089", "P29_003": "16007", "P29_004": "岐阜医療科学大学", "P29_005": "岐阜県関市市平賀字長峰795-1", "P29_006": "4", "P29_007": "0", "P29_008": "00", "P29_009": null }, "geometry": { "type": "Point", "coordinates": [ 136.951144632958545, 35.491570996069235 ] } },
{ "type": "Feature", "properties": { "P29_001": "21201", "P29_002": "F121310106098", "P29_003": "16007", "P29_004": "岐阜保健大学", "P29_005": "岐阜県岐阜市東鶉2-92", "P29_006": "4", "P29_007": "0", "P29_008": "00", "P29_009": null }, "geometry": { "type": "Point", "coordinates": [ 136.73998632754936, 35.384263897312671 ] } },
{ "type": "Feature", "properties": { "P29_001": "21212", "P29_002": "F114110104609", "P29_003": "16007", "P29_004": "総合研究大学院大学", "P29_005": "岐阜県土岐市下石町322-6", "P29_006": "1", "P29_007": "0", "P29_008": "07", "P29_009": "核融合科学コース" }, "geometry": { "type": "Point", "coordinates": [ 137.168762112534665, 35.326006462861358 ] } },
{ "type": "Feature", "properties": { "P29_001": "21208", "P29_002": "F121310106016", "P29_003": "16007", "P29_004": "中京学院大学", "P29_005": "岐阜県瑞浪市土岐町2216", "P29_006": "4", "P29_007": "0", "P29_008": "02", "P29_009": "瑞浪キャンパス" }, "geometry": { "type": "Point", "coordinates": [ 137.264383372361522, 35.38469947694702 ] } },
{ "type": "Feature", "properties": { "P29_001": "21201", "P29_002": "F121310106052", "P29_003": "16007", "P29_004": "岐阜聖徳学園大学", "P29_005": "岐阜県岐阜市中鶉1-38", "P29_006": "4", "P29_007": "0", "P29_008": "02", "P29_009": "岐阜キャンパス" }, "geometry": { "type": "Point", "coordinates": [ 136.736182839126258, 35.387038777168129 ] } },
{ "type": "Feature", "properties": { "P29_001": "21213", "P29_002": "F121310106070", "P29_003": "16007", "P29_004": "中部学院大学", "P29_005": "岐阜県各務原市那加甥田町30-1", "P29_006": "4", "P29_007": "0", "P29_008": "02", "P29_009": "各務原キャンパス" }, "geometry": { "type": "Point", "coordinates": [ 136.845033422205859, 35.405151877241828 ] } }
]
}
