{
"type": "FeatureCollection",
"name": "geo_21_義務教育学校",
"crs": { "type": "name", "properties": { "name": "urn:ogc:def:crs:EPSG::6668" } },
"features": [
{ "type": "Feature", "properties": { "P29_001": "21201", "P29_002": "C221110000013", "P29_003": "16014", "P29_004": "岐阜大学教育学部附属小中学校", "P29_005": "岐阜県岐阜市加納大手町74", "P29_006": "1", "P29_007": "1", "P29_008": "00", "P29_009": null }, "geometry": { "type": "Point", "coordinates": [ 136.762297639891869, 35.403398894554584 ] } },
{ "type": "Feature", "properties": { "P29_001": "21209", "P29_002": "C221220900011", "P29_003": "16014", "P29_004": "羽島市立桑原学園", "P29_005": "岐阜県羽島市桑原町八神3315-1", "P29_006": "3", "P29_007": "1", "P29_008": "00", "P29_009": null }, "geometry": { "type": "Point", "coordinates": [ 136.681496125292597, 35.266091485899089 ] } },
{ "type": "Feature", "properties": { "P29_001": "21218", "P29_002": "C221221800010", "P29_003": "16014", "P29_004": "本巣市立根尾学園", "P29_005": "岐阜県本巣市根尾神所268-1", "P29_006": "3", "P29_007": "1", "P29_008": "00", "P29_009": null }, "geometry": { "type": "Point", "coordinates": [ 136.603850536854168, 35.640285514074378 ] } },
{ "type": "Feature", "properties": { "P29_001": "21421", "P29_002": "C221242100013", "P29_003": "16014", "P29_004": "北方町立北学園", "P29_005": "岐阜県本巣郡北方町北方1367-1", "P29_006": "3", "P29_007": "1", "P29_008": "00", "P29_009": null }, "geometry": { "type": "Point", "coordinates": [ 136.687105741917605, 35.435719457743417 ] } },
{ "type": "Feature", "properties": { "P29_001": "21421", "P29_002": "C221242100022", "P29_003": "16014", "P29_004": "北方町立南学園", "P29_005": "岐阜県本巣郡北方町高屋分木2-23", "P29_006": "3", "P29_007": "1", "P29_008": "00", "P29_009": null }, "geometry": { "type": "Point", "coordinates": [ 136.69007637495568, 35.420835214853298 ] } },
{ "type": "Feature", "properties": { "P29_001": "21604", "P29_002": "C221260400012", "P29_003": "16014", "P29_004": "大野郡白川村立白川郷学園", "P29_005": "岐阜県大野郡白川村大字鳩谷字北長614-1", "P29_006": "3", "P29_007": "1", "P29_008": "00", "P29_009": null }, "geometry": { "type": "Point", "coordinates": [ 136.897653962403723, 36.273901726747361 ] } }
]
}
