{
"type": "FeatureCollection",
"name": "geo_21_看護小規模多機能型居宅介護（複合型サービス）",
"crs": { "type": "name", "properties": { "name": "urn:ogc:def:crs:OGC:1.3:CRS84" } },
"features": [
{ "type": "Feature", "properties": { "内容": "ファミリーケア長良【看護小規模多機能型居宅介護（複合型サービス）】岐阜県岐阜市千代田町1丁目26番地", "url": "https://www.kaigokensaku.mhlw.go.jp/21/index.php?action_kouhyou_detail_004_kani=true&JigyosyoCd=2190102646-00&ServiceCd=&Type=search", "url2": "https://www.wakokai.or.jp/search/nursing/familycare-nagara/" }, "geometry": { "type": "Point", "coordinates": [ 136.772013099999981, 35.4447511 ] } },
{ "type": "Feature", "properties": { "内容": "看護小規模多機能型居宅介護施設あいかわの杜【看護小規模多機能型居宅介護（複合型サービス）】岐阜県岐阜市芥見大船1丁目12-2", "url": "https://www.kaigokensaku.mhlw.go.jp/21/index.php?action_kouhyou_detail_004_kani=true&JigyosyoCd=2190104378-00&ServiceCd=&Type=search", "url2": "https://aiwakaigo.co.jp/" }, "geometry": { "type": "Point", "coordinates": [ 136.8455506, 35.4580051 ] } },
{ "type": "Feature", "properties": { "内容": "小規模多機能型居宅介護里の荘【看護小規模多機能型居宅介護（複合型サービス）】岐阜市敷島町7丁目41番1号", "url": "https://www.kaigokensaku.mhlw.go.jp/21/index.php?action_kouhyou_detail_004_kani=true&JigyosyoCd=2190104428-00&ServiceCd=&Type=search", "url2": null }, "geometry": { "type": "Point", "coordinates": [ 136.736875199999986, 35.409398 ] } },
{ "type": "Feature", "properties": { "内容": "さわやかホーム　こまき【看護小規模多機能型居宅介護（複合型サービス）】岐阜県岐阜市都通4丁目7番地", "url": "https://www.kaigokensaku.mhlw.go.jp/21/index.php?action_kouhyou_detail_004_kani=true&JigyosyoCd=2190104501-00&ServiceCd=&Type=search", "url2": "https://www.tomoikikai.net/shisetsu/iryo-sawayakakomaki.php" }, "geometry": { "type": "Point", "coordinates": [ 136.747533482278442, 35.415710874167843 ] } },
{ "type": "Feature", "properties": { "内容": "ファミリーケア岐阜南【看護小規模多機能型居宅介護（複合型サービス）】岐阜県岐阜市六条片田1丁目21番1", "url": "https://www.kaigokensaku.mhlw.go.jp/21/index.php?action_kouhyou_detail_004_kani=true&JigyosyoCd=2190104618-00&ServiceCd=&Type=search", "url2": "https://www.wakokai.or.jp/" }, "geometry": { "type": "Point", "coordinates": [ 136.7458887, 35.3950476 ] } },
{ "type": "Feature", "properties": { "内容": "長屋門　うつぐみ【看護小規模多機能型居宅介護（複合型サービス）】岐阜県大垣市池尻町1540", "url": "https://www.kaigokensaku.mhlw.go.jp/21/index.php?action_kouhyou_detail_004_kani=true&JigyosyoCd=2192100440-00&ServiceCd=&Type=search", "url2": "https://www.machinoie-akasakajuku.com/" }, "geometry": { "type": "Point", "coordinates": [ 136.599882799999989, 35.3889267 ] } },
{ "type": "Feature", "properties": { "内容": "パーラミター【看護小規模多機能型居宅介護（複合型サービス）】岐阜県大垣市和合新町２丁目１８番地", "url": "https://www.kaigokensaku.mhlw.go.jp/21/index.php?action_kouhyou_detail_004_kani=true&JigyosyoCd=2192100341-00&ServiceCd=&Type=search", "url2": null }, "geometry": { "type": "Point", "coordinates": [ 136.648090692451433, 35.372958110251162 ] } },
{ "type": "Feature", "properties": { "内容": "看護小規模多機能ホーム荏名【看護小規模多機能型居宅介護（複合型サービス）】岐阜県高山市江名子町2980-1", "url": "https://www.kaigokensaku.mhlw.go.jp/21/index.php?action_kouhyou_detail_004_kani=true&JigyosyoCd=2192700132-00&ServiceCd=&Type=search", "url2": "http://www.gracesenior-ena.com/" }, "geometry": { "type": "Point", "coordinates": [ 137.278076400000032, 36.1343424 ] } },
{ "type": "Feature", "properties": { "内容": "看護小規模多機能ホーム　くわのみ【看護小規模多機能型居宅介護（複合型サービス）】岐阜県恵那市岩村町飯羽間1616", "url": "https://www.kaigokensaku.mhlw.go.jp/21/index.php?action_kouhyou_detail_004_kani=true&JigyosyoCd=2191700174-00&ServiceCd=&Type=search", "url2": "http:/www.kuwanomi-ena.co.jp" }, "geometry": { "type": "Point", "coordinates": [ 137.428954, 35.3793936 ] } },
{ "type": "Feature", "properties": { "内容": "看護小規模多機能　シエント【看護小規模多機能型居宅介護（複合型サービス）】岐阜県恵那市大井町２２２０番地１", "url": "https://www.kaigokensaku.mhlw.go.jp/21/index.php?action_kouhyou_detail_004_kani=true&JigyosyoCd=2191700190-00&ServiceCd=&Type=search", "url2": "http://www.ciento100ena.co.jp" }, "geometry": { "type": "Point", "coordinates": [ 137.435420846771194, 35.459590581168371 ] } },
{ "type": "Feature", "properties": { "内容": "看護小規模多機能型居宅介護　つじが花【看護小規模多機能型居宅介護（複合型サービス）】岐阜県美濃加茂市加茂野町鷹之巣1542番地", "url": "https://www.kaigokensaku.mhlw.go.jp/21/index.php?action_kouhyou_detail_004_kani=true&JigyosyoCd=2191200027-00&ServiceCd=&Type=search", "url2": "https://npo-social-nw.org/" }, "geometry": { "type": "Point", "coordinates": [ 136.974663, 35.4588409 ] } },
{ "type": "Feature", "properties": { "内容": "看護小規模多機能型居宅介護このはずく【看護小規模多機能型居宅介護（複合型サービス）】岐阜県各務原市蘇原沢上町2丁目59番地", "url": "https://www.kaigokensaku.mhlw.go.jp/21/index.php?action_kouhyou_detail_004_kani=true&JigyosyoCd=2190500401-00&ServiceCd=&Type=search", "url2": "http://www.sakaicl.com/" }, "geometry": { "type": "Point", "coordinates": [ 136.861111568204592, 35.405276591824574 ] } },
{ "type": "Feature", "properties": { "内容": "看護小規模多機能型居宅介護　えがお【看護小規模多機能型居宅介護（複合型サービス）】岐阜県可児市下恵土5607", "url": "https://www.kaigokensaku.mhlw.go.jp/21/index.php?action_kouhyou_detail_004_kani=true&JigyosyoCd=2193100191-00&ServiceCd=&Type=search", "url2": "http://www.fujinokai.com/" }, "geometry": { "type": "Point", "coordinates": [ 137.050565718344814, 35.41799940054441 ] } },
{ "type": "Feature", "properties": { "内容": "コスモス苑「風かおる」【看護小規模多機能型居宅介護（複合型サービス）】岐阜県郡上市白鳥町白鳥408番地1", "url": "https://www.kaigokensaku.mhlw.go.jp/21/index.php?action_kouhyou_detail_004_kani=true&JigyosyoCd=2191000161-00&ServiceCd=&Type=search", "url2": "https://www.fukuju-kai.com" }, "geometry": { "type": "Point", "coordinates": [ 136.859022399999958, 35.8870988 ] } },
{ "type": "Feature", "properties": { "内容": "関ケ原町看護小規模多機能型居宅介護事業所【看護小規模多機能型居宅介護（複合型サービス）】岐阜県不破郡関ケ原町大字関ケ原2490番地の29", "url": "https://www.kaigokensaku.mhlw.go.jp/21/index.php?action_kouhyou_detail_004_kani=true&JigyosyoCd=2192400063-00&ServiceCd=&Type=search", "url2": null }, "geometry": { "type": "Point", "coordinates": [ 136.4660838, 35.3592819 ] } },
{ "type": "Feature", "properties": { "内容": "ファミリーケア北方かわせみ庵【看護小規模多機能型居宅介護（複合型サービス）】岐阜県本巣郡北方町柱本3丁目90番地", "url": "https://www.kaigokensaku.mhlw.go.jp/21/index.php?action_kouhyou_detail_004_kani=true&JigyosyoCd=2190700050-00&ServiceCd=&Type=search", "url2": "https://www.wakokai.or.jp/search/nursing/familycare-kawasemi/" }, "geometry": { "type": "Point", "coordinates": [ 136.693644400000039, 35.4280165 ] } }
]
}
