{
"type": "FeatureCollection",
"name": "geo_21_短期入所生活介護",
"crs": { "type": "name", "properties": { "name": "urn:ogc:def:crs:OGC:1.3:CRS84" } },
"features": [
{ "type": "Feature", "properties": { "内容": "第三岐阜老人ホーム【短期入所生活介護】岐阜県岐阜市日野東5丁目1-1", "url": "https://www.kaigokensaku.mhlw.go.jp/21/index.php?action_kouhyou_detail_004_kani=true&JigyosyoCd=2170100255-00&ServiceCd=210&Type=search", "url2": "http://www.gifuroujin.or.jp/" }, "geometry": { "type": "Point", "coordinates": [ 136.8195277, 35.4339256 ] } },
{ "type": "Feature", "properties": { "内容": "ハートフロア　松岡【短期入所生活介護】岐阜県岐阜市東金宝町2-12-6　5F松岡整形外科・内科リハビリテーション内", "url": "https://www.kaigokensaku.mhlw.go.jp/21/index.php?action_kouhyou_detail_004_kani=true&JigyosyoCd=2170115964-00&ServiceCd=210&Type=search", "url2": "https://zuihokai-group.jp/" }, "geometry": { "type": "Point", "coordinates": [ 136.76223920000001, 35.4146708 ] } },
{ "type": "Feature", "properties": { "内容": "特別養護老人ホーム喜久寿苑【短期入所生活介護】岐阜県岐阜市河渡２－４５", "url": "https://www.kaigokensaku.mhlw.go.jp/21/index.php?action_kouhyou_detail_004_kani=true&JigyosyoCd=2170100263-00&ServiceCd=210&Type=search", "url2": "https://chiyodakai.or.jp" }, "geometry": { "type": "Point", "coordinates": [ 136.697888199999966, 35.4088354 ] } },
{ "type": "Feature", "properties": { "内容": "特別養護老人ホーム光の園【短期入所生活介護】岐阜県岐阜市三輪７７６番地２", "url": "https://www.kaigokensaku.mhlw.go.jp/21/index.php?action_kouhyou_detail_004_kani=true&JigyosyoCd=2170100289-00&ServiceCd=210&Type=search", "url2": "http://miwakai.or.jp/" }, "geometry": { "type": "Point", "coordinates": [ 136.845587099999989, 35.5042428 ] } },
{ "type": "Feature", "properties": { "内容": "さくら苑【短期入所生活介護】岐阜県岐阜市奥２丁目２８番地１", "url": "https://www.kaigokensaku.mhlw.go.jp/21/index.php?action_kouhyou_detail_004_kani=true&JigyosyoCd=2170100297-00&ServiceCd=210&Type=search", "url2": "http://www.inoguchikai.jp/" }, "geometry": { "type": "Point", "coordinates": [ 136.698800300000016, 35.5247863 ] } },
{ "type": "Feature", "properties": { "内容": "特別養護老人ホーム大洞岐協苑【短期入所生活介護】岐阜県岐阜市大洞3丁目3番1号", "url": "https://www.kaigokensaku.mhlw.go.jp/21/index.php?action_kouhyou_detail_004_kani=true&JigyosyoCd=2170100305-00&ServiceCd=210&Type=search", "url2": "http://www.gikyoen.jp/" }, "geometry": { "type": "Point", "coordinates": [ 136.875307300000031, 35.4605876 ] } },
{ "type": "Feature", "properties": { "内容": "特別養護老人ホームサンライフ彦坂【短期入所生活介護】岐阜県岐阜市彦坂川北２３０番地", "url": "https://www.kaigokensaku.mhlw.go.jp/21/index.php?action_kouhyou_detail_004_kani=true&JigyosyoCd=2170100313-00&ServiceCd=210&Type=search", "url2": "http://www.houjyukai.jp/" }, "geometry": { "type": "Point", "coordinates": [ 136.738717800000018, 35.4992456 ] } },
{ "type": "Feature", "properties": { "内容": "特別養護老人ホーム黒野あそか苑【短期入所生活介護】岐阜県岐阜市黒野404番地1", "url": "https://www.kaigokensaku.mhlw.go.jp/21/index.php?action_kouhyou_detail_004_kani=true&JigyosyoCd=2170100321-00&ServiceCd=210&Type=search", "url2": "http://www.k-asoka.jp/" }, "geometry": { "type": "Point", "coordinates": [ 136.719405, 35.4600589 ] } },
{ "type": "Feature", "properties": { "内容": "特別養護老人ホーム養生訓園【短期入所生活介護】岐阜県岐阜市雄総柳町2丁目60番地", "url": "https://www.kaigokensaku.mhlw.go.jp/21/index.php?action_kouhyou_detail_004_kani=true&JigyosyoCd=2170101659-00&ServiceCd=210&Type=search", "url2": "http://www.youjoukunen.com/" }, "geometry": { "type": "Point", "coordinates": [ 136.791003100000012, 35.4424932 ] } },
{ "type": "Feature", "properties": { "内容": "老人短期入所事業　スマイル【短期入所生活介護】岐阜県岐阜市芥見野畑１丁目２５番地", "url": "https://www.kaigokensaku.mhlw.go.jp/21/index.php?action_kouhyou_detail_004_kani=true&JigyosyoCd=2170102004-00&ServiceCd=210&Type=search", "url2": "http://www.court-smile.jp/3.html" }, "geometry": { "type": "Point", "coordinates": [ 136.842971900000066, 35.4406111 ] } },
{ "type": "Feature", "properties": { "内容": "特別養護老人ホーム燦燦（さんさん）【短期入所生活介護】岐阜県岐阜市鏡島南1丁目2番30号", "url": "https://www.kaigokensaku.mhlw.go.jp/21/index.php?action_kouhyou_detail_004_kani=true&JigyosyoCd=2170103556-00&ServiceCd=210&Type=search", "url2": "http://www.koukikai.gr.jp" }, "geometry": { "type": "Point", "coordinates": [ 136.717054800000028, 35.4077833 ] } },
{ "type": "Feature", "properties": { "内容": "岐阜ケアセンターそよ風【短期入所生活介護】岐阜県岐阜市茜部菱野１－３７", "url": "https://www.kaigokensaku.mhlw.go.jp/21/index.php?action_kouhyou_detail_004_kani=true&JigyosyoCd=2170103630-00&ServiceCd=210&Type=search", "url2": "https://www.sykz.co.jp" }, "geometry": { "type": "Point", "coordinates": [ 136.752678300000071, 35.3877832 ] } },
{ "type": "Feature", "properties": { "内容": "特別養護老人ホームやすらぎの里川部苑本館【短期入所生活介護】岐阜県岐阜市川部３丁目４３番地", "url": "https://www.kaigokensaku.mhlw.go.jp/21/index.php?action_kouhyou_detail_004_kani=true&JigyosyoCd=2170104075-00&ServiceCd=210&Type=search", "url2": "http://www.care-kawabe.jp/" }, "geometry": { "type": "Point", "coordinates": [ 136.709291300000018, 35.4347599 ] } },
{ "type": "Feature", "properties": { "内容": "ショートスティ　咲楽小町【短期入所生活介護】岐阜県岐阜市太郎丸諏訪9番地", "url": "https://www.kaigokensaku.mhlw.go.jp/21/index.php?action_kouhyou_detail_004_kani=true&JigyosyoCd=2170104273-00&ServiceCd=210&Type=search", "url2": "http://anju-komachi.co.jp" }, "geometry": { "type": "Point", "coordinates": [ 136.8136654, 35.4970643 ] } },
{ "type": "Feature", "properties": { "内容": "ケアセンター花の路。【短期入所生活介護】岐阜県岐阜市早田栄町４丁目２６番地", "url": "https://www.kaigokensaku.mhlw.go.jp/21/index.php?action_kouhyou_detail_004_kani=true&JigyosyoCd=2170104299-00&ServiceCd=210&Type=search", "url2": "http://www.ks-town.com" }, "geometry": { "type": "Point", "coordinates": [ 136.758067399999959, 35.4366551 ] } },
{ "type": "Feature", "properties": { "内容": "ショートステイ　ラ・ヴェリーテ【短期入所生活介護】岐阜県岐阜市鏡島南１丁目６番５号", "url": "https://www.kaigokensaku.mhlw.go.jp/21/index.php?action_kouhyou_detail_004_kani=true&JigyosyoCd=2170104836-00&ServiceCd=210&Type=search", "url2": "http://www.koukikai.gr.jp/tomii_top/guide/shortstay/" }, "geometry": { "type": "Point", "coordinates": [ 136.716593800000027, 35.4083721 ] } },
{ "type": "Feature", "properties": { "内容": "介護付有料老人ホーム日野岐協苑【短期入所生活介護】岐阜県岐阜市日野北１丁目２番１号", "url": "https://www.kaigokensaku.mhlw.go.jp/21/index.php?action_kouhyou_detail_004_kani=true&JigyosyoCd=2170105064-00&ServiceCd=210&Type=search", "url2": "http://www.gikyoen.jp" }, "geometry": { "type": "Point", "coordinates": [ 136.80305629999998, 35.4394555 ] } },
{ "type": "Feature", "properties": { "内容": "ショートステイ　シルバータウン岩井【短期入所生活介護】岐阜県岐阜市岩井４丁目１０番１号", "url": "https://www.kaigokensaku.mhlw.go.jp/21/index.php?action_kouhyou_detail_004_kani=true&JigyosyoCd=2170110353-00&ServiceCd=210&Type=search", "url2": "http://miwakai.or.jp" }, "geometry": { "type": "Point", "coordinates": [ 136.82329, 35.4707066 ] } },
{ "type": "Feature", "properties": { "内容": "シンシア岐阜【短期入所生活介護】岐阜県岐阜市日野東7-12-2", "url": "https://www.kaigokensaku.mhlw.go.jp/21/index.php?action_kouhyou_detail_004_kani=true&JigyosyoCd=2170110361-00&ServiceCd=210&Type=search", "url2": "https://www.sincere-gri.com/016_gifuss/index.html" }, "geometry": { "type": "Point", "coordinates": [ 136.822180200000048, 35.4322177 ] } },
{ "type": "Feature", "properties": { "内容": "ショートステイあんきの家細畑【短期入所生活介護】岐阜県岐阜市細畑3丁目16番8号", "url": "https://www.kaigokensaku.mhlw.go.jp/21/index.php?action_kouhyou_detail_004_kani=true&JigyosyoCd=2170110437-00&ServiceCd=210&Type=search", "url2": "https://www.gifu-min.jp/fukushi/page_531.html" }, "geometry": { "type": "Point", "coordinates": [ 136.7899294, 35.4035869 ] } },
{ "type": "Feature", "properties": { "内容": "特別養護老人ホームやすらぎの里川部苑新館【短期入所生活介護】岐阜県岐阜市川部３丁目１９番地１", "url": "https://www.kaigokensaku.mhlw.go.jp/21/index.php?action_kouhyou_detail_004_kani=true&JigyosyoCd=2170110452-00&ServiceCd=210&Type=search", "url2": "http://www.care-kawabe.jp/" }, "geometry": { "type": "Point", "coordinates": [ 136.709606859385701, 35.435342883187936 ] } },
{ "type": "Feature", "properties": { "内容": "短期入所生活介護　ナーシングケア加納【短期入所生活介護】岐阜県岐阜市加納愛宕町１８番地２", "url": "https://www.kaigokensaku.mhlw.go.jp/21/index.php?action_kouhyou_detail_004_kani=true&JigyosyoCd=2170110478-00&ServiceCd=210&Type=search", "url2": "http://www.wakokai.or.jp" }, "geometry": { "type": "Point", "coordinates": [ 136.750955979237318, 35.408994953526985 ] } },
{ "type": "Feature", "properties": { "内容": "長良グリーンビレッジ【短期入所生活介護】岐阜県岐阜市長良福光161-1", "url": "https://www.kaigokensaku.mhlw.go.jp/21/index.php?action_kouhyou_detail_004_kani=true&JigyosyoCd=2170111344-00&ServiceCd=210&Type=search", "url2": "https://yuuaikai-gifu.or.jp/" }, "geometry": { "type": "Point", "coordinates": [ 136.776027716532866, 35.458386610529288 ] } },
{ "type": "Feature", "properties": { "内容": "ショートステイ　和泊亭【短期入所生活介護】岐阜県岐阜市江添2丁目6-7", "url": "https://www.kaigokensaku.mhlw.go.jp/21/index.php?action_kouhyou_detail_004_kani=true&JigyosyoCd=2170111369-00&ServiceCd=210&Type=search", "url2": "http://www.docmisao.jp/fukushi/wadomari/index.html" }, "geometry": { "type": "Point", "coordinates": [ 136.7276786, 35.394974 ] } },
{ "type": "Feature", "properties": { "内容": "あんずの里【短期入所生活介護】岐阜県岐阜市則松２丁目１０番地", "url": "https://www.kaigokensaku.mhlw.go.jp/21/index.php?action_kouhyou_detail_004_kani=true&JigyosyoCd=2170112581-00&ServiceCd=210&Type=search", "url2": "http://www.inoguchikai.jp" }, "geometry": { "type": "Point", "coordinates": [ 136.6990226, 35.4882832 ] } },
{ "type": "Feature", "properties": { "内容": "パナソニックエイジフリーケアセンター岐阜茜部・ショートステイ【短期入所生活介護】岐阜県岐阜市茜部辰新1丁目15番", "url": "https://www.kaigokensaku.mhlw.go.jp/21/index.php?action_kouhyou_detail_004_kani=true&JigyosyoCd=2170112698-00&ServiceCd=210&Type=search", "url2": "http://sumai.panasonic.jp/agefree/?utm_source=Google&utm_medium=search&utm_term=elderlycare&utm_campaign=AF201605" }, "geometry": { "type": "Point", "coordinates": [ 136.761644299999944, 35.3816674 ] } },
{ "type": "Feature", "properties": { "内容": "あずみ苑岐阜【短期入所生活介護】岐阜県岐阜市茜部菱野三丁目143番1", "url": "https://www.kaigokensaku.mhlw.go.jp/21/index.php?action_kouhyou_detail_004_kani=true&JigyosyoCd=2170112847-00&ServiceCd=210&Type=search", "url2": "https://www.az-lifecare.co.jp" }, "geometry": { "type": "Point", "coordinates": [ 136.749314684378106, 35.384817313160774 ] } },
{ "type": "Feature", "properties": { "内容": "長森いきいき倶楽部アネックス　ショートステイ【短期入所生活介護】岐阜県岐阜市北一色１０丁目３８番３", "url": "https://www.kaigokensaku.mhlw.go.jp/21/index.php?action_kouhyou_detail_004_kani=true&JigyosyoCd=2170113084-00&ServiceCd=210&Type=search", "url2": "http://www.koukeikai.jp/" }, "geometry": { "type": "Point", "coordinates": [ 136.794687, 35.4090975 ] } },
{ "type": "Feature", "properties": { "内容": "ショートステイ　ママーズハウス岐阜【短期入所生活介護】岐阜県岐阜市西鶉1丁目25番地ハッピーナチュラルママーズタウン", "url": "https://www.kaigokensaku.mhlw.go.jp/21/index.php?action_kouhyou_detail_004_kani=true&JigyosyoCd=2170113852-00&ServiceCd=210&Type=search", "url2": "http://www.hashimakikaku.com/" }, "geometry": { "type": "Point", "coordinates": [ 136.728289128448523, 35.384746527785033 ] } },
{ "type": "Feature", "properties": { "内容": "ショートステイホーム　ジョイフル岐阜駅【短期入所生活介護】岐阜県岐阜市高砂町一丁目17番地岐阜イーストライジング24", "url": "https://www.kaigokensaku.mhlw.go.jp/21/index.php?action_kouhyou_detail_004_kani=true&JigyosyoCd=2170114082-00&ServiceCd=210&Type=search", "url2": "https://sun-vision.or.jp" }, "geometry": { "type": "Point", "coordinates": [ 136.759411499999942, 35.4101011 ] } },
{ "type": "Feature", "properties": { "内容": "長良ケアセンターそよ風【短期入所生活介護】岐阜県岐阜市上土居3-11-1長良ケアセンターそよ風", "url": "https://www.kaigokensaku.mhlw.go.jp/21/index.php?action_kouhyou_detail_004_kani=true&JigyosyoCd=2170114595-00&ServiceCd=210&Type=search", "url2": "https://www.sykz.co.jp/" }, "geometry": { "type": "Point", "coordinates": [ 136.7625103, 35.4579298 ] } },
{ "type": "Feature", "properties": { "内容": "ショートステイ千手の華【短期入所生活介護】岐阜県岐阜市茜部菱野４丁目７５番地１共生型介護施設千手の華", "url": "https://www.kaigokensaku.mhlw.go.jp/21/index.php?action_kouhyou_detail_004_kani=true&JigyosyoCd=2170114041-00&ServiceCd=210&Type=search", "url2": null }, "geometry": { "type": "Point", "coordinates": [ 136.747793699999988, 35.3819235 ] } },
{ "type": "Feature", "properties": { "内容": "ナーシングケア寺田【短期入所生活介護】岐阜県岐阜市寺田７丁目８５", "url": "https://www.kaigokensaku.mhlw.go.jp/21/index.php?action_kouhyou_detail_004_kani=true&JigyosyoCd=2170102012-00&ServiceCd=210&Type=search", "url2": "http://www.wakokai.or.jp" }, "geometry": { "type": "Point", "coordinates": [ 136.70069860000001, 35.4192647 ] } },
{ "type": "Feature", "properties": { "内容": "岐阜県立寿楽苑ショートステイセンター【短期入所生活介護】岐阜県岐阜市中２丁目４７０番地", "url": "https://www.kaigokensaku.mhlw.go.jp/21/index.php?action_kouhyou_detail_004_kani=true&JigyosyoCd=2170100248-00&ServiceCd=210&Type=search", "url2": "https://gifu-fukushi.jp/" }, "geometry": { "type": "Point", "coordinates": [ 136.708195534983474, 35.468905894993334 ] } },
{ "type": "Feature", "properties": { "内容": "特別養護老人ホーム友和苑【短期入所生活介護】岐阜県大垣市入方3丁目70番地1", "url": "https://www.kaigokensaku.mhlw.go.jp/21/index.php?action_kouhyou_detail_004_kani=true&JigyosyoCd=2172100139-00&ServiceCd=210&Type=search", "url2": "http://www.yuuwaen.jp/" }, "geometry": { "type": "Point", "coordinates": [ 136.598297900000034, 35.3243626 ] } },
{ "type": "Feature", "properties": { "内容": "大東ショートステイホーム【短期入所生活介護】岐阜県大垣市東前１丁目７９番地", "url": "https://www.kaigokensaku.mhlw.go.jp/21/index.php?action_kouhyou_detail_004_kani=true&JigyosyoCd=2172100147-00&ServiceCd=210&Type=search", "url2": "http://www.294.or.jp" }, "geometry": { "type": "Point", "coordinates": [ 136.630231699999968, 35.3507245 ] } },
{ "type": "Feature", "properties": { "内容": "ショートステイ　サンヴェール大垣【短期入所生活介護】岐阜県大垣市東町4丁目43-2", "url": "https://www.kaigokensaku.mhlw.go.jp/21/index.php?action_kouhyou_detail_004_kani=true&JigyosyoCd=2172100758-00&ServiceCd=210&Type=search", "url2": "http://www.sunvale.net" }, "geometry": { "type": "Point", "coordinates": [ 136.6476907, 35.3697139 ] } },
{ "type": "Feature", "properties": { "内容": "ケアサービスセンタ-いずみ【短期入所生活介護】岐阜県大垣市長松町字宮ノ前844-1", "url": "https://www.kaigokensaku.mhlw.go.jp/21/index.php?action_kouhyou_detail_004_kani=true&JigyosyoCd=2172100998-00&ServiceCd=210&Type=search", "url2": "http://fuji-estate-ogaki.co.jp/" }, "geometry": { "type": "Point", "coordinates": [ 136.56742946720334, 35.366597691518585 ] } },
{ "type": "Feature", "properties": { "内容": "特別養護老人ホームパサーダ【短期入所生活介護】岐阜県大垣市北方町二丁目７０番１", "url": "https://www.kaigokensaku.mhlw.go.jp/21/index.php?action_kouhyou_detail_004_kani=true&JigyosyoCd=2172101046-00&ServiceCd=210&Type=search", "url2": "http://www.haroro.com/hokushin" }, "geometry": { "type": "Point", "coordinates": [ 136.6105537, 35.3965073 ] } },
{ "type": "Feature", "properties": { "内容": "ショートステイ・柚子【短期入所生活介護】岐阜県大垣市外渕２－７９", "url": "https://www.kaigokensaku.mhlw.go.jp/21/index.php?action_kouhyou_detail_004_kani=true&JigyosyoCd=2172101194-00&ServiceCd=210&Type=search", "url2": "http://yuzu.n-denken.co.jp" }, "geometry": { "type": "Point", "coordinates": [ 136.611515199999985, 35.329046 ] } },
{ "type": "Feature", "properties": { "内容": "特別養護老人ホームサンビレッジ大垣【短期入所生活介護】岐阜県大垣市北方町5丁目35番地", "url": "https://www.kaigokensaku.mhlw.go.jp/21/index.php?action_kouhyou_detail_004_kani=true&JigyosyoCd=2172101343-00&ServiceCd=210&Type=search", "url2": "https:/www.sun-village.jp/" }, "geometry": { "type": "Point", "coordinates": [ 136.620535006884779, 35.397517903052695 ] } },
{ "type": "Feature", "properties": { "内容": "大垣市くすのき苑【短期入所生活介護】岐阜県大垣市多芸島4丁目64番地1", "url": "https://www.kaigokensaku.mhlw.go.jp/21/index.php?action_kouhyou_detail_004_kani=true&JigyosyoCd=2172101376-00&ServiceCd=210&Type=search", "url2": "https://ogaki-fukushi.jp" }, "geometry": { "type": "Point", "coordinates": [ 136.5948929, 35.3236653 ] } },
{ "type": "Feature", "properties": { "内容": "あいあいショートステイ【短期入所生活介護】岐阜県大垣市浅草３丁目91番地", "url": "https://www.kaigokensaku.mhlw.go.jp/21/index.php?action_kouhyou_detail_004_kani=true&JigyosyoCd=2172101798-00&ServiceCd=210&Type=search", "url2": "http://www.nisimino.com/aiki" }, "geometry": { "type": "Point", "coordinates": [ 136.611976899999945, 35.3092097 ] } },
{ "type": "Feature", "properties": { "内容": "短期入所生活介護施設　ハーモニー【短期入所生活介護】岐阜県大垣市上石津町三ツ里660番地", "url": "https://www.kaigokensaku.mhlw.go.jp/21/index.php?action_kouhyou_detail_004_kani=true&JigyosyoCd=2172101897-00&ServiceCd=210&Type=search", "url2": "http://midorinosato-h.com/" }, "geometry": { "type": "Point", "coordinates": [ 136.46277269999996, 35.2794737 ] } },
{ "type": "Feature", "properties": { "内容": "しずさとショートステイ【短期入所生活介護】岐阜県大垣市桧町1452番地", "url": "https://www.kaigokensaku.mhlw.go.jp/21/index.php?action_kouhyou_detail_004_kani=true&JigyosyoCd=2172101954-00&ServiceCd=210&Type=search", "url2": "http://seinou.coop/" }, "geometry": { "type": "Point", "coordinates": [ 136.591400150817861, 35.365278254122984 ] } },
{ "type": "Feature", "properties": { "内容": "ショートステイ太陽【短期入所生活介護】岐阜県大垣市北方町2丁目79-1", "url": "https://www.kaigokensaku.mhlw.go.jp/21/index.php?action_kouhyou_detail_004_kani=true&JigyosyoCd=2172101996-00&ServiceCd=210&Type=search", "url2": null }, "geometry": { "type": "Point", "coordinates": [ 136.610936906745906, 35.395481058673937 ] } },
{ "type": "Feature", "properties": { "内容": "ショートステイ花水木【短期入所生活介護】岐阜県大垣市東町4丁目60-1高齢者福祉施設　サンヴェール花水木", "url": "https://www.kaigokensaku.mhlw.go.jp/21/index.php?action_kouhyou_detail_004_kani=true&JigyosyoCd=2172102150-00&ServiceCd=210&Type=search", "url2": "http://www.sunvale.net" }, "geometry": { "type": "Point", "coordinates": [ 136.648534027122537, 35.369370327710925 ] } },
{ "type": "Feature", "properties": { "内容": "特別養護老人ホーム優・悠・邑　和合　ショートステイ【短期入所生活介護】岐阜県大垣市和合本町2丁目114-1", "url": "https://www.kaigokensaku.mhlw.go.jp/21/index.php?action_kouhyou_detail_004_kani=true&JigyosyoCd=2172102317-00&ServiceCd=210&Type=search", "url2": "http://www.sugiwakai.jp/" }, "geometry": { "type": "Point", "coordinates": [ 136.647591077250325, 35.374360916625378 ] } },
{ "type": "Feature", "properties": { "内容": "特別養護老人ホーム静風苑【短期入所生活介護】岐阜県大垣市林町７丁目字恵比寿堂６１８番地１", "url": "https://www.kaigokensaku.mhlw.go.jp/21/index.php?action_kouhyou_detail_004_kani=true&JigyosyoCd=2172102382-00&ServiceCd=210&Type=search", "url2": "http://www.ogaki-seifuen.jp" }, "geometry": { "type": "Point", "coordinates": [ 136.622821721704099, 35.376388416277059 ] } },
{ "type": "Feature", "properties": { "内容": "あずみ苑大垣【短期入所生活介護】岐阜県大垣市大井3丁目101-2", "url": "https://www.kaigokensaku.mhlw.go.jp/21/index.php?action_kouhyou_detail_004_kani=true&JigyosyoCd=2172102580-00&ServiceCd=210&Type=search", "url2": "http://www.az-lifecare.co.jp" }, "geometry": { "type": "Point", "coordinates": [ 136.633574917504944, 35.346854001815984 ] } },
{ "type": "Feature", "properties": { "内容": "パサーダイースト【短期入所生活介護】岐阜県大垣市北方町１丁目１１４７番１", "url": "https://www.kaigokensaku.mhlw.go.jp/21/index.php?action_kouhyou_detail_004_kani=true&JigyosyoCd=2172102663-00&ServiceCd=210&Type=search", "url2": "http://www.haroro.com/hokushin/" }, "geometry": { "type": "Point", "coordinates": [ 136.614990400000011, 35.3962459 ] } },
{ "type": "Feature", "properties": { "内容": "ショートステイ三城【短期入所生活介護】岐阜県大垣市東町4丁目45番地1高齢者福祉施設サンヴェール三城", "url": "https://www.kaigokensaku.mhlw.go.jp/21/index.php?action_kouhyou_detail_004_kani=true&JigyosyoCd=2172102739-00&ServiceCd=210&Type=search", "url2": "https://www.sunvale.net/" }, "geometry": { "type": "Point", "coordinates": [ 136.64801010912322, 35.369761188064551 ] } },
{ "type": "Feature", "properties": { "内容": "ショートステイパサーダ【短期入所生活介護】岐阜県大垣市北方町二丁目７０番１", "url": "https://www.kaigokensaku.mhlw.go.jp/21/index.php?action_kouhyou_detail_004_kani=true&JigyosyoCd=2172102952-00&ServiceCd=210&Type=search", "url2": "http://www.haroro.com/hokushin/" }, "geometry": { "type": "Point", "coordinates": [ 136.6105537, 35.3965073 ] } },
{ "type": "Feature", "properties": { "内容": "清心苑ショートステイ【短期入所生活介護】岐阜県大垣市矢道町１丁目３０３番地", "url": "https://www.kaigokensaku.mhlw.go.jp/21/index.php?action_kouhyou_detail_004_kani=true&JigyosyoCd=2172101111-00&ServiceCd=210&Type=search", "url2": "https://seishinkai.heart-gp.org/short/" }, "geometry": { "type": "Point", "coordinates": [ 136.560023600000022, 35.3720979 ] } },
{ "type": "Feature", "properties": { "内容": "特別養護老人ホーム新宮園【短期入所生活介護】岐阜県高山市新宮町1322番地1", "url": "https://www.kaigokensaku.mhlw.go.jp/21/index.php?action_kouhyou_detail_004_kani=true&JigyosyoCd=2172700086-00&ServiceCd=210&Type=search", "url2": "http://www.seitokukai.or.jp" }, "geometry": { "type": "Point", "coordinates": [ 137.209277400000019, 36.1351856 ] } },
{ "type": "Feature", "properties": { "内容": "特別養護老人ホーム南風園【短期入所生活介護】岐阜県高山市千島町1257-2", "url": "https://www.kaigokensaku.mhlw.go.jp/21/index.php?action_kouhyou_detail_004_kani=true&JigyosyoCd=2172700524-00&ServiceCd=210&Type=search", "url2": "http://www.seitokukai.or.jp" }, "geometry": { "type": "Point", "coordinates": [ 137.242381515344249, 36.114973553380679 ] } },
{ "type": "Feature", "properties": { "内容": "ケアハウス１番館ショートステイ【短期入所生活介護】岐阜県高山市新宮町1054－3", "url": "https://www.kaigokensaku.mhlw.go.jp/21/index.php?action_kouhyou_detail_004_kani=true&JigyosyoCd=2172700573-00&ServiceCd=210&Type=search", "url2": "http://www.care21.or.jp/" }, "geometry": { "type": "Point", "coordinates": [ 137.212191100000041, 36.1314529 ] } },
{ "type": "Feature", "properties": { "内容": "特別養護老人ホーム丹生川苑【短期入所生活介護】岐阜県高山市丹生川町町方９８－１", "url": "https://www.kaigokensaku.mhlw.go.jp/21/index.php?action_kouhyou_detail_004_kani=true&JigyosyoCd=2172700730-00&ServiceCd=210&Type=search", "url2": "http://www.hachijukai.com/" }, "geometry": { "type": "Point", "coordinates": [ 137.308236, 36.1719193 ] } },
{ "type": "Feature", "properties": { "内容": "ショートステイ　それいゆ【短期入所生活介護】岐阜県高山市昭和町２－８５－１レザミひだメディケアガーデン", "url": "https://www.kaigokensaku.mhlw.go.jp/21/index.php?action_kouhyou_detail_004_kani=true&JigyosyoCd=2172700987-00&ServiceCd=210&Type=search", "url2": "http://www.ori-doujinkai.or.jp/short/index.html" }, "geometry": { "type": "Point", "coordinates": [ 137.249525899999981, 36.1459014 ] } },
{ "type": "Feature", "properties": { "内容": "こころの丘高山【短期入所生活介護】岐阜県高山市赤保木町1164-1", "url": "https://www.kaigokensaku.mhlw.go.jp/21/index.php?action_kouhyou_detail_004_kani=true&JigyosyoCd=2172701308-00&ServiceCd=210&Type=search", "url2": "http://www.keiyu-kai.com" }, "geometry": { "type": "Point", "coordinates": [ 137.231343700000025, 36.1606824 ] } },
{ "type": "Feature", "properties": { "内容": "シンシア高山【短期入所生活介護】岐阜県高山市曙町4丁目11番地", "url": "https://www.kaigokensaku.mhlw.go.jp/21/index.php?action_kouhyou_detail_004_kani=true&JigyosyoCd=2172701324-00&ServiceCd=210&Type=search", "url2": "http://www.sincere-gri.com" }, "geometry": { "type": "Point", "coordinates": [ 137.268514991203347, 36.148965944234895 ] } },
{ "type": "Feature", "properties": { "内容": "特別養護老人ホーム八光苑【短期入所生活介護】岐阜県高山市久々野町久々野１２０２番地", "url": "https://www.kaigokensaku.mhlw.go.jp/21/index.php?action_kouhyou_detail_004_kani=true&JigyosyoCd=2172900322-00&ServiceCd=210&Type=search", "url2": "http://www.hachijukai.com/" }, "geometry": { "type": "Point", "coordinates": [ 137.274811699999987, 36.0591307 ] } },
{ "type": "Feature", "properties": { "内容": "特別養護老人ホームたじみ陶生苑【短期入所生活介護】岐阜県多治見市小名田町小滝5-411", "url": "https://www.kaigokensaku.mhlw.go.jp/21/index.php?action_kouhyou_detail_004_kani=true&JigyosyoCd=2171100114-00&ServiceCd=210&Type=search", "url2": "https://www.toseien.com/" }, "geometry": { "type": "Point", "coordinates": [ 137.122067799999968, 35.3764531 ] } },
{ "type": "Feature", "properties": { "内容": "特別養護老人ホームベルツリー【短期入所生活介護】岐阜県多治見市脇之島町３－１６－１", "url": "https://www.kaigokensaku.mhlw.go.jp/21/index.php?action_kouhyou_detail_004_kani=true&JigyosyoCd=2171100122-00&ServiceCd=210&Type=search", "url2": "http://www.belltree.or.jp/" }, "geometry": { "type": "Point", "coordinates": [ 137.119214300000067, 35.3167815 ] } },
{ "type": "Feature", "properties": { "内容": "特別養護老人ホームビアンカ【短期入所生活介護】岐阜県多治見市上山町１－９７－２", "url": "https://www.kaigokensaku.mhlw.go.jp/21/index.php?action_kouhyou_detail_004_kani=true&JigyosyoCd=2171100247-00&ServiceCd=210&Type=search", "url2": "http://bitokukai.com" }, "geometry": { "type": "Point", "coordinates": [ 137.137798100000026, 35.3395467 ] } },
{ "type": "Feature", "properties": { "内容": "特別養護老人ホーム　エバーグリーン【短期入所生活介護】岐阜県多治見市小名田町西ヶ洞1-325", "url": "https://www.kaigokensaku.mhlw.go.jp/21/index.php?action_kouhyou_detail_004_kani=true&JigyosyoCd=2171100551-00&ServiceCd=210&Type=search", "url2": "http://www.i-jinjukai.or.jp/evergreen/" }, "geometry": { "type": "Point", "coordinates": [ 137.1174909, 35.3659651 ] } },
{ "type": "Feature", "properties": { "内容": "ショートステイ浩養園【短期入所生活介護】岐阜県多治見市京町６丁目１３番地の２", "url": "https://www.kaigokensaku.mhlw.go.jp/21/index.php?action_kouhyou_detail_004_kani=true&JigyosyoCd=2171101948-00&ServiceCd=210&Type=search", "url2": "http://www.care-net.biz/21/kouyouen/" }, "geometry": { "type": "Point", "coordinates": [ 137.125434382139588, 35.325403790564764 ] } },
{ "type": "Feature", "properties": { "内容": "ショートステイホームジョイフル多治見【短期入所生活介護】岐阜県多治見市音羽町一丁目235番地", "url": "https://www.kaigokensaku.mhlw.go.jp/21/index.php?action_kouhyou_detail_004_kani=true&JigyosyoCd=2171102276-00&ServiceCd=210&Type=search", "url2": "https://sun-vision.or.jp/" }, "geometry": { "type": "Point", "coordinates": [ 137.119463900000028, 35.3366447 ] } },
{ "type": "Feature", "properties": { "内容": "特別養護老人ホームかさはら陶生苑【短期入所生活介護】岐阜県多治見市笠原町２８５４－１", "url": "https://www.kaigokensaku.mhlw.go.jp/21/index.php?action_kouhyou_detail_004_kani=true&JigyosyoCd=2171900075-00&ServiceCd=210&Type=search", "url2": "http://www.toseien.com/" }, "geometry": { "type": "Point", "coordinates": [ 137.154621600000041, 35.3029293 ] } },
{ "type": "Feature", "properties": { "内容": "アイランドジー・アイ小泉ショートステイ【短期入所生活介護】岐阜県多治見市小泉町4-231-2", "url": "https://www.kaigokensaku.mhlw.go.jp/21/index.php?action_kouhyou_detail_004_kani=true&JigyosyoCd=2171100460-00&ServiceCd=210&Type=search", "url2": "http://www.gi-kaigo.co.jp/" }, "geometry": { "type": "Point", "coordinates": [ 137.094269199999985, 35.3477994 ] } },
{ "type": "Feature", "properties": { "内容": "ハートフルショートステイ【短期入所生活介護】岐阜県関市下有知５３６７－４", "url": "https://www.kaigokensaku.mhlw.go.jp/21/index.php?action_kouhyou_detail_004_kani=true&JigyosyoCd=2170200188-00&ServiceCd=210&Type=search", "url2": "https://swct.or.jp/swch.html" }, "geometry": { "type": "Point", "coordinates": [ 136.918938799999978, 35.5109415 ] } },
{ "type": "Feature", "properties": { "内容": "特別養護老人ホームほほえみ福寿の家【短期入所生活介護】岐阜県関市稲口845番地", "url": "https://www.kaigokensaku.mhlw.go.jp/21/index.php?action_kouhyou_detail_004_kani=true&JigyosyoCd=2170200196-00&ServiceCd=210&Type=search", "url2": "https://www.hohoemi.or.jp" }, "geometry": { "type": "Point", "coordinates": [ 136.9268002, 35.4699162 ] } },
{ "type": "Feature", "properties": { "内容": "特別養護老人ホームあかつき・ショートステイあかつき【短期入所生活介護】岐阜県関市下白金912番地１", "url": "https://www.kaigokensaku.mhlw.go.jp/21/index.php?action_kouhyou_detail_004_kani=true&JigyosyoCd=2170200527-00&ServiceCd=210&Type=search", "url2": "http://www.shounkai.or.jp" }, "geometry": { "type": "Point", "coordinates": [ 136.851906, 35.4768014 ] } },
{ "type": "Feature", "properties": { "内容": "ショートステイゴールドヴィレッジほらど【短期入所生活介護】岐阜県関市洞戸通元寺261番地", "url": "https://www.kaigokensaku.mhlw.go.jp/21/index.php?action_kouhyou_detail_004_kani=true&JigyosyoCd=2170200840-00&ServiceCd=210&Type=search", "url2": "http://miwakai.or.jp/" }, "geometry": { "type": "Point", "coordinates": [ 136.819419499999981, 35.6073577 ] } },
{ "type": "Feature", "properties": { "内容": "指定短期入所生活介護事業ハートシティ中濃の杜【短期入所生活介護】岐阜県関市富之保4096-1", "url": "https://www.kaigokensaku.mhlw.go.jp/21/index.php?action_kouhyou_detail_004_kani=true&JigyosyoCd=2170201152-00&ServiceCd=210&Type=search", "url2": "http://www.daiwa-center.jp/" }, "geometry": { "type": "Point", "coordinates": [ 137.021627033729544, 35.58988110109707 ] } },
{ "type": "Feature", "properties": { "内容": "特別養護老人ホームせきこもれび【短期入所生活介護】岐阜県関市肥田瀬4027番2", "url": "https://www.kaigokensaku.mhlw.go.jp/21/index.php?action_kouhyou_detail_004_kani=true&JigyosyoCd=2170201343-00&ServiceCd=210&Type=search", "url2": "http://www.sekikomorebi.jp" }, "geometry": { "type": "Point", "coordinates": [ 136.936633794689897, 35.470332281478299 ] } },
{ "type": "Feature", "properties": { "内容": "特別養護老人ホーム　延暦寺広済寮【短期入所生活介護】岐阜県中津川市落合1336‐13", "url": "https://www.kaigokensaku.mhlw.go.jp/21/index.php?action_kouhyou_detail_004_kani=true&JigyosyoCd=2171500040-00&ServiceCd=210&Type=search", "url2": "http://www.kayagakikai.or.jp/" }, "geometry": { "type": "Point", "coordinates": [ 137.54785255713, 35.499199761487098 ] } },
{ "type": "Feature", "properties": { "内容": "特別養護老人ホーム瀬戸の里【短期入所生活介護】岐阜県中津川市瀬戸1387番地の8", "url": "https://www.kaigokensaku.mhlw.go.jp/21/index.php?action_kouhyou_detail_004_kani=true&JigyosyoCd=2171500057-00&ServiceCd=210&Type=search", "url2": "http://www.gojoukai.or.jp/" }, "geometry": { "type": "Point", "coordinates": [ 137.497419799999989, 35.5166269 ] } },
{ "type": "Feature", "properties": { "内容": "ショートステイシクラメン【短期入所生活介護】岐阜県中津川市阿木2811番地の1", "url": "https://www.kaigokensaku.mhlw.go.jp/21/index.php?action_kouhyou_detail_004_kani=true&JigyosyoCd=2171500289-00&ServiceCd=210&Type=search", "url2": "http://www.cyclamen.or.jp/" }, "geometry": { "type": "Point", "coordinates": [ 137.447185900000022, 35.4092996 ] } },
{ "type": "Feature", "properties": { "内容": "ら・じょわ中津川　短期入所生活介護【短期入所生活介護】岐阜県中津川市茄子川1683-246", "url": "https://www.kaigokensaku.mhlw.go.jp/21/index.php?action_kouhyou_detail_004_kani=true&JigyosyoCd=2171500370-00&ServiceCd=210&Type=search", "url2": "http://www.la-joie.net/" }, "geometry": { "type": "Point", "coordinates": [ 137.478789399999982, 35.4586031 ] } },
{ "type": "Feature", "properties": { "内容": "特別養護老人ホーム　ふくろうの杜【短期入所生活介護】岐阜県中津川市苗木4002番地", "url": "https://www.kaigokensaku.mhlw.go.jp/21/index.php?action_kouhyou_detail_004_kani=true&JigyosyoCd=2171500644-00&ServiceCd=210&Type=search", "url2": "http://fukurounomori.jp/" }, "geometry": { "type": "Point", "coordinates": [ 137.4592841, 35.5119179 ] } },
{ "type": "Feature", "properties": { "内容": "二ツ森ショートステイ【短期入所生活介護】岐阜県中津川市福岡1693-608", "url": "https://www.kaigokensaku.mhlw.go.jp/21/index.php?action_kouhyou_detail_004_kani=true&JigyosyoCd=2171500693-00&ServiceCd=210&Type=search", "url2": "http://www.futatsumori.or.jp/" }, "geometry": { "type": "Point", "coordinates": [ 137.432450099999983, 35.5686734 ] } },
{ "type": "Feature", "properties": { "内容": "特別養護老人ホーム　恵翔苑【短期入所生活介護】岐阜県中津川市付知町４５７５番地１", "url": "https://www.kaigokensaku.mhlw.go.jp/21/index.php?action_kouhyou_detail_004_kani=true&JigyosyoCd=2172000438-00&ServiceCd=210&Type=search", "url2": "https://keihoku.or.jp/facility/keisyouen/" }, "geometry": { "type": "Point", "coordinates": [ 137.426606699999979, 35.6666884 ] } },
{ "type": "Feature", "properties": { "内容": "特別養護老人ホーム　みのがみの郷【短期入所生活介護】岐阜県美濃市乙狩８３７番地１", "url": "https://www.kaigokensaku.mhlw.go.jp/21/index.php?action_kouhyou_detail_004_kani=true&JigyosyoCd=2170300392-00&ServiceCd=210&Type=search", "url2": "http://www.minogami.or.jp/" }, "geometry": { "type": "Point", "coordinates": [ 136.858617, 35.5911188 ] } },
{ "type": "Feature", "properties": { "内容": "特別養護老人ホームみの輝きの杜【短期入所生活介護】岐阜県美濃市桑原3008番地１", "url": "https://www.kaigokensaku.mhlw.go.jp/21/index.php?action_kouhyou_detail_004_kani=true&JigyosyoCd=2170300285-00&ServiceCd=210&Type=search", "url2": "http://www.minokagayaki.com/" }, "geometry": { "type": "Point", "coordinates": [ 136.918185692832964, 35.541482544397056 ] } },
{ "type": "Feature", "properties": { "内容": "特別養護老人ホーム　美和の里【短期入所生活介護】岐阜県美濃市極楽寺213番地の1", "url": "https://www.kaigokensaku.mhlw.go.jp/21/index.php?action_kouhyou_detail_004_kani=true&JigyosyoCd=2170300111-00&ServiceCd=210&Type=search", "url2": "http://gifu-shinwakai.org/" }, "geometry": { "type": "Point", "coordinates": [ 136.882842100000062, 35.530543 ] } },
{ "type": "Feature", "properties": { "内容": "特別養護老人ホームみずなみ陶生苑【短期入所生活介護】岐阜県瑞浪市釜戸町833番地", "url": "https://www.kaigokensaku.mhlw.go.jp/21/index.php?action_kouhyou_detail_004_kani=true&JigyosyoCd=2171600089-00&ServiceCd=210&Type=search", "url2": "http://www.toseien.com/" }, "geometry": { "type": "Point", "coordinates": [ 137.283614700000044, 35.3997005 ] } },
{ "type": "Feature", "properties": { "内容": "特別養護老人ホーム　千寿の里【短期入所生活介護】岐阜県瑞浪市山田町1018番地の1", "url": "https://www.kaigokensaku.mhlw.go.jp/21/index.php?action_kouhyou_detail_004_kani=true&JigyosyoCd=2171600147-00&ServiceCd=210&Type=search", "url2": "http://www.senjyukai.or.jp/" }, "geometry": { "type": "Point", "coordinates": [ 137.251603599999953, 35.3427507 ] } },
{ "type": "Feature", "properties": { "内容": "特別養護老人ホーム　みずなみ瀬戸の里【短期入所生活介護】岐阜県瑞浪市稲津町小里2723-1", "url": "https://www.kaigokensaku.mhlw.go.jp/21/index.php?action_kouhyou_detail_004_kani=true&JigyosyoCd=2171600436-00&ServiceCd=210&Type=search", "url2": "mizunami@gojoukai.or.jp" }, "geometry": { "type": "Point", "coordinates": [ 137.2913038, 35.3278423 ] } },
{ "type": "Feature", "properties": { "内容": "心音ケアセンター瑞浪【短期入所生活介護】岐阜県瑞浪市樽上町1-45-4", "url": "https://www.kaigokensaku.mhlw.go.jp/21/index.php?action_kouhyou_detail_004_kani=true&JigyosyoCd=2171600733-00&ServiceCd=210&Type=search", "url2": "http://www.weecs.net" }, "geometry": { "type": "Point", "coordinates": [ 137.253602965745614, 35.361072080579888 ] } },
{ "type": "Feature", "properties": { "内容": "アイランドジー・アイ小田ショートステイ【短期入所生活介護】岐阜県瑞浪市北小田町2-291", "url": "https://www.kaigokensaku.mhlw.go.jp/21/index.php?action_kouhyou_detail_004_kani=true&JigyosyoCd=2171600485-00&ServiceCd=210&Type=search", "url2": "http://www.gi-kaigo.co.jp" }, "geometry": { "type": "Point", "coordinates": [ 137.2439154, 35.3598401 ] } },
{ "type": "Feature", "properties": { "内容": "特別養護老人ホームやすらぎ苑【短期入所生活介護】岐阜県羽島市下中町石田687番地", "url": "https://www.kaigokensaku.mhlw.go.jp/21/index.php?action_kouhyou_detail_004_kani=true&JigyosyoCd=2170400119-00&ServiceCd=210&Type=search", "url2": "https://www.denshinkai.jp" }, "geometry": { "type": "Point", "coordinates": [ 136.6989347, 35.2759428 ] } },
{ "type": "Feature", "properties": { "内容": "特別養護老人ホーム　寿光苑【短期入所生活介護】岐阜県羽島市小熊町２丁目７５０番地", "url": "https://www.kaigokensaku.mhlw.go.jp/21/index.php?action_kouhyou_detail_004_kani=true&JigyosyoCd=2170400408-00&ServiceCd=210&Type=search", "url2": "http://www.shahuku-hashima.jp/" }, "geometry": { "type": "Point", "coordinates": [ 136.71046780000006, 35.3492708 ] } },
{ "type": "Feature", "properties": { "内容": "特別養護老人ホーム美輝苑【短期入所生活介護】岐阜県羽島市桑原町大須２丁目１５７番地１", "url": "https://www.kaigokensaku.mhlw.go.jp/21/index.php?action_kouhyou_detail_004_kani=true&JigyosyoCd=2170400812-00&ServiceCd=210&Type=search", "url2": "http://www.shahuku-hashima.jp/" }, "geometry": { "type": "Point", "coordinates": [ 136.676854100000014, 35.2638856 ] } },
{ "type": "Feature", "properties": { "内容": "ショートステイ「ママーズの家　まさき」【短期入所生活介護】岐阜県羽島市正木町須賀2563-1", "url": "https://www.kaigokensaku.mhlw.go.jp/21/index.php?action_kouhyou_detail_004_kani=true&JigyosyoCd=2170400895-00&ServiceCd=210&Type=search", "url2": "http://www.hashimakikaku.com" }, "geometry": { "type": "Point", "coordinates": [ 136.7312624, 35.3356366 ] } },
{ "type": "Feature", "properties": { "内容": "特別養護老人ホーム　光輝苑【短期入所生活介護】岐阜県羽島市桑原町東方２８７番地１", "url": "https://www.kaigokensaku.mhlw.go.jp/21/index.php?action_kouhyou_detail_004_kani=true&JigyosyoCd=2170401190-00&ServiceCd=210&Type=search", "url2": "http://www.shahuku-hashima.jp/" }, "geometry": { "type": "Point", "coordinates": [ 136.679249729202837, 35.286686994553406 ] } },
{ "type": "Feature", "properties": { "内容": "ショートステイホームジョイフル羽島【短期入所生活介護】岐阜県羽島市下中町城屋敷318-5", "url": "https://www.kaigokensaku.mhlw.go.jp/21/index.php?action_kouhyou_detail_004_kani=true&JigyosyoCd=2170401380-00&ServiceCd=210&Type=search", "url2": "https://sun-vision.or.jp/" }, "geometry": { "type": "Point", "coordinates": [ 136.704144499999984, 35.2874288 ] } },
{ "type": "Feature", "properties": { "内容": "特別養護老人ホーム福寿苑（ユニット型）【短期入所生活介護】岐阜県恵那市上矢作町下723番地1特別養護老親ホーム福寿苑", "url": "https://www.kaigokensaku.mhlw.go.jp/21/index.php?action_kouhyou_detail_004_kani=true&JigyosyoCd=2171701085-00&ServiceCd=210&Type=search", "url2": "https://keihoku.or.jp/" }, "geometry": { "type": "Point", "coordinates": [ 137.4745428, 35.27485 ] } },
{ "type": "Feature", "properties": { "内容": "ショートステイ恵那【短期入所生活介護】岐阜県恵那市長島町中野５１３番地２", "url": "https://www.kaigokensaku.mhlw.go.jp/21/index.php?action_kouhyou_detail_004_kani=true&JigyosyoCd=2171701408-00&ServiceCd=210&Type=search", "url2": null }, "geometry": { "type": "Point", "coordinates": [ 137.4045222, 35.4523836 ] } },
{ "type": "Feature", "properties": { "内容": "特別養護老人ホーム明日香苑【短期入所生活介護】岐阜県恵那市三郷町佐々良木1470-1", "url": "https://www.kaigokensaku.mhlw.go.jp/21/index.php?action_kouhyou_detail_004_kani=true&JigyosyoCd=2171700053-00&ServiceCd=210&Type=search", "url2": "http://www.keiwakai.or.jp/" }, "geometry": { "type": "Point", "coordinates": [ 137.356189299999983, 35.405139 ] } },
{ "type": "Feature", "properties": { "内容": "特別養護老人ホーム福寿苑（従来型）短期入所生活介護【短期入所生活介護】岐阜県恵那市上矢作町下723番地1", "url": "https://www.kaigokensaku.mhlw.go.jp/21/index.php?action_kouhyou_detail_004_kani=true&JigyosyoCd=2171701077-00&ServiceCd=210&Type=search", "url2": "https://keihoku.or.jp/" }, "geometry": { "type": "Point", "coordinates": [ 137.474875900000029, 35.2745711 ] } },
{ "type": "Feature", "properties": { "内容": "特別養護老人ホーム　さわやかナーシングビラ【短期入所生活介護】岐阜県美濃加茂市下米田町東栃井81番地の2", "url": "https://www.kaigokensaku.mhlw.go.jp/21/index.php?action_kouhyou_detail_004_kani=true&JigyosyoCd=2171200096-00&ServiceCd=210&Type=search", "url2": "http://www.jikeikai-sawayaka.jp" }, "geometry": { "type": "Point", "coordinates": [ 137.066200400000071, 35.4772158 ] } },
{ "type": "Feature", "properties": { "内容": "さくらの郷【短期入所生活介護】岐阜県美濃加茂市太田町26番地5", "url": "https://www.kaigokensaku.mhlw.go.jp/21/index.php?action_kouhyou_detail_004_kani=true&JigyosyoCd=2171200328-00&ServiceCd=210&Type=search", "url2": "http://www.hayasi-clinic.org" }, "geometry": { "type": "Point", "coordinates": [ 137.018325, 35.4491223 ] } },
{ "type": "Feature", "properties": { "内容": "ショートステイはなたま【短期入所生活介護】岐阜県美濃加茂市牧野字鳥屋野3114", "url": "https://www.kaigokensaku.mhlw.go.jp/21/index.php?action_kouhyou_detail_004_kani=true&JigyosyoCd=2171200575-00&ServiceCd=210&Type=search", "url2": null }, "geometry": { "type": "Point", "coordinates": [ 137.073091185349995, 35.450424164680122 ] } },
{ "type": "Feature", "properties": { "内容": "ショートステイきずな【短期入所生活介護】岐阜県美濃加茂市加茂野町加茂野字南野816番地4", "url": "https://www.kaigokensaku.mhlw.go.jp/21/index.php?action_kouhyou_detail_004_kani=true&JigyosyoCd=2171200690-00&ServiceCd=210&Type=search", "url2": null }, "geometry": { "type": "Point", "coordinates": [ 136.982207697622641, 35.450443652270273 ] } },
{ "type": "Feature", "properties": { "内容": "特別養護老人ホームとき陶生苑【短期入所生活介護】岐阜県土岐市駄知町1858番地の2", "url": "https://www.kaigokensaku.mhlw.go.jp/21/index.php?action_kouhyou_detail_004_kani=true&JigyosyoCd=2171800051-00&ServiceCd=210&Type=search", "url2": null }, "geometry": { "type": "Point", "coordinates": [ 137.22297930000002, 35.329157 ] } },
{ "type": "Feature", "properties": { "内容": "特別養護老人ホームドリーム陶都【短期入所生活介護】岐阜県土岐市下石町304番地839", "url": "https://www.kaigokensaku.mhlw.go.jp/21/index.php?action_kouhyou_detail_004_kani=true&JigyosyoCd=2171800325-00&ServiceCd=210&Type=search", "url2": "https://www.tohtokai.jp/" }, "geometry": { "type": "Point", "coordinates": [ 137.1732366, 35.3159174 ] } },
{ "type": "Feature", "properties": { "内容": "土岐ケアセンターそよ風【短期入所生活介護】岐阜県土岐市肥田浅野元町2-16土岐ケアセンターそよ風", "url": "https://www.kaigokensaku.mhlw.go.jp/21/index.php?action_kouhyou_detail_004_kani=true&JigyosyoCd=2171800622-00&ServiceCd=210&Type=search", "url2": "http://www.sykz.co.jp" }, "geometry": { "type": "Point", "coordinates": [ 137.200917577511433, 35.362404629170641 ] } },
{ "type": "Feature", "properties": { "内容": "地域密着型特別養護老人土岐陶生苑ききょう【短期入所生活介護】岐阜県土岐市駄知町1858-2", "url": "https://www.kaigokensaku.mhlw.go.jp/21/index.php?action_kouhyou_detail_004_kani=true&JigyosyoCd=2171801166-00&ServiceCd=210&Type=search", "url2": "https://www.toseien.com/publics/index/19/" }, "geometry": { "type": "Point", "coordinates": [ 137.222928565606679, 35.329059454121115 ] } },
{ "type": "Feature", "properties": { "内容": "ショートステイ　笑顔いちばんの家【短期入所生活介護】岐阜県各務原市鵜沼羽場町８－５－１", "url": "https://www.kaigokensaku.mhlw.go.jp/21/index.php?action_kouhyou_detail_004_kani=true&JigyosyoCd=2170502427-00&ServiceCd=210&Type=search", "url2": "https://egao1ban.or.jp" }, "geometry": { "type": "Point", "coordinates": [ 136.919963880812077, 35.399199771964163 ] } },
{ "type": "Feature", "properties": { "内容": "特別養護老人ホームオーク【短期入所生活介護】岐阜県各務原市那加前洞新町４丁目２２番地", "url": "https://www.kaigokensaku.mhlw.go.jp/21/index.php?action_kouhyou_detail_004_kani=true&JigyosyoCd=2170501346-00&ServiceCd=210&Type=search", "url2": "http://koujinkai-oak.com/" }, "geometry": { "type": "Point", "coordinates": [ 136.842945099999952, 35.4091538 ] } },
{ "type": "Feature", "properties": { "内容": "特別養護老人ホーム　カーサ・レスペート【短期入所生活介護】岐阜県各務原市蘇原東栄町1丁目50番", "url": "https://www.kaigokensaku.mhlw.go.jp/21/index.php?action_kouhyou_detail_004_kani=true&JigyosyoCd=2170500074-00&ServiceCd=210&Type=search", "url2": "http://www.casa.or.jp/" }, "geometry": { "type": "Point", "coordinates": [ 136.875087280052782, 35.411205609565762 ] } },
{ "type": "Feature", "properties": { "内容": "特別養護老人ホーム飛鳥美谷苑【短期入所生活介護】岐阜県各務原市那加西市場町７丁目２８５－１", "url": "https://www.kaigokensaku.mhlw.go.jp/21/index.php?action_kouhyou_detail_004_kani=true&JigyosyoCd=2170500306-00&ServiceCd=210&Type=search", "url2": "https://www.mitanikai.com" }, "geometry": { "type": "Point", "coordinates": [ 136.837903800000049, 35.417525 ] } },
{ "type": "Feature", "properties": { "内容": "不動丘ガーデンヒルズ【短期入所生活介護】岐阜県各務原市那加不動丘二丁目20番地１", "url": "https://www.kaigokensaku.mhlw.go.jp/21/index.php?action_kouhyou_detail_004_kani=true&JigyosyoCd=2170501122-00&ServiceCd=210&Type=search", "url2": "http://sunrise-station.jp" }, "geometry": { "type": "Point", "coordinates": [ 136.847872300000063, 35.4078651 ] } },
{ "type": "Feature", "properties": { "内容": "地域密着型特別養護老人ホーム　メゾンペイネ【短期入所生活介護】岐阜県各務原市鵜沼各務原町9丁目195番地", "url": "https://www.kaigokensaku.mhlw.go.jp/21/index.php?action_kouhyou_detail_004_kani=true&JigyosyoCd=2170501189-00&ServiceCd=210&Type=search", "url2": "http://www.phoenix-g.jp" }, "geometry": { "type": "Point", "coordinates": [ 136.911569500000041, 35.3968069 ] } },
{ "type": "Feature", "properties": { "内容": "ショートステイ　サフィールいなは【短期入所生活介護】岐阜県各務原市上戸町１丁目５３番地", "url": "https://www.kaigokensaku.mhlw.go.jp/21/index.php?action_kouhyou_detail_004_kani=true&JigyosyoCd=2170501643-00&ServiceCd=210&Type=search", "url2": "http://syuseikai.com/" }, "geometry": { "type": "Point", "coordinates": [ 136.846818699999972, 35.3844296 ] } },
{ "type": "Feature", "properties": { "内容": "あずみ苑　各務原【短期入所生活介護】岐阜県各務原市鵜沼川崎町3-140-1あずみ苑　各務原", "url": "https://www.kaigokensaku.mhlw.go.jp/21/index.php?action_kouhyou_detail_004_kani=true&JigyosyoCd=2170501791-00&ServiceCd=210&Type=search", "url2": "http://www.azumien.jp/" }, "geometry": { "type": "Point", "coordinates": [ 136.879265207270777, 35.401656728624616 ] } },
{ "type": "Feature", "properties": { "内容": "ショートステイホームジョイフル各務原【短期入所生活介護】岐阜県各務原市鵜沼小伊木町3-170-1", "url": "https://www.kaigokensaku.mhlw.go.jp/21/index.php?action_kouhyou_detail_004_kani=true&JigyosyoCd=2170502047-00&ServiceCd=210&Type=search", "url2": "https://sun-vision.or.jp/" }, "geometry": { "type": "Point", "coordinates": [ 136.923102200000017, 35.3887208 ] } },
{ "type": "Feature", "properties": { "内容": "各務原ショートステイそよ風【短期入所生活介護】岐阜県各務原市蘇原申子町1‐79‐2", "url": "https://www.kaigokensaku.mhlw.go.jp/21/index.php?action_kouhyou_detail_004_kani=true&JigyosyoCd=2170502302-00&ServiceCd=210&Type=search", "url2": null }, "geometry": { "type": "Point", "coordinates": [ 136.855696099999989, 35.4092054 ] } },
{ "type": "Feature", "properties": { "内容": "特別養護老人ホームリバーサイド川島園【短期入所生活介護】岐阜県各務原市川島河田町1348番地", "url": "https://www.kaigokensaku.mhlw.go.jp/21/index.php?action_kouhyou_detail_004_kani=true&JigyosyoCd=2170600122-00&ServiceCd=210&Type=search", "url2": "http://www.h-fukujyu.or.jp/kawashima/" }, "geometry": { "type": "Point", "coordinates": [ 136.823176699999976, 35.3601354 ] } },
{ "type": "Feature", "properties": { "内容": "つつじ苑ショートステイ【短期入所生活介護】岐阜県各務原市大佐野町２－５８", "url": "https://www.kaigokensaku.mhlw.go.jp/21/index.php?action_kouhyou_detail_004_kani=true&JigyosyoCd=2170500066-00&ServiceCd=210&Type=search", "url2": "http://www.tutujien.jp" }, "geometry": { "type": "Point", "coordinates": [ 136.841890700000022, 35.3854516 ] } },
{ "type": "Feature", "properties": { "内容": "特別養護老人ホーム春里苑【短期入所生活介護】岐阜県可児市塩河2709番地1", "url": "https://www.kaigokensaku.mhlw.go.jp/21/index.php?action_kouhyou_detail_004_kani=true&JigyosyoCd=2173100054-00&ServiceCd=210&Type=search", "url2": "http://www.harusatoen.or.jp" }, "geometry": { "type": "Point", "coordinates": [ 137.042379899999986, 35.3953982 ] } },
{ "type": "Feature", "properties": { "内容": "チェリーヴィラ広見苑ショートステイ【短期入所生活介護】岐阜県可児市広見1362", "url": "https://www.kaigokensaku.mhlw.go.jp/21/index.php?action_kouhyou_detail_004_kani=true&JigyosyoCd=2173100567-00&ServiceCd=210&Type=search", "url2": "http://www.cherryvilla.or.jp/" }, "geometry": { "type": "Point", "coordinates": [ 137.064952400000038, 35.4171663 ] } },
{ "type": "Feature", "properties": { "内容": "ショートステイ　フローレ川合【短期入所生活介護】岐阜県可児市川合７９３－１", "url": "https://www.kaigokensaku.mhlw.go.jp/21/index.php?action_kouhyou_detail_004_kani=true&JigyosyoCd=2173100922-00&ServiceCd=210&Type=search", "url2": "http://www.flore-kawai.com/" }, "geometry": { "type": "Point", "coordinates": [ 137.060390199999972, 35.4363962 ] } },
{ "type": "Feature", "properties": { "内容": "ショート　あおぞら【短期入所生活介護】岐阜県可児市矢戸67番", "url": "https://www.kaigokensaku.mhlw.go.jp/21/index.php?action_kouhyou_detail_004_kani=true&JigyosyoCd=2173100930-00&ServiceCd=210&Type=search", "url2": "http://www.fujinokai.com/" }, "geometry": { "type": "Point", "coordinates": [ 137.022711331299689, 35.399156092149553 ] } },
{ "type": "Feature", "properties": { "内容": "ショートステイ　フラワーコート【短期入所生活介護】岐阜県可児市下恵土5607", "url": "https://www.kaigokensaku.mhlw.go.jp/21/index.php?action_kouhyou_detail_004_kani=true&JigyosyoCd=2173101292-00&ServiceCd=210&Type=search", "url2": "http://www.fujinokai.com/" }, "geometry": { "type": "Point", "coordinates": [ 137.050697917456972, 35.418063620844279 ] } },
{ "type": "Feature", "properties": { "内容": "医療法人　清風会　美空の郷【短期入所生活介護】岐阜県可児市土田2055-28", "url": "https://www.kaigokensaku.mhlw.go.jp/21/index.php?action_kouhyou_detail_004_kani=true&JigyosyoCd=2173101359-00&ServiceCd=210&Type=search", "url2": "https://www.hayasi-clinic.org/" }, "geometry": { "type": "Point", "coordinates": [ 137.014333399999941, 35.4223747 ] } },
{ "type": "Feature", "properties": { "内容": "シンシア可児【短期入所生活介護】岐阜県可児市土田2546-23", "url": "https://www.kaigokensaku.mhlw.go.jp/21/index.php?action_kouhyou_detail_004_kani=true&JigyosyoCd=2173101425-00&ServiceCd=210&Type=search", "url2": "https://www.sincere-gri.com/043_kaniss/index.html" }, "geometry": { "type": "Point", "coordinates": [ 137.029643862565592, 35.432668836321206 ] } },
{ "type": "Feature", "properties": { "内容": "特別養護老人ホーム椿野苑【短期入所生活介護】岐阜県山県市大桑3615番地１", "url": "https://www.kaigokensaku.mhlw.go.jp/21/index.php?action_kouhyou_detail_004_kani=true&JigyosyoCd=2170800045-00&ServiceCd=210&Type=search", "url2": "http://www.douhoukai.com" }, "geometry": { "type": "Point", "coordinates": [ 136.769015800000034, 35.5497018 ] } },
{ "type": "Feature", "properties": { "内容": "ショートステイ　やまがた【短期入所生活介護】岐阜県山県市高木１３６０－２オレンジヒルズやまがた", "url": "https://www.kaigokensaku.mhlw.go.jp/21/index.php?action_kouhyou_detail_004_kani=true&JigyosyoCd=2170800425-00&ServiceCd=210&Type=search", "url2": "http://miwakai.or.jp/" }, "geometry": { "type": "Point", "coordinates": [ 136.782639387091422, 35.506631491074991 ] } },
{ "type": "Feature", "properties": { "内容": "ショートステイオレンジヒルズやまがた【短期入所生活介護】岐阜県山県市高木1367-1", "url": "https://www.kaigokensaku.mhlw.go.jp/21/index.php?action_kouhyou_detail_004_kani=true&JigyosyoCd=2170800466-00&ServiceCd=210&Type=search", "url2": "http://miwakai.or.jp" }, "geometry": { "type": "Point", "coordinates": [ 136.782904311826343, 35.506881477146166 ] } },
{ "type": "Feature", "properties": { "内容": "特別養護老人ホーム　山県グリーンビレッジ【短期入所生活介護】岐阜県山県市大門803", "url": "https://www.kaigokensaku.mhlw.go.jp/21/index.php?action_kouhyou_detail_004_kani=true&JigyosyoCd=2170800185-00&ServiceCd=210&Type=search", "url2": "https://yuuaikai-gifu.or.jp/" }, "geometry": { "type": "Point", "coordinates": [ 136.725382, 35.5390714 ] } },
{ "type": "Feature", "properties": { "内容": "特別養護老人ホームほづみ園【短期入所生活介護】岐阜県瑞穂市宝江５７６－１", "url": "https://www.kaigokensaku.mhlw.go.jp/21/index.php?action_kouhyou_detail_004_kani=true&JigyosyoCd=2170700104-00&ServiceCd=210&Type=search", "url2": "https://www.sinwakai-hozumien.jp/" }, "geometry": { "type": "Point", "coordinates": [ 136.671236200000067, 35.370842 ] } },
{ "type": "Feature", "properties": { "内容": "特別養護老人ホーム　サンビレッジ瑞穂【短期入所生活介護】岐阜県瑞穂市只越２１９番地2", "url": "https://www.kaigokensaku.mhlw.go.jp/21/index.php?action_kouhyou_detail_004_kani=true&JigyosyoCd=2173200276-00&ServiceCd=210&Type=search", "url2": "https://www.sun-village.jp/" }, "geometry": { "type": "Point", "coordinates": [ 136.674410457163958, 35.400806312156959 ] } },
{ "type": "Feature", "properties": { "内容": "瑞穂くつろぎショートステイ【短期入所生活介護】岐阜県瑞穂市馬場上光町１－１０３", "url": "https://www.kaigokensaku.mhlw.go.jp/21/index.php?action_kouhyou_detail_004_kani=true&JigyosyoCd=2173200565-00&ServiceCd=210&Type=search", "url2": "http://karumia.com/" }, "geometry": { "type": "Point", "coordinates": [ 136.6854061, 35.4125475 ] } },
{ "type": "Feature", "properties": { "内容": "岐阜県立飛騨寿楽苑ショートステイセンター【短期入所生活介護】岐阜県飛騨市古川町是重１０２", "url": "https://www.kaigokensaku.mhlw.go.jp/21/index.php?action_kouhyou_detail_004_kani=true&JigyosyoCd=2173000072-00&ServiceCd=210&Type=search", "url2": "https://gifu-fukushi.jp/institution/hida/p3364/" }, "geometry": { "type": "Point", "coordinates": [ 137.199501899999973, 36.225218 ] } },
{ "type": "Feature", "properties": { "内容": "特別養護老人ホーム　飛騨古川さくらの郷【短期入所生活介護】岐阜県飛騨市古川町杉崎598番地1", "url": "https://www.kaigokensaku.mhlw.go.jp/21/index.php?action_kouhyou_detail_004_kani=true&JigyosyoCd=2173000569-00&ServiceCd=210&Type=search", "url2": "http://www.sakura-asagiri.com" }, "geometry": { "type": "Point", "coordinates": [ 137.15679190000003, 36.2523167 ] } },
{ "type": "Feature", "properties": { "内容": "地域密着型特別養護老人ホーム　さくらの郷あさぎり【短期入所生活介護】岐阜県飛騨市古川町杉崎597-1", "url": "https://www.kaigokensaku.mhlw.go.jp/21/index.php?action_kouhyou_detail_004_kani=true&JigyosyoCd=2173300076-00&ServiceCd=210&Type=search", "url2": "http://www.sakura-asagiri.com" }, "geometry": { "type": "Point", "coordinates": [ 137.157161299999984, 36.2529528 ] } },
{ "type": "Feature", "properties": { "内容": "もとす広域連合老人福祉施設大和園【短期入所生活介護】岐阜県本巣市曽井中島１１５６－４", "url": "https://www.kaigokensaku.mhlw.go.jp/21/index.php?action_kouhyou_detail_004_kani=true&JigyosyoCd=2170700435-00&ServiceCd=210&Type=search", "url2": "https://www.motosu-union.gifu.jp" }, "geometry": { "type": "Point", "coordinates": [ 136.666152900000043, 35.4826384 ] } },
{ "type": "Feature", "properties": { "内容": "特別養護老人ホーム　さはら苑【短期入所生活介護】岐阜県本巣市佐原３５３番地１", "url": "https://www.kaigokensaku.mhlw.go.jp/21/index.php?action_kouhyou_detail_004_kani=true&JigyosyoCd=2170700518-00&ServiceCd=210&Type=search", "url2": "http://www.usuzumikai.or.jp/" }, "geometry": { "type": "Point", "coordinates": [ 136.641561, 35.5576764 ] } },
{ "type": "Feature", "properties": { "内容": "ショートステイれんげ【短期入所生活介護】岐阜県本巣市下真桑670-1", "url": "https://www.kaigokensaku.mhlw.go.jp/21/index.php?action_kouhyou_detail_004_kani=true&JigyosyoCd=2173400355-00&ServiceCd=210&Type=search", "url2": "https;//rengegroup.com/" }, "geometry": { "type": "Point", "coordinates": [ 136.656612099722253, 35.440568738004274 ] } },
{ "type": "Feature", "properties": { "内容": "仙寿苑　ショートステイ悠々【短期入所生活介護】岐阜県本巣市仏生寺１１１－１", "url": "https://www.kaigokensaku.mhlw.go.jp/21/index.php?action_kouhyou_detail_004_kani=true&JigyosyoCd=2173400421-00&ServiceCd=210&Type=search", "url2": "http://senjuen.wixsite.com/senjuen" }, "geometry": { "type": "Point", "coordinates": [ 136.692177738328581, 35.447224566795882 ] } },
{ "type": "Feature", "properties": { "内容": "ショートステイほたるの里千手【短期入所生活介護】岐阜県本巣市曽井中島１６９８－１", "url": "https://www.kaigokensaku.mhlw.go.jp/21/index.php?action_kouhyou_detail_004_kani=true&JigyosyoCd=2173400454-00&ServiceCd=210&Type=search", "url2": "https://www.keibokukai.com/" }, "geometry": { "type": "Point", "coordinates": [ 136.67567562296631, 35.477218652084574 ] } },
{ "type": "Feature", "properties": { "内容": "フレンドリーおりべ【短期入所生活介護】岐阜県本巣市七五三７３５番地", "url": "https://www.kaigokensaku.mhlw.go.jp/21/index.php?action_kouhyou_detail_004_kani=true&JigyosyoCd=2173400157-00&ServiceCd=210&Type=search", "url2": "https://www.inoguchikai.jp/" }, "geometry": { "type": "Point", "coordinates": [ 136.6529419, 35.4483282 ] } },
{ "type": "Feature", "properties": { "内容": "特別養護老人ホームせせらぎ緑風苑【短期入所生活介護】岐阜県郡上市八幡町旭663番地６", "url": "https://www.kaigokensaku.mhlw.go.jp/21/index.php?action_kouhyou_detail_004_kani=true&JigyosyoCd=2171000140-00&ServiceCd=210&Type=search", "url2": "http://www.seseragi-r.com" }, "geometry": { "type": "Point", "coordinates": [ 136.993498100000011, 35.7715423 ] } },
{ "type": "Feature", "properties": { "内容": "郡上偕楽園【短期入所生活介護】岐阜県郡上市大和町島２３４７番地６", "url": "https://www.kaigokensaku.mhlw.go.jp/21/index.php?action_kouhyou_detail_004_kani=true&JigyosyoCd=2171000603-00&ServiceCd=210&Type=search", "url2": "gujokairakuen.jp" }, "geometry": { "type": "Point", "coordinates": [ 136.911637, 35.7874724 ] } },
{ "type": "Feature", "properties": { "内容": "サーラ郡上【短期入所生活介護】岐阜県郡上市八幡町相生2304-1サーラ郡上", "url": "https://www.kaigokensaku.mhlw.go.jp/21/index.php?action_kouhyou_detail_004_kani=true&JigyosyoCd=2171000827-00&ServiceCd=210&Type=search", "url2": "http://sara-gujyo.com" }, "geometry": { "type": "Point", "coordinates": [ 136.950269, 35.7340255 ] } },
{ "type": "Feature", "properties": { "内容": "特別養護老人ホームさわやかナーシング下呂【短期入所生活介護】岐阜県下呂市乗政1267-5", "url": "https://www.kaigokensaku.mhlw.go.jp/21/index.php?action_kouhyou_detail_004_kani=true&JigyosyoCd=2172800514-00&ServiceCd=210&Type=search", "url2": "http://www.jikeikai-sawayaka.jp" }, "geometry": { "type": "Point", "coordinates": [ 137.2848328, 35.7861264 ] } },
{ "type": "Feature", "properties": { "内容": "特別養護老人ホームかなやまサニーランド【短期入所生活介護】岐阜県下呂市金山町金山973番地7", "url": "https://www.kaigokensaku.mhlw.go.jp/21/index.php?action_kouhyou_detail_004_kani=true&JigyosyoCd=2172800647-00&ServiceCd=210&Type=search", "url2": null }, "geometry": { "type": "Point", "coordinates": [ 137.146001100000035, 35.6670503 ] } },
{ "type": "Feature", "properties": { "内容": "特別養護老人ホームあさぎりサニーランド【短期入所生活介護】岐阜県下呂市萩原町羽根2710番地3特別養護老人ホームあさぎりサニーランド", "url": "https://www.kaigokensaku.mhlw.go.jp/21/index.php?action_kouhyou_detail_004_kani=true&JigyosyoCd=2172800654-00&ServiceCd=210&Type=search", "url2": "http://www.sunnyland.or.jp" }, "geometry": { "type": "Point", "coordinates": [ 137.205904700000019, 35.8805626 ] } },
{ "type": "Feature", "properties": { "内容": "香和ショートステイ【短期入所生活介護】岐阜県海津市南濃町太田２６６－１", "url": "https://www.kaigokensaku.mhlw.go.jp/21/index.php?action_kouhyou_detail_004_kani=true&JigyosyoCd=2172200228-00&ServiceCd=210&Type=search", "url2": null }, "geometry": { "type": "Point", "coordinates": [ 136.626648400000022, 35.181985 ] } },
{ "type": "Feature", "properties": { "内容": "長寿の里・南濃　ショートステイ【短期入所生活介護】岐阜県海津市南濃町志津719番地１", "url": "https://www.kaigokensaku.mhlw.go.jp/21/index.php?action_kouhyou_detail_004_kani=true&JigyosyoCd=2172200319-00&ServiceCd=210&Type=search", "url2": "http://www.aisankai.jp/" }, "geometry": { "type": "Point", "coordinates": [ 136.5616652, 35.2447162 ] } },
{ "type": "Feature", "properties": { "内容": "長寿の里・海津ショートステイ【短期入所生活介護】岐阜県海津市南濃町境70-1", "url": "https://www.kaigokensaku.mhlw.go.jp/21/index.php?action_kouhyou_detail_004_kani=true&JigyosyoCd=2172200483-00&ServiceCd=210&Type=search", "url2": "http://www.aisankai.jp/" }, "geometry": { "type": "Point", "coordinates": [ 136.643477333777753, 35.157514152006001 ] } },
{ "type": "Feature", "properties": { "内容": "短期入所施設　たかすの華【短期入所生活介護】岐阜県海津市海津町平原318-2", "url": "https://www.kaigokensaku.mhlw.go.jp/21/index.php?action_kouhyou_detail_004_kani=true&JigyosyoCd=2172200608-00&ServiceCd=210&Type=search", "url2": "http://www.keibonokai.org" }, "geometry": { "type": "Point", "coordinates": [ 136.630204400000025, 35.2288606 ] } },
{ "type": "Feature", "properties": { "内容": "特別養護老人ホームしょうふう海津【短期入所生活介護】岐阜県海津市海津町福江656‐1", "url": "https://www.kaigokensaku.mhlw.go.jp/21/index.php?action_kouhyou_detail_004_kani=true&JigyosyoCd=2172200699-00&ServiceCd=210&Type=search", "url2": "https://www.houjyukai.jp/" }, "geometry": { "type": "Point", "coordinates": [ 136.660500899999988, 35.1719086 ] } },
{ "type": "Feature", "properties": { "内容": "ショートステイよもぎ【短期入所生活介護】岐阜県海津市南濃町太田字明代682-1", "url": "https://www.kaigokensaku.mhlw.go.jp/21/index.php?action_kouhyou_detail_004_kani=true&JigyosyoCd=2172200541-00&ServiceCd=210&Type=search", "url2": "http://nursing-home-yomogi.com" }, "geometry": { "type": "Point", "coordinates": [ 136.629500847306787, 35.180148504192346 ] } },
{ "type": "Feature", "properties": { "内容": "ショートステイさくらの舞【短期入所生活介護】岐阜県羽島郡岐南町徳田1丁目79番地", "url": "https://www.kaigokensaku.mhlw.go.jp/21/index.php?action_kouhyou_detail_004_kani=true&JigyosyoCd=2170601062-00&ServiceCd=210&Type=search", "url2": "https://sakurayuki.or.jp" }, "geometry": { "type": "Point", "coordinates": [ 136.772158983915688, 35.38874880586566 ] } },
{ "type": "Feature", "properties": { "内容": "ショートステイさくらの舞本館【短期入所生活介護】岐阜県羽島郡岐南町伏屋9丁目88番地", "url": "https://www.kaigokensaku.mhlw.go.jp/21/index.php?action_kouhyou_detail_004_kani=true&JigyosyoCd=2170601377-00&ServiceCd=210&Type=search", "url2": "https://sakurayuki.or.jp/" }, "geometry": { "type": "Point", "coordinates": [ 136.7876009, 35.3813493 ] } },
{ "type": "Feature", "properties": { "内容": "短期入所生活介護うれし野【短期入所生活介護】岐阜県羽島郡岐南町伏屋8丁目33番地特別養護老人ホーム岐南仙寿うれし野", "url": "https://www.kaigokensaku.mhlw.go.jp/21/index.php?action_kouhyou_detail_004_kani=true&JigyosyoCd=2170601039-00&ServiceCd=210&Type=search", "url2": "http://www.ureshino.or.jp/" }, "geometry": { "type": "Point", "coordinates": [ 136.7917493, 35.3788573 ] } },
{ "type": "Feature", "properties": { "内容": "地域密着型小規模特別養護老人ホーム銀の郷【短期入所生活介護】岐阜県羽島郡笠松町美笠道3-8-1", "url": "https://www.kaigokensaku.mhlw.go.jp/21/index.php?action_kouhyou_detail_004_kani=true&JigyosyoCd=2170601104-00&ServiceCd=210&Type=search", "url2": null }, "geometry": { "type": "Point", "coordinates": [ 136.755205703477742, 35.368890976653745 ] } },
{ "type": "Feature", "properties": { "内容": "リバーサイド笠松園短期入所生活介護【短期入所生活介護】岐阜県羽島郡笠松町田代６２１番地の１", "url": "https://www.kaigokensaku.mhlw.go.jp/21/index.php?action_kouhyou_detail_004_kani=true&JigyosyoCd=2170600593-00&ServiceCd=210&Type=search", "url2": "http://h-fukujyu.or.jp" }, "geometry": { "type": "Point", "coordinates": [ 136.752468200000067, 35.3598837 ] } },
{ "type": "Feature", "properties": { "内容": "ショートステイ　養老長屋【短期入所生活介護】岐阜県養老郡養老町押越544－1", "url": "https://www.kaigokensaku.mhlw.go.jp/21/index.php?action_kouhyou_detail_004_kani=true&JigyosyoCd=2172300440-00&ServiceCd=210&Type=search", "url2": "https://yoshidakai-hp.com/yoshidakai/" }, "geometry": { "type": "Point", "coordinates": [ 136.554655799999978, 35.3063714 ] } },
{ "type": "Feature", "properties": { "内容": "ショートステイ　八幡の杜【短期入所生活介護】岐阜県養老郡養老町押越466-1", "url": "https://www.kaigokensaku.mhlw.go.jp/21/index.php?action_kouhyou_detail_004_kani=true&JigyosyoCd=2172300473-00&ServiceCd=210&Type=search", "url2": null }, "geometry": { "type": "Point", "coordinates": [ 136.554366143238866, 35.305929233348543 ] } },
{ "type": "Feature", "properties": { "内容": "ショートステイ・柚子養老【短期入所生活介護】岐阜県養老郡養老町船附字大割田１４２１番地", "url": "https://www.kaigokensaku.mhlw.go.jp/21/index.php?action_kouhyou_detail_004_kani=true&JigyosyoCd=2172300358-00&ServiceCd=210&Type=search", "url2": "http://yuzuyoro.n-denken.co.jp" }, "geometry": { "type": "Point", "coordinates": [ 136.598738917205083, 35.282282142148183 ] } },
{ "type": "Feature", "properties": { "内容": "特別養護老人ホーム　白鶴荘【短期入所生活介護】岐阜県養老郡養老町柏尾463番地1", "url": "https://www.kaigokensaku.mhlw.go.jp/21/index.php?action_kouhyou_detail_004_kani=true&JigyosyoCd=2172300044-00&ServiceCd=210&Type=search", "url2": "http://www.hakkakuso.com/" }, "geometry": { "type": "Point", "coordinates": [ 136.546368199999961, 35.2938287 ] } },
{ "type": "Feature", "properties": { "内容": "養老ショートステイ【短期入所生活介護】岐阜県養老郡養老町高田1176番地", "url": "https://www.kaigokensaku.mhlw.go.jp/21/index.php?action_kouhyou_detail_004_kani=true&JigyosyoCd=2172300432-00&ServiceCd=210&Type=search", "url2": "https://seishinkai.heart-gp.org/" }, "geometry": { "type": "Point", "coordinates": [ 136.56375479999997, 35.3117602 ] } },
{ "type": "Feature", "properties": { "内容": "いぶき苑【短期入所生活介護】岐阜県不破郡垂井町岩手4538番地", "url": "https://www.kaigokensaku.mhlw.go.jp/21/index.php?action_kouhyou_detail_004_kani=true&JigyosyoCd=2172400042-00&ServiceCd=210&Type=search", "url2": "https://www.ibukien.jp/" }, "geometry": { "type": "Point", "coordinates": [ 136.5199211, 35.3763017 ] } },
{ "type": "Feature", "properties": { "内容": "特別養護老人ホームゆのきがわ【短期入所生活介護】岐阜県不破郡垂井町宮代1155番地2", "url": "https://www.kaigokensaku.mhlw.go.jp/21/index.php?action_kouhyou_detail_004_kani=true&JigyosyoCd=2172400240-00&ServiceCd=210&Type=search", "url2": "http://www.hakuaikai.jp/choujuen.html" }, "geometry": { "type": "Point", "coordinates": [ 136.533321300000011, 35.3538055 ] } },
{ "type": "Feature", "properties": { "内容": "いぶき苑別館【短期入所生活介護】岐阜県不破郡垂井町府中1947-1", "url": "https://www.kaigokensaku.mhlw.go.jp/21/index.php?action_kouhyou_detail_004_kani=true&JigyosyoCd=2172400349-00&ServiceCd=210&Type=search", "url2": "http://www.ibukien.jp" }, "geometry": { "type": "Point", "coordinates": [ 136.5208524, 35.3764371 ] } },
{ "type": "Feature", "properties": { "内容": "ほのぼのいぶき【短期入所生活介護】岐阜県不破郡垂井町府中１９４７番地の１", "url": "https://www.kaigokensaku.mhlw.go.jp/21/index.php?action_kouhyou_detail_004_kani=true&JigyosyoCd=2172400372-00&ServiceCd=210&Type=search", "url2": "https://www.ibukien.jp" }, "geometry": { "type": "Point", "coordinates": [ 136.520855689553429, 35.376500424002714 ] } },
{ "type": "Feature", "properties": { "内容": "特別養護老人ホーム優・悠・邑　ショートステイ【短期入所生活介護】岐阜県不破郡関ケ原町大字今須782-1", "url": "https://www.kaigokensaku.mhlw.go.jp/21/index.php?action_kouhyou_detail_004_kani=true&JigyosyoCd=2172400059-00&ServiceCd=210&Type=search", "url2": "http://www.sugiwakai.jp" }, "geometry": { "type": "Point", "coordinates": [ 136.4176122, 35.3308311 ] } },
{ "type": "Feature", "properties": { "内容": "特別養護老人ホ－ムあすわ苑【短期入所生活介護】岐阜県安八郡安八町中須４１０番地の１", "url": "https://www.kaigokensaku.mhlw.go.jp/21/index.php?action_kouhyou_detail_004_kani=true&JigyosyoCd=2172500049-00&ServiceCd=210&Type=search", "url2": "http://asuwaen-sub.co-site.jp/" }, "geometry": { "type": "Point", "coordinates": [ 136.65211069999998, 35.3305326 ] } },
{ "type": "Feature", "properties": { "内容": "サンライズ長良　ショートステイ【短期入所生活介護】岐阜県安八郡安八町森部1875-1", "url": "https://www.kaigokensaku.mhlw.go.jp/21/index.php?action_kouhyou_detail_004_kani=true&JigyosyoCd=2172500213-00&ServiceCd=210&Type=search", "url2": "http://www14.plala.or.jp/sunrise-nagara/" }, "geometry": { "type": "Point", "coordinates": [ 136.676162893254059, 35.338897255990815 ] } },
{ "type": "Feature", "properties": { "内容": "特別養護老人ホーム　尚和園【短期入所生活介護】岐阜県揖斐郡揖斐川町清水77", "url": "https://www.kaigokensaku.mhlw.go.jp/21/index.php?action_kouhyou_detail_004_kani=true&JigyosyoCd=2172601425-00&ServiceCd=210&Type=search", "url2": "http://www.plaza21oono.jp/koujinkai" }, "geometry": { "type": "Point", "coordinates": [ 136.5970671, 35.4736124 ] } },
{ "type": "Feature", "properties": { "内容": "特別養護老人ホームハートヴィレッヂ谷汲の杜【短期入所生活介護】岐阜県揖斐郡揖斐川町谷汲名礼1248-13", "url": "https://www.kaigokensaku.mhlw.go.jp/21/index.php?action_kouhyou_detail_004_kani=true&JigyosyoCd=2172600526-00&ServiceCd=210&Type=search", "url2": "http://www.daiwa-center.jp/" }, "geometry": { "type": "Point", "coordinates": [ 136.60143370000003, 35.5279404 ] } },
{ "type": "Feature", "properties": { "内容": "特別養護老人ホームかりやど【短期入所生活介護】岐阜県揖斐郡揖斐川町黒田４１９番地３", "url": "https://www.kaigokensaku.mhlw.go.jp/21/index.php?action_kouhyou_detail_004_kani=true&JigyosyoCd=2172600997-00&ServiceCd=210&Type=search", "url2": "http://www.syuwa-kai.jp" }, "geometry": { "type": "Point", "coordinates": [ 136.547039091787695, 35.472878552812247 ] } },
{ "type": "Feature", "properties": { "内容": "特別養護老人ホーム尚和園【短期入所生活介護】岐阜県揖斐郡揖斐川町清水77番地", "url": "https://www.kaigokensaku.mhlw.go.jp/21/index.php?action_kouhyou_detail_004_kani=true&JigyosyoCd=2172601383-00&ServiceCd=210&Type=search", "url2": "http://www.plaza21oono.jp/koujinkai" }, "geometry": { "type": "Point", "coordinates": [ 136.5970671, 35.4736124 ] } },
{ "type": "Feature", "properties": { "内容": "特別養護老人ホームまほろば【短期入所生活介護】岐阜県揖斐郡大野町南方石ノ上356番地1", "url": "https://www.kaigokensaku.mhlw.go.jp/21/index.php?action_kouhyou_detail_004_kani=true&JigyosyoCd=2172600708-00&ServiceCd=210&Type=search", "url2": "https://www.plaza21oono.jp/mahoroba/index.html" }, "geometry": { "type": "Point", "coordinates": [ 136.6476041, 35.4116745 ] } },
{ "type": "Feature", "properties": { "内容": "地域密着型特別養護老人ホーム桜坂【短期入所生活介護】揖斐郡大野町野４７９番地1", "url": "https://www.kaigokensaku.mhlw.go.jp/21/index.php?action_kouhyou_detail_004_kani=true&JigyosyoCd=2172601029-00&ServiceCd=210&Type=search", "url2": "http://www.plaza21oono.jp/sakurazaka/" }, "geometry": { "type": "Point", "coordinates": [ 136.615677, 35.485448 ] } },
{ "type": "Feature", "properties": { "内容": "ぎふ愛の里ショートステイ【短期入所生活介護】岐阜県揖斐郡大野町大字大野742-14", "url": "https://www.kaigokensaku.mhlw.go.jp/21/index.php?action_kouhyou_detail_004_kani=true&JigyosyoCd=2172601078-00&ServiceCd=210&Type=search", "url2": "https://www.gifu-ainosato.jp/" }, "geometry": { "type": "Point", "coordinates": [ 136.6398388, 35.4799964 ] } },
{ "type": "Feature", "properties": { "内容": "特別養護老人ホーム　セント・ケア　おおの【短期入所生活介護】岐阜県揖斐郡大野町黒野190番地1", "url": "https://www.kaigokensaku.mhlw.go.jp/21/index.php?action_kouhyou_detail_004_kani=true&JigyosyoCd=2172601144-00&ServiceCd=210&Type=search", "url2": "http://plaza21oono.jp/st-care" }, "geometry": { "type": "Point", "coordinates": [ 136.6307356, 35.4668786 ] } },
{ "type": "Feature", "properties": { "内容": "ショートステイホーム　セント・ケア　おおの【短期入所生活介護】岐阜県揖斐郡大野町黒野190番地1", "url": "https://www.kaigokensaku.mhlw.go.jp/21/index.php?action_kouhyou_detail_004_kani=true&JigyosyoCd=2172601151-00&ServiceCd=210&Type=search", "url2": "http://plaza21oono.jp/st-care" }, "geometry": { "type": "Point", "coordinates": [ 136.630707, 35.4668395 ] } },
{ "type": "Feature", "properties": { "内容": "サンビレッジ新生苑【短期入所生活介護】岐阜県揖斐郡池田町本郷１５０１", "url": "https://www.kaigokensaku.mhlw.go.jp/21/index.php?action_kouhyou_detail_004_kani=true&JigyosyoCd=2172600070-00&ServiceCd=210&Type=search", "url2": "https://www.sun-village.jp/" }, "geometry": { "type": "Point", "coordinates": [ 136.575547799999981, 35.4440335 ] } },
{ "type": "Feature", "properties": { "内容": "リハビリセンター白鳥【短期入所生活介護】岐阜県揖斐郡池田町白鳥386番地", "url": "https://www.kaigokensaku.mhlw.go.jp/21/index.php?action_kouhyou_detail_004_kani=true&JigyosyoCd=2172601177-00&ServiceCd=210&Type=search", "url2": "https://www.sun-village.jp/" }, "geometry": { "type": "Point", "coordinates": [ 136.590962204128147, 35.444786017971047 ] } },
{ "type": "Feature", "properties": { "内容": "特別養護老人ホーム　ナーシングケア北方【短期入所生活介護】岐阜県本巣郡北方町柱本白坪2丁目3番地", "url": "https://www.kaigokensaku.mhlw.go.jp/21/index.php?action_kouhyou_detail_004_kani=true&JigyosyoCd=2170700658-00&ServiceCd=210&Type=search", "url2": "https://www.wakokai.or.jp/search/nursing/nursingcare-kitagata" }, "geometry": { "type": "Point", "coordinates": [ 136.694776090213054, 35.427009109695263 ] } },
{ "type": "Feature", "properties": { "内容": "ショートステイとみか【短期入所生活介護】岐阜県加茂郡富加町大平賀1495-1", "url": "https://www.kaigokensaku.mhlw.go.jp/21/index.php?action_kouhyou_detail_004_kani=true&JigyosyoCd=2171300953-00&ServiceCd=210&Type=search", "url2": "http://miwakai.or.jp" }, "geometry": { "type": "Point", "coordinates": [ 136.95865280000001, 35.4993725 ] } },
{ "type": "Feature", "properties": { "内容": "特別養護老人ホームさわやかナーシング川辺【短期入所生活介護】岐阜県加茂郡川辺町上川辺930-1", "url": "https://www.kaigokensaku.mhlw.go.jp/21/index.php?action_kouhyou_detail_004_kani=true&JigyosyoCd=2171300151-00&ServiceCd=210&Type=search", "url2": "http://www.jikeikai-sawayaka.jp/" }, "geometry": { "type": "Point", "coordinates": [ 137.080407199999968, 35.5125789 ] } },
{ "type": "Feature", "properties": { "内容": "特別養護老人ホーム敬和園【短期入所生活介護】岐阜県加茂郡八百津町伊岐津志2053-1", "url": "https://www.kaigokensaku.mhlw.go.jp/21/index.php?action_kouhyou_detail_004_kani=true&JigyosyoCd=2171300169-00&ServiceCd=210&Type=search", "url2": "https://www.souwa-kai.jp/" }, "geometry": { "type": "Point", "coordinates": [ 137.128172169656892, 35.471927272883114 ] } },
{ "type": "Feature", "properties": { "内容": "特別養護老人ホームサンシャイン美濃白川【短期入所生活介護】岐阜県加茂郡白川町坂ノ東5500-1", "url": "https://www.kaigokensaku.mhlw.go.jp/21/index.php?action_kouhyou_detail_004_kani=true&JigyosyoCd=2171301027-00&ServiceCd=210&Type=search", "url2": "https://shirakawa-shakyo.or.jp" }, "geometry": { "type": "Point", "coordinates": [ 137.1661694, 35.60287 ] } },
{ "type": "Feature", "properties": { "内容": "特別養護老人ホーム　さわやかナーシングみたけ【短期入所生活介護】岐阜県可児郡御嵩町井尻65番地1", "url": "https://www.kaigokensaku.mhlw.go.jp/21/index.php?action_kouhyou_detail_004_kani=true&JigyosyoCd=2171400134-00&ServiceCd=210&Type=search", "url2": "http:/www.jikeikai-sawayaka.jp" }, "geometry": { "type": "Point", "coordinates": [ 137.1483389, 35.4306906 ] } },
{ "type": "Feature", "properties": { "内容": "プルメリアⅢ【短期入所生活介護】岐阜県可児郡御嵩町上恵土951-1", "url": "https://www.kaigokensaku.mhlw.go.jp/21/index.php?action_kouhyou_detail_004_kani=true&JigyosyoCd=2171400274-00&ServiceCd=210&Type=search", "url2": "https://home-plumeria.jp/plumeria03/" }, "geometry": { "type": "Point", "coordinates": [ 137.073614945299596, 35.436353258239706 ] } },
{ "type": "Feature", "properties": { "内容": "瀬音さくら山荘ショートステイ事業所【短期入所生活介護】岐阜県大野郡白川村大字長瀬字小保木755-14", "url": "https://www.kaigokensaku.mhlw.go.jp/21/index.php?action_kouhyou_detail_004_kani=true&JigyosyoCd=2172900488-00&ServiceCd=210&Type=search", "url2": "https://iful-jikeikai.com/" }, "geometry": { "type": "Point", "coordinates": [ 136.906713491437614, 36.173713868634763 ] } }
]
}
