{
"type": "FeatureCollection",
"name": "geo_21_訪問入浴介護",
"crs": { "type": "name", "properties": { "name": "urn:ogc:def:crs:OGC:1.3:CRS84" } },
"features": [
{ "type": "Feature", "properties": { "内容": "岐阜市社会福祉協議会訪問入浴サービス【訪問入浴介護】岐阜県岐阜市西野町六丁目北町９番地２", "url": "https://www.kaigokensaku.mhlw.go.jp/21/index.php?action_kouhyou_detail_004_kani=true&JigyosyoCd=2170101634-00&ServiceCd=120&Type=search", "url2": "http://www.gifushi-shakyo.or.jp" }, "geometry": { "type": "Point", "coordinates": [ 136.749616207962163, 35.425179255557751 ] } },
{ "type": "Feature", "properties": { "内容": "パナソニックエイジフリーケアセンター岐阜茜部・訪問入浴【訪問入浴介護】岐阜県岐阜市茜部辰新1丁目15番", "url": "https://www.kaigokensaku.mhlw.go.jp/21/index.php?action_kouhyou_detail_004_kani=true&JigyosyoCd=2170102970-00&ServiceCd=120&Type=search", "url2": "https://panasonic.co.jp/paf/" }, "geometry": { "type": "Point", "coordinates": [ 136.761692410328692, 35.381729778460738 ] } },
{ "type": "Feature", "properties": { "内容": "株式会社　福祉の里　岐阜西営業所【訪問入浴介護】岐阜県岐阜市宇佐南3丁目6番20号", "url": "https://www.kaigokensaku.mhlw.go.jp/21/index.php?action_kouhyou_detail_004_kani=true&JigyosyoCd=2170103507-00&ServiceCd=120&Type=search", "url2": "https://www.fukushinosato.co.jp/facility/gifunishi.html" }, "geometry": { "type": "Point", "coordinates": [ 136.7341682, 35.39324 ] } },
{ "type": "Feature", "properties": { "内容": "株式会社福祉の里岐阜営業所【訪問入浴介護】岐阜県岐阜市水海道2-18-20", "url": "https://www.kaigokensaku.mhlw.go.jp/21/index.php?action_kouhyou_detail_004_kani=true&JigyosyoCd=2170101626-00&ServiceCd=120&Type=search", "url2": "http://www.fukushinosato.co.jp" }, "geometry": { "type": "Point", "coordinates": [ 136.808335299999953, 35.4112198 ] } },
{ "type": "Feature", "properties": { "内容": "ニチイケアセンター宇佐【訪問入浴介護】岐阜県岐阜市宇佐南4-16-8", "url": "https://www.kaigokensaku.mhlw.go.jp/21/index.php?action_kouhyou_detail_004_kani=true&JigyosyoCd=2170101667-00&ServiceCd=120&Type=search", "url2": "http://www.nichiigakkan.co.jp" }, "geometry": { "type": "Point", "coordinates": [ 136.7295729, 35.3934019 ] } },
{ "type": "Feature", "properties": { "内容": "アサヒサンクリーン在宅介護センター岐阜【訪問入浴介護】岐阜県岐阜市吉野町3-10ＳＵＮ・ＰＲＩＮＣＥＳＳ２階202", "url": "https://www.kaigokensaku.mhlw.go.jp/21/index.php?action_kouhyou_detail_004_kani=true&JigyosyoCd=2170110767-00&ServiceCd=120&Type=search", "url2": "http://www.asahi-sun-clean.co.jp" }, "geometry": { "type": "Point", "coordinates": [ 136.76093179999998, 35.4103888 ] } },
{ "type": "Feature", "properties": { "内容": "アサヒサンクリーン在宅介護センター岐阜北【訪問入浴介護】岐阜県岐阜市白菊町4丁目47番地1矢島事務所", "url": "https://www.kaigokensaku.mhlw.go.jp/21/index.php?action_kouhyou_detail_004_kani=true&JigyosyoCd=2170114397-00&ServiceCd=120&Type=search", "url2": "https://www.asahi-sun-clean.co.jp/" }, "geometry": { "type": "Point", "coordinates": [ 136.7362582, 35.4341582 ] } },
{ "type": "Feature", "properties": { "内容": "アースサポート大垣【訪問入浴介護】岐阜県大垣市錦町72番地", "url": "https://www.kaigokensaku.mhlw.go.jp/21/index.php?action_kouhyou_detail_004_kani=true&JigyosyoCd=2172101756-00&ServiceCd=120&Type=search", "url2": "https://www.earthsupport.co.jp/" }, "geometry": { "type": "Point", "coordinates": [ 136.620957099999941, 35.3661782 ] } },
{ "type": "Feature", "properties": { "内容": "アサヒサンクリーン在宅介護センター大垣【訪問入浴介護】岐阜県大垣市南若森町574-1南若森事務所　1階南若森事務所　1階", "url": "https://www.kaigokensaku.mhlw.go.jp/21/index.php?action_kouhyou_detail_004_kani=true&JigyosyoCd=2172102192-00&ServiceCd=120&Type=search", "url2": "http://www.asahi-sun-clean.co.jp/" }, "geometry": { "type": "Point", "coordinates": [ 136.6049213, 35.354581100000011 ] } },
{ "type": "Feature", "properties": { "内容": "訪問入浴ステーション　ハーブ【訪問入浴介護】岐阜県大垣市新田町２丁目２４番地１", "url": "https://www.kaigokensaku.mhlw.go.jp/21/index.php?action_kouhyou_detail_004_kani=true&JigyosyoCd=2172101509-00&ServiceCd=120&Type=search", "url2": "http://www.taiseikai.jp" }, "geometry": { "type": "Point", "coordinates": [ 136.622907409717527, 35.343470733215966 ] } },
{ "type": "Feature", "properties": { "内容": "高山市福祉サービス公社【訪問入浴介護】岐阜県高山市森下町１丁目２０８番地", "url": "https://www.kaigokensaku.mhlw.go.jp/21/index.php?action_kouhyou_detail_004_kani=true&JigyosyoCd=2172700243-00&ServiceCd=120&Type=search", "url2": "http://www.takayamakousya.jp/" }, "geometry": { "type": "Point", "coordinates": [ 137.259186499999942, 36.1319422 ] } },
{ "type": "Feature", "properties": { "内容": "アサヒサンクリーン在宅介護センター多治見【訪問入浴介護】岐阜県多治見市宮前町1-88-1アイモクビル1階", "url": "https://www.kaigokensaku.mhlw.go.jp/21/index.php?action_kouhyou_detail_004_kani=true&JigyosyoCd=2171101104-00&ServiceCd=120&Type=search", "url2": "http://www.asahi-sun-clean.co.jp" }, "geometry": { "type": "Point", "coordinates": [ 137.127861900794187, 35.336312915944191 ] } },
{ "type": "Feature", "properties": { "内容": "アサヒサンクリーン在宅介護センター関【訪問入浴介護】岐阜県関市辻井戸町１番地１１１プルミエール１０１", "url": "https://www.kaigokensaku.mhlw.go.jp/21/index.php?action_kouhyou_detail_004_kani=true&JigyosyoCd=2170200998-00&ServiceCd=120&Type=search", "url2": "http://www.asahi-sun-clean.co.jp" }, "geometry": { "type": "Point", "coordinates": [ 136.909892899999932, 35.4883914 ] } },
{ "type": "Feature", "properties": { "内容": "アサヒサンクリーン在宅介護センター中津川【訪問入浴介護】岐阜県中津川市中津川1296番地の1", "url": "https://www.kaigokensaku.mhlw.go.jp/21/index.php?action_kouhyou_detail_004_kani=true&JigyosyoCd=2171500107-00&ServiceCd=120&Type=search", "url2": "http:/www.asahi-sun-clean.co.jp" }, "geometry": { "type": "Point", "coordinates": [ 137.513589208688586, 35.498208264533417 ] } },
{ "type": "Feature", "properties": { "内容": "アースサポート中津川【訪問入浴介護】岐阜県中津川市栄町4番27号", "url": "https://www.kaigokensaku.mhlw.go.jp/21/index.php?action_kouhyou_detail_004_kani=true&JigyosyoCd=2171500800-00&ServiceCd=120&Type=search", "url2": "https://www.earthsupport.co.jp/" }, "geometry": { "type": "Point", "coordinates": [ 137.5045917, 35.5011325 ] } },
{ "type": "Feature", "properties": { "内容": "株式会社　emi-go【訪問入浴介護】岐阜県中津川市駒場1517-13", "url": "https://www.kaigokensaku.mhlw.go.jp/21/index.php?action_kouhyou_detail_004_kani=true&JigyosyoCd=2171501113-00&ServiceCd=120&Type=search", "url2": "oitati.com" }, "geometry": { "type": "Point", "coordinates": [ 137.48259680000001, 35.4889884 ] } },
{ "type": "Feature", "properties": { "内容": "株式会社福祉の里美濃営業所【訪問入浴介護】岐阜県美濃市松森５９５番地マツモリビル", "url": "https://www.kaigokensaku.mhlw.go.jp/21/index.php?action_kouhyou_detail_004_kani=true&JigyosyoCd=2170300293-00&ServiceCd=120&Type=search", "url2": null }, "geometry": { "type": "Point", "coordinates": [ 136.9085675, 35.5305799 ] } },
{ "type": "Feature", "properties": { "内容": "訪問入浴ママーズの湯【訪問入浴介護】岐阜県羽島市小熊町島２丁目１０２番地１", "url": "https://www.kaigokensaku.mhlw.go.jp/21/index.php?action_kouhyou_detail_004_kani=true&JigyosyoCd=2170400838-00&ServiceCd=120&Type=search", "url2": "http://hashimakikaku.com" }, "geometry": { "type": "Point", "coordinates": [ 136.706957099999954, 35.3338253 ] } },
{ "type": "Feature", "properties": { "内容": "アサヒサンクリーン在宅介護センター恵那【訪問入浴介護】岐阜県恵那市長島町正家1117-1", "url": "https://www.kaigokensaku.mhlw.go.jp/21/index.php?action_kouhyou_detail_004_kani=true&JigyosyoCd=2171700632-00&ServiceCd=120&Type=search", "url2": "http://www.asahi-sun-clean.co.jp" }, "geometry": { "type": "Point", "coordinates": [ 137.421626497528138, 35.450863508969903 ] } },
{ "type": "Feature", "properties": { "内容": "アサヒサンクリーン在宅介護センター美濃加茂【訪問入浴介護】岐阜県美濃加茂市太田町171ビクトリーマンション店舗1階102号室", "url": "https://www.kaigokensaku.mhlw.go.jp/21/index.php?action_kouhyou_detail_004_kani=true&JigyosyoCd=2171200443-00&ServiceCd=120&Type=search", "url2": "https://www.asahi-sun-clean.co.jp/" }, "geometry": { "type": "Point", "coordinates": [ 137.013761599999953, 35.4493303 ] } },
{ "type": "Feature", "properties": { "内容": "株式会社福祉の里　土岐営業所【訪問入浴介護】岐阜県土岐市土岐口中町3丁目９６番地", "url": "https://www.kaigokensaku.mhlw.go.jp/21/index.php?action_kouhyou_detail_004_kani=true&JigyosyoCd=2171800010-00&ServiceCd=120&Type=search", "url2": "https://www.fukushinosato.co.jp/facility/toki.html" }, "geometry": { "type": "Point", "coordinates": [ 137.175503379901102, 35.346830592240714 ] } },
{ "type": "Feature", "properties": { "内容": "アースサポート各務原【訪問入浴介護】岐阜県各務原市蘇原早苗町82番地", "url": "https://www.kaigokensaku.mhlw.go.jp/21/index.php?action_kouhyou_detail_004_kani=true&JigyosyoCd=2170501304-00&ServiceCd=120&Type=search", "url2": "http://www.earthsupport.co.jp" }, "geometry": { "type": "Point", "coordinates": [ 136.86277640000003, 35.40338 ] } },
{ "type": "Feature", "properties": { "内容": "アスケア訪問入浴各務原【訪問入浴介護】岐阜県各務原市蘇原新栄町３丁目38番地1", "url": "https://www.kaigokensaku.mhlw.go.jp/21/index.php?action_kouhyou_detail_004_kani=true&JigyosyoCd=2170501205-00&ServiceCd=120&Type=search", "url2": "http://www.asahi-sun-clean.co.jp/" }, "geometry": { "type": "Point", "coordinates": [ 136.869203287886563, 35.407890310365261 ] } },
{ "type": "Feature", "properties": { "内容": "アサヒサンクリーン在宅介護センター郡上【訪問入浴介護】岐阜県郡上市大和町徳永668-2", "url": "https://www.kaigokensaku.mhlw.go.jp/21/index.php?action_kouhyou_detail_004_kani=true&JigyosyoCd=2171000843-00&ServiceCd=120&Type=search", "url2": "https://www.asahi-sun-clean.co.jp/" }, "geometry": { "type": "Point", "coordinates": [ 136.901454300000012, 35.8092893 ] } }
]
}
