{
"type": "FeatureCollection",
"name": "geo_21_地域密着型介護老人福祉施設入所者生活介護",
"crs": { "type": "name", "properties": { "name": "urn:ogc:def:crs:OGC:1.3:CRS84" } },
"features": [
{ "type": "Feature", "properties": { "内容": "地域密着型介護老人福祉施設　シルバータウン岩井【地域密着型介護老人福祉施設入所者生活介護】岐阜県岐阜市岩井４丁目１０番１号", "url": "https://www.kaigokensaku.mhlw.go.jp/21/index.php?action_kouhyou_detail_004_kani=true&JigyosyoCd=2190102570-00&ServiceCd=540&Type=search", "url2": "http://miwakai.or.jp" }, "geometry": { "type": "Point", "coordinates": [ 136.82329, 35.4707066 ] } },
{ "type": "Feature", "properties": { "内容": "特別養護老人ホームやすらぎの里川部苑新館【地域密着型介護老人福祉施設入所者生活介護】岐阜県岐阜市川部３丁目１９番地１", "url": "https://www.kaigokensaku.mhlw.go.jp/21/index.php?action_kouhyou_detail_004_kani=true&JigyosyoCd=2190102638-00&ServiceCd=540&Type=search", "url2": "http://www.care-kawabe.jp/" }, "geometry": { "type": "Point", "coordinates": [ 136.709655282556128, 35.435279235950077 ] } },
{ "type": "Feature", "properties": { "内容": "あんずの里【地域密着型介護老人福祉施設入所者生活介護】岐阜県岐阜市則松2丁目10番地", "url": "https://www.kaigokensaku.mhlw.go.jp/21/index.php?action_kouhyou_detail_004_kani=true&JigyosyoCd=2190103719-00&ServiceCd=540&Type=search", "url2": "http://www.inoguchikai.jp/" }, "geometry": { "type": "Point", "coordinates": [ 136.699124280395523, 35.488102048116865 ] } },
{ "type": "Feature", "properties": { "内容": "特別養護老人ホーム　ケアコート徹明通り【地域密着型介護老人福祉施設入所者生活介護】岐阜県岐阜市徹明通六丁目１４番", "url": "https://www.kaigokensaku.mhlw.go.jp/21/index.php?action_kouhyou_detail_004_kani=true&JigyosyoCd=2190103883-00&ServiceCd=540&Type=search", "url2": "https://tomoikikai.net" }, "geometry": { "type": "Point", "coordinates": [ 136.749984724606293, 35.417808818905833 ] } },
{ "type": "Feature", "properties": { "内容": "地域密着型介護老人福祉施設ばーむ【地域密着型介護老人福祉施設入所者生活介護】岐阜県岐阜市鏡島南1丁目2番30号", "url": "https://www.kaigokensaku.mhlw.go.jp/21/index.php?action_kouhyou_detail_004_kani=true&JigyosyoCd=2190104022-00&ServiceCd=540&Type=search", "url2": "http://www.koukikai.gr.jp" }, "geometry": { "type": "Point", "coordinates": [ 136.717114141833491, 35.40747591382285 ] } },
{ "type": "Feature", "properties": { "内容": "地域密着型特別養護老人ホーム第２大洞岐協苑【地域密着型介護老人福祉施設入所者生活介護】岐阜県岐阜市大洞紅葉が丘６丁目22番地47", "url": "https://www.kaigokensaku.mhlw.go.jp/21/index.php?action_kouhyou_detail_004_kani=true&JigyosyoCd=2190104253-00&ServiceCd=540&Type=search", "url2": "http://www.gikyoen.jp/" }, "geometry": { "type": "Point", "coordinates": [ 136.874613758766174, 35.461271920813275 ] } },
{ "type": "Feature", "properties": { "内容": "長森いきいき俱楽部ラシック特別養護老人ホーム【地域密着型介護老人福祉施設入所者生活介護】岐阜県岐阜市北一色10-38-1", "url": "https://www.kaigokensaku.mhlw.go.jp/21/index.php?action_kouhyou_detail_004_kani=true&JigyosyoCd=2190104287-00&ServiceCd=540&Type=search", "url2": "https://www.koukeikai.jp/" }, "geometry": { "type": "Point", "coordinates": [ 136.794187624467469, 35.409114344384193 ] } },
{ "type": "Feature", "properties": { "内容": "特別養護老人ホームサンビレッジ大垣【地域密着型介護老人福祉施設入所者生活介護】岐阜県大垣市北方町5丁目35番地", "url": "https://www.kaigokensaku.mhlw.go.jp/21/index.php?action_kouhyou_detail_004_kani=true&JigyosyoCd=2172101343-00&ServiceCd=540&Type=search", "url2": "https:/www.sun-village.jp/" }, "geometry": { "type": "Point", "coordinates": [ 136.620567193392958, 35.397456683538174 ] } },
{ "type": "Feature", "properties": { "内容": "特別養護老人ホーム　ハーモニー【地域密着型介護老人福祉施設入所者生活介護】岐阜県大垣市上石津町三ツ里660番地", "url": "https://www.kaigokensaku.mhlw.go.jp/21/index.php?action_kouhyou_detail_004_kani=true&JigyosyoCd=2192100200-00&ServiceCd=540&Type=search", "url2": "http://midorinosato-h.com/" }, "geometry": { "type": "Point", "coordinates": [ 136.46277269999996, 35.2794737 ] } },
{ "type": "Feature", "properties": { "内容": "地域密着型特別養護老人ホーム　優心苑【地域密着型介護老人福祉施設入所者生活介護】岐阜県大垣市矢道町1丁目255番地1", "url": "https://www.kaigokensaku.mhlw.go.jp/21/index.php?action_kouhyou_detail_004_kani=true&JigyosyoCd=2192100499-00&ServiceCd=540&Type=search", "url2": "https://seishinkai.heart-gp.org/" }, "geometry": { "type": "Point", "coordinates": [ 136.560399812966921, 35.372737231673739 ] } },
{ "type": "Feature", "properties": { "内容": "小規模特別養護老人ホーム　エバーグリーン【地域密着型介護老人福祉施設入所者生活介護】岐阜県多治見市小名田町西ヶ洞1-325", "url": "https://www.kaigokensaku.mhlw.go.jp/21/index.php?action_kouhyou_detail_004_kani=true&JigyosyoCd=2191100136-00&ServiceCd=540&Type=search", "url2": "http://www.i-jinjukai.or.jp/evergreen/" }, "geometry": { "type": "Point", "coordinates": [ 137.117542491540434, 35.366062360224447 ] } },
{ "type": "Feature", "properties": { "内容": "地域密着型特別養護老人ホーム浩養園【地域密着型介護老人福祉施設入所者生活介護】岐阜県多治見市京町六丁目13番地の2", "url": "https://www.kaigokensaku.mhlw.go.jp/21/index.php?action_kouhyou_detail_004_kani=true&JigyosyoCd=2191100144-00&ServiceCd=540&Type=search", "url2": "http://www.care-net.biz/21/kouyouen/" }, "geometry": { "type": "Point", "coordinates": [ 137.125418288885498, 35.325430050930741 ] } },
{ "type": "Feature", "properties": { "内容": "小規模特別養護老人ホーム　ハートシティ中濃の杜【地域密着型介護老人福祉施設入所者生活介護】岐阜県関市富之保4096-1", "url": "https://www.kaigokensaku.mhlw.go.jp/21/index.php?action_kouhyou_detail_004_kani=true&JigyosyoCd=2190200176-00&ServiceCd=540&Type=search", "url2": null }, "geometry": { "type": "Point", "coordinates": [ 137.021872329946888, 35.589952015454251 ] } },
{ "type": "Feature", "properties": { "内容": "特別養護老人ホームほほえみ福寿の家【地域密着型介護老人福祉施設入所者生活介護】岐阜県関市稲口845番地", "url": "https://www.kaigokensaku.mhlw.go.jp/21/index.php?action_kouhyou_detail_004_kani=true&JigyosyoCd=2190200192-00&ServiceCd=540&Type=search", "url2": "https://www.hohoemi.or.jp" }, "geometry": { "type": "Point", "coordinates": [ 136.9268002, 35.4699162 ] } },
{ "type": "Feature", "properties": { "内容": "地域密着型特別養護老人ホーム　千寿の里　西小田【地域密着型介護老人福祉施設入所者生活介護】岐阜県瑞浪市西小田町3-221", "url": "https://www.kaigokensaku.mhlw.go.jp/21/index.php?action_kouhyou_detail_004_kani=true&JigyosyoCd=2191600044-00&ServiceCd=540&Type=search", "url2": "http://www.senjyukai.or.jp/" }, "geometry": { "type": "Point", "coordinates": [ 137.233477599999986, 35.3589038 ] } },
{ "type": "Feature", "properties": { "内容": "地域密着型特別養護老人ホームほしの家【地域密着型介護老人福祉施設入所者生活介護】岐阜県土岐市泉町久尻2431-150", "url": "https://www.kaigokensaku.mhlw.go.jp/21/index.php?action_kouhyou_detail_004_kani=true&JigyosyoCd=2191800057-00&ServiceCd=540&Type=search", "url2": "http://holy-cross.sakura.ne.jp/star-house/" }, "geometry": { "type": "Point", "coordinates": [ 137.15614872229844, 35.370853596582243 ] } },
{ "type": "Feature", "properties": { "内容": "とき陶生苑　ききょう【地域密着型介護老人福祉施設入所者生活介護】岐阜県土岐市駄知町1858-2", "url": "https://www.kaigokensaku.mhlw.go.jp/21/index.php?action_kouhyou_detail_004_kani=true&JigyosyoCd=2191880067-00&ServiceCd=540&Type=search", "url2": null }, "geometry": { "type": "Point", "coordinates": [ 137.2231646, 35.3289763 ] } },
{ "type": "Feature", "properties": { "内容": "地域密着型特別養護老人ホーム　オーク【地域密着型介護老人福祉施設入所者生活介護】岐阜県各務原市那加前洞新町４丁目２２番地", "url": "https://www.kaigokensaku.mhlw.go.jp/21/index.php?action_kouhyou_detail_004_kani=true&JigyosyoCd=2190500179-00&ServiceCd=540&Type=search", "url2": "http://koujinkai-oak.com/" }, "geometry": { "type": "Point", "coordinates": [ 136.842945099999952, 35.4091538 ] } },
{ "type": "Feature", "properties": { "内容": "地域密着型特別養護老人ホーム　メゾンペイネ【地域密着型介護老人福祉施設入所者生活介護】岐阜県各務原市鵜沼各務原町９丁目１９５番地", "url": "https://www.kaigokensaku.mhlw.go.jp/21/index.php?action_kouhyou_detail_004_kani=true&JigyosyoCd=2190500096-00&ServiceCd=540&Type=search", "url2": "http://www.phoenix-g.jp" }, "geometry": { "type": "Point", "coordinates": [ 136.911569500000041, 35.3968069 ] } },
{ "type": "Feature", "properties": { "内容": "特別養護老人ホーム　サフィールそはら【地域密着型介護老人福祉施設入所者生活介護】岐阜県各務原市蘇原六軒町３丁目６番地", "url": "https://www.kaigokensaku.mhlw.go.jp/21/index.php?action_kouhyou_detail_004_kani=true&JigyosyoCd=2190500203-00&ServiceCd=540&Type=search", "url2": "http://syuseikai.com/sohara/" }, "geometry": { "type": "Point", "coordinates": [ 136.863642828836049, 35.400318635406656 ] } },
{ "type": "Feature", "properties": { "内容": "地域密着型特別養護老人ホーム　サフィールいなは【地域密着型介護老人福祉施設入所者生活介護】岐阜県各務原市上戸町１丁目53番地", "url": "https://www.kaigokensaku.mhlw.go.jp/21/index.php?action_kouhyou_detail_004_kani=true&JigyosyoCd=2190500237-00&ServiceCd=540&Type=search", "url2": "http://syuseikai.com/inaha/" }, "geometry": { "type": "Point", "coordinates": [ 136.846791237052571, 35.384455600854409 ] } },
{ "type": "Feature", "properties": { "内容": "地域密着型特別養護老人ホームDANKE【地域密着型介護老人福祉施設入所者生活介護】岐阜県各務原市鵜沼羽場町3丁目35番地1", "url": "https://www.kaigokensaku.mhlw.go.jp/21/index.php?action_kouhyou_detail_004_kani=true&JigyosyoCd=2190500245-00&ServiceCd=540&Type=search", "url2": "http://www.phoenix-g.jp" }, "geometry": { "type": "Point", "coordinates": [ 136.9169799, 35.4034537 ] } },
{ "type": "Feature", "properties": { "内容": "地域密着型特別養護老人ホーム　夢【地域密着型介護老人福祉施設入所者生活介護】岐阜県各務原市蘇原東栄町2丁目88番地", "url": "https://www.kaigokensaku.mhlw.go.jp/21/index.php?action_kouhyou_detail_004_kani=true&JigyosyoCd=2190500260-00&ServiceCd=540&Type=search", "url2": "http://www.touei-k.or.jp/" }, "geometry": { "type": "Point", "coordinates": [ 136.874145786646977, 35.408147276821296 ] } },
{ "type": "Feature", "properties": { "内容": "地域密着型特別養護老人ホーム　笑顔いちばんの家【地域密着型介護老人福祉施設入所者生活介護】岐阜県各務原市鵜沼羽場町8丁目5番１", "url": "https://www.kaigokensaku.mhlw.go.jp/21/index.php?action_kouhyou_detail_004_kani=true&JigyosyoCd=2190500492-00&ServiceCd=540&Type=search", "url2": "https://egao1ban.or.jp" }, "geometry": { "type": "Point", "coordinates": [ 136.9210314, 35.3965586 ] } },
{ "type": "Feature", "properties": { "内容": "地域密着型特別養護老人ホーム　あおぞら【地域密着型介護老人福祉施設入所者生活介護】岐阜県可児市矢戸67番", "url": "https://www.kaigokensaku.mhlw.go.jp/21/index.php?action_kouhyou_detail_004_kani=true&JigyosyoCd=2193100076-00&ServiceCd=540&Type=search", "url2": "http://www.fujinokai.com/" }, "geometry": { "type": "Point", "coordinates": [ 137.022721547885084, 35.399143400177806 ] } },
{ "type": "Feature", "properties": { "内容": "地域密着型特別養護老人ホーム　フラワーコート【地域密着型介護老人福祉施設入所者生活介護】岐阜県可児市下恵土5607", "url": "https://www.kaigokensaku.mhlw.go.jp/21/index.php?action_kouhyou_detail_004_kani=true&JigyosyoCd=2193100183-00&ServiceCd=540&Type=search", "url2": "http://www.fujinokai.com/" }, "geometry": { "type": "Point", "coordinates": [ 137.050677605239315, 35.418034570677875 ] } },
{ "type": "Feature", "properties": { "内容": "特別養護老人ホーム　夢眠かに【地域密着型介護老人福祉施設入所者生活介護】岐阜県可児市今渡1619-137", "url": "https://www.kaigokensaku.mhlw.go.jp/21/index.php?action_kouhyou_detail_004_kani=true&JigyosyoCd=2193100159-00&ServiceCd=540&Type=search", "url2": "http://kinkousya.jp" }, "geometry": { "type": "Point", "coordinates": [ 137.051189099999988, 35.4337947 ] } },
{ "type": "Feature", "properties": { "内容": "特別養護老人ホーム　椿野苑【地域密着型介護老人福祉施設入所者生活介護】岐阜県山県市大桑３６１５番地１", "url": "https://www.kaigokensaku.mhlw.go.jp/21/index.php?action_kouhyou_detail_004_kani=true&JigyosyoCd=2190800066-00&ServiceCd=540&Type=search", "url2": "http://www.douhoukai.com/" }, "geometry": { "type": "Point", "coordinates": [ 136.769015800000034, 35.5497018 ] } },
{ "type": "Feature", "properties": { "内容": "特別養護老人ホームほづみ園【地域密着型介護老人福祉施設入所者生活介護】岐阜県瑞穂市宝江５７６－１", "url": "https://www.kaigokensaku.mhlw.go.jp/21/index.php?action_kouhyou_detail_004_kani=true&JigyosyoCd=2193200066-00&ServiceCd=540&Type=search", "url2": "https://www.sinwakai-hozumien.jp/" }, "geometry": { "type": "Point", "coordinates": [ 136.671236200000067, 35.370842 ] } },
{ "type": "Feature", "properties": { "内容": "地域密着型特別養護老人ホーム　さくらの郷あさぎり【地域密着型介護老人福祉施設入所者生活介護】岐阜県飛騨市古川町杉崎597-1", "url": "https://www.kaigokensaku.mhlw.go.jp/21/index.php?action_kouhyou_detail_004_kani=true&JigyosyoCd=2193300023-00&ServiceCd=540&Type=search", "url2": "http://www.sakura-asagiri.com" }, "geometry": { "type": "Point", "coordinates": [ 137.157161299999984, 36.2529528 ] } },
{ "type": "Feature", "properties": { "内容": "ほたるの里　千手【地域密着型介護老人福祉施設入所者生活介護】岐阜県本巣市曽井中島1698-1", "url": "https://www.kaigokensaku.mhlw.go.jp/21/index.php?action_kouhyou_detail_004_kani=true&JigyosyoCd=2193400062-00&ServiceCd=540&Type=search", "url2": "https://www.keibokukai.com/" }, "geometry": { "type": "Point", "coordinates": [ 136.67563547066959, 35.476725076551865 ] } },
{ "type": "Feature", "properties": { "内容": "もとす広域連合老人福祉施設大和園【地域密着型介護老人福祉施設入所者生活介護】岐阜県本巣市曽井中島1156-4", "url": "https://www.kaigokensaku.mhlw.go.jp/21/index.php?action_kouhyou_detail_004_kani=true&JigyosyoCd=2193400070-00&ServiceCd=540&Type=search", "url2": "https://www.motosu-union.gifu.jp/welfare" }, "geometry": { "type": "Point", "coordinates": [ 136.665479499999947, 35.4826454 ] } },
{ "type": "Feature", "properties": { "内容": "馬瀬特別養護老人ホームいきいき【地域密着型介護老人福祉施設入所者生活介護】岐阜県下呂市馬瀬惣島１５１８番地粋いき・馬瀬の元気館", "url": "https://www.kaigokensaku.mhlw.go.jp/21/index.php?action_kouhyou_detail_004_kani=true&JigyosyoCd=2192800056-00&ServiceCd=540&Type=search", "url2": "http://koukeikai.jp" }, "geometry": { "type": "Point", "coordinates": [ 137.185197300000027, 35.8398168 ] } },
{ "type": "Feature", "properties": { "内容": "地域密着型特別養護老人ホーム長寿の里・海津【地域密着型介護老人福祉施設入所者生活介護】岐阜県海津市南濃町境70-1", "url": "https://www.kaigokensaku.mhlw.go.jp/21/index.php?action_kouhyou_detail_004_kani=true&JigyosyoCd=2192200042-00&ServiceCd=540&Type=search", "url2": "http://www.aisankai.jp/" }, "geometry": { "type": "Point", "coordinates": [ 136.643405960461763, 35.157556636077558 ] } },
{ "type": "Feature", "properties": { "内容": "地域密着型特別養護老人ホーム　かいさいの華【地域密着型介護老人福祉施設入所者生活介護】岐阜県海津市平田町野寺1092番地の1", "url": "https://www.kaigokensaku.mhlw.go.jp/21/index.php?action_kouhyou_detail_004_kani=true&JigyosyoCd=2192200059-00&ServiceCd=540&Type=search", "url2": "http://www.keibonokai.org" }, "geometry": { "type": "Point", "coordinates": [ 136.662304450617967, 35.272825974535003 ] } },
{ "type": "Feature", "properties": { "内容": "地域密着型特別養護老人ホーム　たかすの華【地域密着型介護老人福祉施設入所者生活介護】岐阜県海津市海津町平原318-2", "url": "https://www.kaigokensaku.mhlw.go.jp/21/index.php?action_kouhyou_detail_004_kani=true&JigyosyoCd=2192200075-00&ServiceCd=540&Type=search", "url2": "http://www.keibonokai.org" }, "geometry": { "type": "Point", "coordinates": [ 136.630204400000025, 35.2288606 ] } },
{ "type": "Feature", "properties": { "内容": "特別養護老人ホームさくらの舞【地域密着型介護老人福祉施設入所者生活介護】岐阜県羽島郡岐南町徳田1丁目79番地", "url": "https://www.kaigokensaku.mhlw.go.jp/21/index.php?action_kouhyou_detail_004_kani=true&JigyosyoCd=2190600037-00&ServiceCd=540&Type=search", "url2": "https://sakurayuki.or.jp/" }, "geometry": { "type": "Point", "coordinates": [ 136.772169712751747, 35.388753179162393 ] } },
{ "type": "Feature", "properties": { "内容": "特別養護老人ホーム養老長屋【地域密着型介護老人福祉施設入所者生活介護】岐阜県養老郡養老町押越544-1", "url": "https://www.kaigokensaku.mhlw.go.jp/21/index.php?action_kouhyou_detail_004_kani=true&JigyosyoCd=2192300065-00&ServiceCd=540&Type=search", "url2": "https://yoshidakai-hp.com/yoshidakai/" }, "geometry": { "type": "Point", "coordinates": [ 136.554575333729531, 35.306187533935955 ] } },
{ "type": "Feature", "properties": { "内容": "特別養護老人ホーム　八幡の杜【地域密着型介護老人福祉施設入所者生活介護】岐阜県養老郡養老町押越466-1", "url": "https://www.kaigokensaku.mhlw.go.jp/21/index.php?action_kouhyou_detail_004_kani=true&JigyosyoCd=2192300073-00&ServiceCd=540&Type=search", "url2": null }, "geometry": { "type": "Point", "coordinates": [ 136.554387018888434, 35.30592485556604 ] } },
{ "type": "Feature", "properties": { "内容": "ほのぼのいぶき【地域密着型介護老人福祉施設入所者生活介護】岐阜県不破郡垂井町府中１９４７番地１", "url": "https://www.kaigokensaku.mhlw.go.jp/21/index.php?action_kouhyou_detail_004_kani=true&JigyosyoCd=2192400030-00&ServiceCd=540&Type=search", "url2": "https://www.ibukien.jp" }, "geometry": { "type": "Point", "coordinates": [ 136.520897263793159, 35.376512452391914 ] } },
{ "type": "Feature", "properties": { "内容": "地域密着型特別養護老人ホーム　りんどう【地域密着型介護老人福祉施設入所者生活介護】岐阜県安八郡神戸町北一色555-1", "url": "https://www.kaigokensaku.mhlw.go.jp/21/index.php?action_kouhyou_detail_004_kani=true&JigyosyoCd=2192500029-00&ServiceCd=540&Type=search", "url2": "https://zenshinkai.or.jp/" }, "geometry": { "type": "Point", "coordinates": [ 136.59437980000007, 35.4295966 ] } },
{ "type": "Feature", "properties": { "内容": "地域密着型特別養護老人ホーム　ラック【地域密着型介護老人福祉施設入所者生活介護】岐阜県安八郡神戸町北一色10番地", "url": "https://www.kaigokensaku.mhlw.go.jp/21/index.php?action_kouhyou_detail_004_kani=true&JigyosyoCd=2192500045-00&ServiceCd=540&Type=search", "url2": "http://www.zenshinkai.or.jp" }, "geometry": { "type": "Point", "coordinates": [ 136.586680699999988, 35.4287326 ] } },
{ "type": "Feature", "properties": { "内容": "特別養護老人ホーム　サンライズ長良【地域密着型介護老人福祉施設入所者生活介護】岐阜県安八郡安八町森部1875-1", "url": "https://www.kaigokensaku.mhlw.go.jp/21/index.php?action_kouhyou_detail_004_kani=true&JigyosyoCd=2192500037-00&ServiceCd=540&Type=search", "url2": "http://www14.plala.or.jp/sunrise-nagara/" }, "geometry": { "type": "Point", "coordinates": [ 136.676162893254059, 35.338910383982977 ] } },
{ "type": "Feature", "properties": { "内容": "地域密着型特別養護老人ホーム　ＩＢ【地域密着型介護老人福祉施設入所者生活介護】岐阜県揖斐郡揖斐川町長良657番地1", "url": "https://www.kaigokensaku.mhlw.go.jp/21/index.php?action_kouhyou_detail_004_kani=true&JigyosyoCd=2192600167-00&ServiceCd=540&Type=search", "url2": "http://www.plaza21oono.jp/IB/index.html" }, "geometry": { "type": "Point", "coordinates": [ 136.584381195105948, 35.474582842322405 ] } },
{ "type": "Feature", "properties": { "内容": "地域密着型特別養護老人ホーム桜坂【地域密着型介護老人福祉施設入所者生活介護】岐阜県揖斐郡大野町野479番地1", "url": "https://www.kaigokensaku.mhlw.go.jp/21/index.php?action_kouhyou_detail_004_kani=true&JigyosyoCd=2192600050-00&ServiceCd=540&Type=search", "url2": "http://www.plaza21oono.jp/sakurazaka/" }, "geometry": { "type": "Point", "coordinates": [ 136.615677, 35.485448 ] } },
{ "type": "Feature", "properties": { "内容": "地域密着型特別養護老人ホーム　セント・ケア　おおの【地域密着型介護老人福祉施設入所者生活介護】岐阜県揖斐郡大野町黒野190番地1", "url": "https://www.kaigokensaku.mhlw.go.jp/21/index.php?action_kouhyou_detail_004_kani=true&JigyosyoCd=2192600159-00&ServiceCd=540&Type=search", "url2": "http://plaza21oono.jp/st-care" }, "geometry": { "type": "Point", "coordinates": [ 136.630707, 35.4668395 ] } },
{ "type": "Feature", "properties": { "内容": "地域密着型特別養護老人ホーム　夢眠【地域密着型介護老人福祉施設入所者生活介護】岐阜県加茂郡八百津町久田見４０４４番地２夢眠　（竜胆・桜・水仙ユニット）", "url": "https://www.kaigokensaku.mhlw.go.jp/21/index.php?action_kouhyou_detail_004_kani=true&JigyosyoCd=2191300090-00&ServiceCd=540&Type=search", "url2": "https://kinkousya.jp/" }, "geometry": { "type": "Point", "coordinates": [ 137.197967652755409, 35.511437795132203 ] } },
{ "type": "Feature", "properties": { "内容": "地域密着型特別養護老人ホームサンシャイン美濃白川【地域密着型介護老人福祉施設入所者生活介護】岐阜県加茂郡白川町坂ノ東5500-1", "url": "https://www.kaigokensaku.mhlw.go.jp/21/index.php?action_kouhyou_detail_004_kani=true&JigyosyoCd=2191301056-00&ServiceCd=540&Type=search", "url2": "https://shirakawa-shakyo.or.jp" }, "geometry": { "type": "Point", "coordinates": [ 137.166188175463077, 35.602538513460793 ] } },
{ "type": "Feature", "properties": { "内容": "地域密着型特別養護老人ホームあいらんど美濃白川【地域密着型介護老人福祉施設入所者生活介護】岐阜県加茂郡白川町河岐2-4", "url": "https://www.kaigokensaku.mhlw.go.jp/21/index.php?action_kouhyou_detail_004_kani=true&JigyosyoCd=2191301072-00&ServiceCd=540&Type=search", "url2": "https://shirakawa-shakyo.or.jp" }, "geometry": { "type": "Point", "coordinates": [ 137.159856252114878, 35.600902992145642 ] } },
{ "type": "Feature", "properties": { "内容": "ひだ白川郷高齢者福祉施設　瀬音さくら山荘【地域密着型介護老人福祉施設入所者生活介護】岐阜県大野郡白川村大字長瀬７５５番地１", "url": "https://www.kaigokensaku.mhlw.go.jp/21/index.php?action_kouhyou_detail_004_kani=true&JigyosyoCd=2192900013-00&ServiceCd=540&Type=search", "url2": "https://iful-jikeikai.com/" }, "geometry": { "type": "Point", "coordinates": [ 136.906717748983453, 36.173706270257341 ] } }
]
}
