{
"type": "FeatureCollection",
"name": "geo_21_高校",
"crs": { "type": "name", "properties": { "name": "urn:ogc:def:crs:EPSG::6668" } },
"features": [
{ "type": "Feature", "properties": { "P29_001": "21201", "P29_002": "D121220100018", "P29_003": "16004", "P29_004": "岐阜県立岐阜高等学校", "P29_005": "岐阜県岐阜市大縄場3-1", "P29_006": "2", "P29_007": "0", "P29_008": "00", "P29_009": null }, "geometry": { "type": "Point", "coordinates": [ 136.746551859459117, 35.42512862583591 ] } },
{ "type": "Feature", "properties": { "P29_001": "21201", "P29_002": "D121220100027", "P29_003": "16004", "P29_004": "岐阜県立岐阜北高等学校", "P29_005": "岐阜県岐阜市則武字清水1841-11", "P29_006": "2", "P29_007": "0", "P29_008": "00", "P29_009": null }, "geometry": { "type": "Point", "coordinates": [ 136.748945123107802, 35.437284232915111 ] } },
{ "type": "Feature", "properties": { "P29_001": "21201", "P29_002": "D121220100036", "P29_003": "16004", "P29_004": "岐阜県立長良高等学校", "P29_005": "岐阜県岐阜市長良西後町1716-1", "P29_006": "2", "P29_007": "0", "P29_008": "00", "P29_009": null }, "geometry": { "type": "Point", "coordinates": [ 136.781074995627648, 35.446913995636613 ] } },
{ "type": "Feature", "properties": { "P29_001": "21201", "P29_002": "D121220100045", "P29_003": "16004", "P29_004": "岐阜県立岐山高等学校", "P29_005": "岐阜県岐阜市長良小山田2587-1", "P29_006": "2", "P29_007": "0", "P29_008": "00", "P29_009": null }, "geometry": { "type": "Point", "coordinates": [ 136.779985266509271, 35.457236769929587 ] } },
{ "type": "Feature", "properties": { "P29_001": "21201", "P29_002": "D121220100054", "P29_003": "16004", "P29_004": "岐阜県立加納高等学校", "P29_005": "岐阜県岐阜市加納南陽町3-17", "P29_006": "2", "P29_007": "0", "P29_008": "00", "P29_009": null }, "geometry": { "type": "Point", "coordinates": [ 136.750231463089193, 35.398159130999701 ] } },
{ "type": "Feature", "properties": { "P29_001": "21201", "P29_002": "D121220100063", "P29_003": "16004", "P29_004": "岐阜県立羽島北高等学校", "P29_005": "岐阜県岐阜市柳津町北塚3-110", "P29_006": "2", "P29_007": "0", "P29_008": "00", "P29_009": null }, "geometry": { "type": "Point", "coordinates": [ 136.735243556595577, 35.370425231261954 ] } },
{ "type": "Feature", "properties": { "P29_001": "21201", "P29_002": "D121220100072", "P29_003": "16004", "P29_004": "岐阜県立岐阜総合学園高等学校", "P29_005": "岐阜県岐阜市須賀2-7-25", "P29_006": "2", "P29_007": "0", "P29_008": "00", "P29_009": null }, "geometry": { "type": "Point", "coordinates": [ 136.721028579254948, 35.383955433078647 ] } },
{ "type": "Feature", "properties": { "P29_001": "21201", "P29_002": "D121220100081", "P29_003": "16004", "P29_004": "岐阜県立岐阜城北高等学校", "P29_005": "岐阜県岐阜市三田洞465-1", "P29_006": "2", "P29_007": "0", "P29_008": "00", "P29_009": null }, "geometry": { "type": "Point", "coordinates": [ 136.788268002208184, 35.477716003883764 ] } },
{ "type": "Feature", "properties": { "P29_001": "21201", "P29_002": "D121220100090", "P29_003": "16004", "P29_004": "岐阜県立岐阜商業高等学校", "P29_005": "岐阜県岐阜市則武新屋敷1816-6", "P29_006": "2", "P29_007": "0", "P29_008": "00", "P29_009": null }, "geometry": { "type": "Point", "coordinates": [ 136.752268935734236, 35.439309597803039 ] } },
{ "type": "Feature", "properties": { "P29_001": "21201", "P29_002": "D121220100107", "P29_003": "16004", "P29_004": "岐阜県立岐南工業高等学校", "P29_005": "岐阜県岐阜市本荘3456-19", "P29_006": "2", "P29_007": "0", "P29_008": "00", "P29_009": null }, "geometry": { "type": "Point", "coordinates": [ 136.730614185491874, 35.4052189871989 ] } },
{ "type": "Feature", "properties": { "P29_001": "21201", "P29_002": "D121220100116", "P29_003": "16004", "P29_004": "岐阜県立華陽フロンティア高等学校", "P29_005": "岐阜県岐阜市西鶉6-69", "P29_006": "2", "P29_007": "0", "P29_008": "00", "P29_009": null }, "geometry": { "type": "Point", "coordinates": [ 136.7196851184666, 35.378305741739538 ] } },
{ "type": "Feature", "properties": { "P29_001": "21201", "P29_002": "D121220100125", "P29_003": "16004", "P29_004": "岐阜市立岐阜商業高等学校", "P29_005": "岐阜県岐阜市鏡島南2-7-1", "P29_006": "3", "P29_007": "0", "P29_008": "00", "P29_009": null }, "geometry": { "type": "Point", "coordinates": [ 136.715903284549313, 35.405569522068113 ] } },
{ "type": "Feature", "properties": { "P29_001": "21202", "P29_002": "D121220200017", "P29_003": "16004", "P29_004": "岐阜県立大垣北高等学校", "P29_005": "岐阜県大垣市中川町4-110-1", "P29_006": "2", "P29_007": "0", "P29_008": "00", "P29_009": null }, "geometry": { "type": "Point", "coordinates": [ 136.620790004389477, 35.383309003105431 ] } },
{ "type": "Feature", "properties": { "P29_001": "21202", "P29_002": "D121220200026", "P29_003": "16004", "P29_004": "岐阜県立大垣南高等学校", "P29_005": "岐阜県大垣市浅中2-69", "P29_006": "2", "P29_007": "0", "P29_008": "00", "P29_009": null }, "geometry": { "type": "Point", "coordinates": [ 136.604640043363844, 35.311432174140435 ] } },
{ "type": "Feature", "properties": { "P29_001": "21202", "P29_002": "D121220200035", "P29_003": "16004", "P29_004": "岐阜県立大垣東高等学校", "P29_005": "岐阜県大垣市美和町1784", "P29_006": "2", "P29_007": "0", "P29_008": "00", "P29_009": null }, "geometry": { "type": "Point", "coordinates": [ 136.617386326641679, 35.353179590726882 ] } },
{ "type": "Feature", "properties": { "P29_001": "21202", "P29_002": "D121220200044", "P29_003": "16004", "P29_004": "岐阜県立大垣西高等学校", "P29_005": "岐阜県大垣市中曽根町大畔147-1", "P29_006": "2", "P29_007": "0", "P29_008": "00", "P29_009": null }, "geometry": { "type": "Point", "coordinates": [ 136.57666981418231, 35.356033652036992 ] } },
{ "type": "Feature", "properties": { "P29_001": "21202", "P29_002": "D121220200053", "P29_003": "16004", "P29_004": "岐阜県立大垣商業高等学校", "P29_005": "岐阜県大垣市開発町4-300", "P29_006": "2", "P29_007": "0", "P29_008": "00", "P29_009": null }, "geometry": { "type": "Point", "coordinates": [ 136.640235431955119, 35.377125220247763 ] } },
{ "type": "Feature", "properties": { "P29_001": "21202", "P29_002": "D121220200062", "P29_003": "16004", "P29_004": "岐阜県立大垣工業高等学校", "P29_005": "岐阜県大垣市南若森町301-1", "P29_006": "2", "P29_007": "0", "P29_008": "00", "P29_009": null }, "geometry": { "type": "Point", "coordinates": [ 136.604809495595219, 35.350521158618157 ] } },
{ "type": "Feature", "properties": { "P29_001": "21202", "P29_002": "D121220200071", "P29_003": "16004", "P29_004": "岐阜県立大垣桜高等学校", "P29_005": "岐阜県大垣市墨俣町上宿465-1", "P29_006": "2", "P29_007": "0", "P29_008": "00", "P29_009": null }, "geometry": { "type": "Point", "coordinates": [ 136.680709841101049, 35.359775800913035 ] } },
{ "type": "Feature", "properties": { "P29_001": "21203", "P29_002": "D121220300016", "P29_003": "16004", "P29_004": "岐阜県立斐太高等学校", "P29_005": "岐阜県高山市三福寺町736", "P29_006": "2", "P29_007": "0", "P29_008": "00", "P29_009": null }, "geometry": { "type": "Point", "coordinates": [ 137.258482996357429, 36.157035997728954 ] } },
{ "type": "Feature", "properties": { "P29_001": "21203", "P29_002": "D121220300025", "P29_003": "16004", "P29_004": "岐阜県立飛騨高山高等学校", "P29_005": "岐阜県高山市下岡本町2000-30", "P29_006": "2", "P29_007": "0", "P29_008": "00", "P29_009": null }, "geometry": { "type": "Point", "coordinates": [ 137.241335831936993, 36.147605836579238 ] } },
{ "type": "Feature", "properties": { "P29_001": "21203", "P29_002": "D121220300034", "P29_003": "16004", "P29_004": "岐阜県立高山工業高等学校", "P29_005": "岐阜県高山市千島町291", "P29_006": "2", "P29_007": "0", "P29_008": "00", "P29_009": null }, "geometry": { "type": "Point", "coordinates": [ 137.253425096467282, 36.130002488873387 ] } },
{ "type": "Feature", "properties": { "P29_001": "21204", "P29_002": "D121220400015", "P29_003": "16004", "P29_004": "岐阜県立多治見高等学校", "P29_005": "岐阜県多治見市坂上町9-141", "P29_006": "2", "P29_007": "0", "P29_008": "00", "P29_009": null }, "geometry": { "type": "Point", "coordinates": [ 137.139032152145006, 35.332165286147358 ] } },
{ "type": "Feature", "properties": { "P29_001": "21204", "P29_002": "D121220400024", "P29_003": "16004", "P29_004": "岐阜県立多治見北高等学校", "P29_005": "岐阜県多治見市上山町2-49", "P29_006": "2", "P29_007": "0", "P29_008": "00", "P29_009": null }, "geometry": { "type": "Point", "coordinates": [ 137.133208628062135, 35.342263877839791 ] } },
{ "type": "Feature", "properties": { "P29_001": "21204", "P29_002": "D121220400033", "P29_003": "16004", "P29_004": "岐阜県立多治見工業高等学校", "P29_005": "岐阜県多治見市陶元町207", "P29_006": "2", "P29_007": "0", "P29_008": "00", "P29_009": null }, "geometry": { "type": "Point", "coordinates": [ 137.137866421192143, 35.329108104929546 ] } },
{ "type": "Feature", "properties": { "P29_001": "21205", "P29_002": "D121220500014", "P29_003": "16004", "P29_004": "岐阜県立関有知高等学校", "P29_005": "岐阜県関市下有知字松ヶ洞6191-3", "P29_006": "2", "P29_007": "0", "P29_008": "00", "P29_009": null }, "geometry": { "type": "Point", "coordinates": [ 136.913277695126993, 35.514111182232618 ] } },
{ "type": "Feature", "properties": { "P29_001": "21205", "P29_002": "D121220500023", "P29_003": "16004", "P29_004": "岐阜県立関高等学校", "P29_005": "岐阜県関市桜ヶ丘2-1-1", "P29_006": "2", "P29_007": "0", "P29_008": "00", "P29_009": null }, "geometry": { "type": "Point", "coordinates": [ 136.929397945531576, 35.475252732407832 ] } },
{ "type": "Feature", "properties": { "P29_001": "21205", "P29_002": "D121220500032", "P29_003": "16004", "P29_004": "関市立関商工高等学校", "P29_005": "岐阜県関市桐ケ丘1-1", "P29_006": "3", "P29_007": "0", "P29_008": "00", "P29_009": null }, "geometry": { "type": "Point", "coordinates": [ 136.897665335094615, 35.460659313560988 ] } },
{ "type": "Feature", "properties": { "P29_001": "21206", "P29_002": "D121220600013", "P29_003": "16004", "P29_004": "岐阜県立中津高等学校", "P29_005": "岐阜県中津川市中津川1088-2", "P29_006": "2", "P29_007": "0", "P29_008": "00", "P29_009": null }, "geometry": { "type": "Point", "coordinates": [ 137.507232145404259, 35.501740960058186 ] } },
{ "type": "Feature", "properties": { "P29_001": "21206", "P29_002": "D121220600022", "P29_003": "16004", "P29_004": "岐阜県立坂下高等学校", "P29_005": "岐阜県中津川市坂下624-1", "P29_006": "2", "P29_007": "0", "P29_008": "00", "P29_009": null }, "geometry": { "type": "Point", "coordinates": [ 137.524778424388046, 35.578865460862637 ] } },
{ "type": "Feature", "properties": { "P29_001": "21206", "P29_002": "D121220600031", "P29_003": "16004", "P29_004": "岐阜県立中津商業高等学校", "P29_005": "岐阜県中津川市駒場大岩1646", "P29_006": "2", "P29_007": "0", "P29_008": "00", "P29_009": null }, "geometry": { "type": "Point", "coordinates": [ 137.49361917785339, 35.503907499746603 ] } },
{ "type": "Feature", "properties": { "P29_001": "21206", "P29_002": "D121220600040", "P29_003": "16004", "P29_004": "岐阜県立中津川工業高等学校", "P29_005": "岐阜県中津川市千旦林1521-3", "P29_006": "2", "P29_007": "0", "P29_008": "00", "P29_009": null }, "geometry": { "type": "Point", "coordinates": [ 137.444704268907913, 35.485911544504511 ] } },
{ "type": "Feature", "properties": { "P29_001": "21206", "P29_002": "D121220600059", "P29_003": "16004", "P29_004": "中津川市立阿木高等学校", "P29_005": "岐阜県中津川市阿木119", "P29_006": "3", "P29_007": "0", "P29_008": "00", "P29_009": null }, "geometry": { "type": "Point", "coordinates": [ 137.464039003206267, 35.397442997043591 ] } },
{ "type": "Feature", "properties": { "P29_001": "21207", "P29_002": "D121220700012", "P29_003": "16004", "P29_004": "岐阜県立武義高等学校", "P29_005": "岐阜県美濃市泉町2-3", "P29_006": "2", "P29_007": "0", "P29_008": "00", "P29_009": null }, "geometry": { "type": "Point", "coordinates": [ 136.91667697986091, 35.549920751297947 ] } },
{ "type": "Feature", "properties": { "P29_001": "21208", "P29_002": "D121220800011", "P29_003": "16004", "P29_004": "岐阜県立瑞浪高等学校", "P29_005": "岐阜県瑞浪市土岐町7942", "P29_006": "2", "P29_007": "0", "P29_008": "00", "P29_009": null }, "geometry": { "type": "Point", "coordinates": [ 137.263710146139374, 35.359271772830375 ] } },
{ "type": "Feature", "properties": { "P29_001": "21209", "P29_002": "D121220900010", "P29_003": "16004", "P29_004": "岐阜県立羽島高等学校", "P29_005": "岐阜県羽島市竹鼻町梅ケ枝町200-2", "P29_006": "2", "P29_007": "0", "P29_008": "00", "P29_009": null }, "geometry": { "type": "Point", "coordinates": [ 136.697199994263428, 35.321345002665552 ] } },
{ "type": "Feature", "properties": { "P29_001": "21210", "P29_002": "D121221000017", "P29_003": "16004", "P29_004": "岐阜県立恵那高等学校", "P29_005": "岐阜県恵那市大井町1023-1", "P29_006": "2", "P29_007": "0", "P29_008": "00", "P29_009": null }, "geometry": { "type": "Point", "coordinates": [ 137.419169146218678, 35.453221916941139 ] } },
{ "type": "Feature", "properties": { "P29_001": "21210", "P29_002": "D121221000026", "P29_003": "16004", "P29_004": "岐阜県立恵那南高等学校", "P29_005": "岐阜県恵那市明智町41-2", "P29_006": "2", "P29_007": "0", "P29_008": "00", "P29_009": null }, "geometry": { "type": "Point", "coordinates": [ 137.39330448305185, 35.310929482749209 ] } },
{ "type": "Feature", "properties": { "P29_001": "21210", "P29_002": "D121221000035", "P29_003": "16004", "P29_004": "岐阜県立恵那農業高等学校", "P29_005": "岐阜県恵那市大井町2625-17", "P29_006": "2", "P29_007": "0", "P29_008": "00", "P29_009": null }, "geometry": { "type": "Point", "coordinates": [ 137.414866905641816, 35.465292601440964 ] } },
{ "type": "Feature", "properties": { "P29_001": "21211", "P29_002": "D121221100016", "P29_003": "16004", "P29_004": "岐阜県立加茂高等学校", "P29_005": "岐阜県美濃加茂市本郷町2-6-78", "P29_006": "2", "P29_007": "0", "P29_008": "00", "P29_009": null }, "geometry": { "type": "Point", "coordinates": [ 137.035674750116726, 35.448498509020908 ] } },
{ "type": "Feature", "properties": { "P29_001": "21211", "P29_002": "D121221100025", "P29_003": "16004", "P29_004": "岐阜県立加茂農林高等学校", "P29_005": "岐阜県美濃加茂市本郷町3-3-13", "P29_006": "2", "P29_007": "0", "P29_008": "00", "P29_009": null }, "geometry": { "type": "Point", "coordinates": [ 137.031168356102, 35.449368249454295 ] } },
{ "type": "Feature", "properties": { "P29_001": "21212", "P29_002": "D121221200015", "P29_003": "16004", "P29_004": "岐阜県立土岐紅陵高等学校", "P29_005": "岐阜県土岐市下石町1795-12", "P29_006": "2", "P29_007": "0", "P29_008": "00", "P29_009": null }, "geometry": { "type": "Point", "coordinates": [ 137.1980379381246, 35.320666318978091 ] } },
{ "type": "Feature", "properties": { "P29_001": "21212", "P29_002": "D121221200024", "P29_003": "16004", "P29_004": "岐阜県立土岐商業高等学校", "P29_005": "岐阜県土岐市土岐津町土岐口1259-1", "P29_006": "2", "P29_007": "0", "P29_008": "00", "P29_009": null }, "geometry": { "type": "Point", "coordinates": [ 137.169244596718897, 35.345054556667456 ] } },
{ "type": "Feature", "properties": { "P29_001": "21212", "P29_002": "D121221200033", "P29_003": "16004", "P29_004": "岐阜県立東濃フロンティア高等学校", "P29_005": "岐阜県土岐市泉町河合1127-8", "P29_006": "2", "P29_007": "0", "P29_008": "00", "P29_009": null }, "geometry": { "type": "Point", "coordinates": [ 137.209644460213156, 35.377213886329429 ] } },
{ "type": "Feature", "properties": { "P29_001": "21213", "P29_002": "D121221300014", "P29_003": "16004", "P29_004": "岐阜県立各務原高等学校", "P29_005": "岐阜県各務原市蘇原新生町2-63", "P29_006": "2", "P29_007": "0", "P29_008": "00", "P29_009": null }, "geometry": { "type": "Point", "coordinates": [ 136.883009867195767, 35.418989569000637 ] } },
{ "type": "Feature", "properties": { "P29_001": "21213", "P29_002": "D121221300023", "P29_003": "16004", "P29_004": "岐阜県立各務原西高等学校", "P29_005": "岐阜県各務原市那加東亜町24-1", "P29_006": "2", "P29_007": "0", "P29_008": "00", "P29_009": null }, "geometry": { "type": "Point", "coordinates": [ 136.837533942175526, 35.402613067950533 ] } },
{ "type": "Feature", "properties": { "P29_001": "21213", "P29_002": "D121221300032", "P29_003": "16004", "P29_004": "岐阜県立岐阜各務野高等学校", "P29_005": "岐阜県各務原市鵜沼各務原町8-7-2", "P29_006": "2", "P29_007": "0", "P29_008": "00", "P29_009": null }, "geometry": { "type": "Point", "coordinates": [ 136.907611921951542, 35.397458827062792 ] } },
{ "type": "Feature", "properties": { "P29_001": "21214", "P29_002": "D121221400013", "P29_003": "16004", "P29_004": "岐阜県立可児高等学校", "P29_005": "岐阜県可児市坂戸987-2", "P29_006": "2", "P29_007": "0", "P29_008": "00", "P29_009": null }, "geometry": { "type": "Point", "coordinates": [ 137.039921921754342, 35.41422701558318 ] } },
{ "type": "Feature", "properties": { "P29_001": "21214", "P29_002": "D121221400022", "P29_003": "16004", "P29_004": "岐阜県立可児工業高等学校", "P29_005": "岐阜県可児市中恵土2358-1", "P29_006": "2", "P29_007": "0", "P29_008": "00", "P29_009": null }, "geometry": { "type": "Point", "coordinates": [ 137.060713245337411, 35.43200372314147 ] } },
{ "type": "Feature", "properties": { "P29_001": "21215", "P29_002": "D121221500012", "P29_003": "16004", "P29_004": "岐阜県立山県高等学校", "P29_005": "岐阜県山県市中洞44-1", "P29_006": "2", "P29_007": "0", "P29_008": "00", "P29_009": null }, "geometry": { "type": "Point", "coordinates": [ 136.809987176796966, 35.548458601326523 ] } },
{ "type": "Feature", "properties": { "P29_001": "21217", "P29_002": "D121221700010", "P29_003": "16004", "P29_004": "岐阜県立吉城高等学校", "P29_005": "岐阜県飛騨市古川町上気多1987-2", "P29_006": "2", "P29_007": "0", "P29_008": "00", "P29_009": null }, "geometry": { "type": "Point", "coordinates": [ 137.197434843972985, 36.244473223155872 ] } },
{ "type": "Feature", "properties": { "P29_001": "21217", "P29_002": "D121221700029", "P29_003": "16004", "P29_004": "岐阜県立飛騨神岡高等学校", "P29_005": "岐阜県飛騨市神岡町小萱2138-2", "P29_006": "2", "P29_007": "0", "P29_008": "00", "P29_009": null }, "geometry": { "type": "Point", "coordinates": [ 137.305133283557865, 36.308030912502822 ] } },
{ "type": "Feature", "properties": { "P29_001": "21218", "P29_002": "D121221800019", "P29_003": "16004", "P29_004": "岐阜県立本巣松陽高等学校", "P29_005": "岐阜県本巣市仏生寺859-1", "P29_006": "2", "P29_007": "0", "P29_008": "00", "P29_009": null }, "geometry": { "type": "Point", "coordinates": [ 136.678229523817123, 35.445113864102176 ] } },
{ "type": "Feature", "properties": { "P29_001": "21219", "P29_002": "D121221900018", "P29_003": "16004", "P29_004": "岐阜県立郡上北高等学校", "P29_005": "岐阜県郡上市白鳥町為真1265-2", "P29_006": "2", "P29_007": "0", "P29_008": "00", "P29_009": null }, "geometry": { "type": "Point", "coordinates": [ 136.864770878139382, 35.885081523225999 ] } },
{ "type": "Feature", "properties": { "P29_001": "21219", "P29_002": "D121221900027", "P29_003": "16004", "P29_004": "岐阜県立郡上高等学校", "P29_005": "岐阜県郡上市八幡町小野970", "P29_006": "2", "P29_007": "0", "P29_008": "00", "P29_009": null }, "geometry": { "type": "Point", "coordinates": [ 136.964144281304357, 35.75494016834304 ] } },
{ "type": "Feature", "properties": { "P29_001": "21220", "P29_002": "D121222000015", "P29_003": "16004", "P29_004": "岐阜県立益田清風高等学校", "P29_005": "岐阜県下呂市萩原町萩原326-1", "P29_006": "2", "P29_007": "0", "P29_008": "00", "P29_009": null }, "geometry": { "type": "Point", "coordinates": [ 137.212187000280181, 35.87645999922664 ] } },
{ "type": "Feature", "properties": { "P29_001": "21221", "P29_002": "D121222100014", "P29_003": "16004", "P29_004": "岐阜県立海津明誠高等学校", "P29_005": "岐阜県海津市海津町高須町11-1", "P29_006": "2", "P29_007": "0", "P29_008": "00", "P29_009": null }, "geometry": { "type": "Point", "coordinates": [ 136.632377363904084, 35.223586753718173 ] } },
{ "type": "Feature", "properties": { "P29_001": "21303", "P29_002": "D121230300015", "P29_003": "16004", "P29_004": "岐阜県立岐阜工業高等学校", "P29_005": "岐阜県羽島郡笠松町常盤町1700", "P29_006": "2", "P29_007": "0", "P29_008": "00", "P29_009": null }, "geometry": { "type": "Point", "coordinates": [ 136.760162159853365, 35.374280259343941 ] } },
{ "type": "Feature", "properties": { "P29_001": "21341", "P29_002": "D121234100019", "P29_003": "16004", "P29_004": "岐阜県立大垣養老高等学校", "P29_005": "岐阜県養老郡養老町祖父江向野1418-4", "P29_006": "2", "P29_007": "0", "P29_008": "00", "P29_009": null }, "geometry": { "type": "Point", "coordinates": [ 136.582499301585472, 35.312226131540015 ] } },
{ "type": "Feature", "properties": { "P29_001": "21361", "P29_002": "D121236100014", "P29_003": "16004", "P29_004": "岐阜県立不破高等学校", "P29_005": "岐阜県不破郡垂井町宮代1919-1", "P29_006": "2", "P29_007": "0", "P29_008": "00", "P29_009": null }, "geometry": { "type": "Point", "coordinates": [ 136.520096530681002, 35.360628202152263 ] } },
{ "type": "Feature", "properties": { "P29_001": "21401", "P29_002": "D121240100016", "P29_003": "16004", "P29_004": "岐阜県立揖斐高等学校", "P29_005": "岐阜県揖斐郡揖斐川町三輪1852", "P29_006": "2", "P29_007": "0", "P29_008": "00", "P29_009": null }, "geometry": { "type": "Point", "coordinates": [ 136.580813822719875, 35.487087010994031 ] } },
{ "type": "Feature", "properties": { "P29_001": "21404", "P29_002": "D121240400013", "P29_003": "16004", "P29_004": "岐阜県立池田高等学校", "P29_005": "岐阜県揖斐郡池田町六之井2421", "P29_006": "2", "P29_007": "0", "P29_008": "00", "P29_009": null }, "geometry": { "type": "Point", "coordinates": [ 136.587279001276869, 35.436672002548846 ] } },
{ "type": "Feature", "properties": { "P29_001": "21421", "P29_002": "D121242100012", "P29_003": "16004", "P29_004": "岐阜県立岐阜農林高等学校", "P29_005": "岐阜県本巣郡北方町北方150", "P29_006": "2", "P29_007": "0", "P29_008": "00", "P29_009": null }, "geometry": { "type": "Point", "coordinates": [ 136.696749306758591, 35.437259757764657 ] } },
{ "type": "Feature", "properties": { "P29_001": "21505", "P29_002": "D121250500011", "P29_003": "16004", "P29_004": "岐阜県立八百津高等学校", "P29_005": "岐阜県加茂郡八百津町伊岐津志2803-6", "P29_006": "2", "P29_007": "0", "P29_008": "00", "P29_009": null }, "geometry": { "type": "Point", "coordinates": [ 137.135714093011103, 35.46840726572546 ] } },
{ "type": "Feature", "properties": { "P29_001": "21521", "P29_002": "D121252100011", "P29_003": "16004", "P29_004": "岐阜県立東濃高等学校", "P29_005": "岐阜県可児郡御嵩町御嵩2854-1", "P29_006": "2", "P29_007": "0", "P29_008": "00", "P29_009": null }, "geometry": { "type": "Point", "coordinates": [ 137.134973229122124, 35.433932772245221 ] } },
{ "type": "Feature", "properties": { "P29_001": "21521", "P29_002": "D121252100020", "P29_003": "16004", "P29_004": "岐阜県立東濃実業高等学校", "P29_005": "岐阜県可児郡御嵩町伏見891", "P29_006": "2", "P29_007": "0", "P29_008": "00", "P29_009": null }, "geometry": { "type": "Point", "coordinates": [ 137.083910174196888, 35.440080366317417 ] } },
{ "type": "Feature", "properties": { "P29_001": "21201", "P29_002": "D121320100016", "P29_003": "16004", "P29_004": "鶯谷高等学校", "P29_005": "岐阜県岐阜市鶯谷町7", "P29_006": "4", "P29_007": "0", "P29_008": "00", "P29_009": null }, "geometry": { "type": "Point", "coordinates": [ 136.766990418526717, 35.424481858698449 ] } },
{ "type": "Feature", "properties": { "P29_001": "21201", "P29_002": "D121320100025", "P29_003": "16004", "P29_004": "富田高等学校", "P29_005": "岐阜県岐阜市野一色4-17-1", "P29_006": "4", "P29_007": "0", "P29_008": "00", "P29_009": null }, "geometry": { "type": "Point", "coordinates": [ 136.803556126987388, 35.411574603612905 ] } },
{ "type": "Feature", "properties": { "P29_001": "21201", "P29_002": "D121320100034", "P29_003": "16004", "P29_004": "岐阜東高等学校", "P29_005": "岐阜県岐阜市野一色4-17-1", "P29_006": "4", "P29_007": "0", "P29_008": "00", "P29_009": null }, "geometry": { "type": "Point", "coordinates": [ 136.803209203046578, 35.41267403443792 ] } },
{ "type": "Feature", "properties": { "P29_001": "21201", "P29_002": "D121320100043", "P29_003": "16004", "P29_004": "済美高等学校", "P29_005": "岐阜県岐阜市正法寺町33", "P29_006": "4", "P29_007": "0", "P29_008": "00", "P29_009": null }, "geometry": { "type": "Point", "coordinates": [ 136.762942353638408, 35.396045788715327 ] } },
{ "type": "Feature", "properties": { "P29_001": "21201", "P29_002": "D121320100052", "P29_003": "16004", "P29_004": "岐阜聖徳学園高等学校", "P29_005": "岐阜県岐阜市中鶉1-50", "P29_006": "4", "P29_007": "0", "P29_008": "00", "P29_009": null }, "geometry": { "type": "Point", "coordinates": [ 136.734598576000366, 35.387311670654569 ] } },
{ "type": "Feature", "properties": { "P29_001": "21201", "P29_002": "D121320100061", "P29_003": "16004", "P29_004": "聖マリア女学院高等学校", "P29_005": "岐阜県岐阜市福富201", "P29_006": "4", "P29_007": "0", "P29_008": "00", "P29_009": null }, "geometry": { "type": "Point", "coordinates": [ 136.81488948290027, 35.485606533773414 ] } },
{ "type": "Feature", "properties": { "P29_001": "21201", "P29_002": "D121320100070", "P29_003": "16004", "P29_004": "城南高等学校", "P29_005": "岐阜県岐阜市細畑1-10-14", "P29_006": "4", "P29_007": "0", "P29_008": "00", "P29_009": null }, "geometry": { "type": "Point", "coordinates": [ 136.785151656683325, 35.405895260127188 ] } },
{ "type": "Feature", "properties": { "P29_001": "21201", "P29_002": "D121320100089", "P29_003": "16004", "P29_004": "啓晴高等学校", "P29_005": "岐阜県岐阜市高砂町2-8", "P29_006": "4", "P29_007": "0", "P29_008": "00", "P29_009": null }, "geometry": { "type": "Point", "coordinates": [ 136.76161642529982, 35.409498808080258 ] } },
{ "type": "Feature", "properties": { "P29_001": "21201", "P29_002": "D121320100098", "P29_003": "16004", "P29_004": "ぎふ国際高等学校", "P29_005": "岐阜県岐阜市橋本町3-9", "P29_006": "4", "P29_007": "0", "P29_008": "00", "P29_009": null }, "geometry": { "type": "Point", "coordinates": [ 136.748864478371388, 35.411202659453735 ] } },
{ "type": "Feature", "properties": { "P29_001": "21202", "P29_002": "D121320200015", "P29_003": "16004", "P29_004": "大垣日本大学高等学校", "P29_005": "岐阜県大垣市林町6-5-2", "P29_006": "4", "P29_007": "0", "P29_008": "00", "P29_009": null }, "geometry": { "type": "Point", "coordinates": [ 136.617078002256335, 35.374585998138045 ] } },
{ "type": "Feature", "properties": { "P29_001": "21202", "P29_002": "D121320200024", "P29_003": "16004", "P29_004": "清凌高等学校", "P29_005": "岐阜県大垣市清水町65", "P29_006": "4", "P29_007": "0", "P29_008": "00", "P29_009": null }, "geometry": { "type": "Point", "coordinates": [ 136.620861292705371, 35.361457157057991 ] } },
{ "type": "Feature", "properties": { "P29_001": "21202", "P29_002": "D121320200033", "P29_003": "16004", "P29_004": "西濃桃李高等学校", "P29_005": "岐阜県大垣市郭町3-209", "P29_006": "4", "P29_007": "0", "P29_008": "00", "P29_009": null }, "geometry": { "type": "Point", "coordinates": [ 136.616302002905741, 35.3596080013399 ] } },
{ "type": "Feature", "properties": { "P29_001": "21203", "P29_002": "D121320300014", "P29_003": "16004", "P29_004": "高山西高等学校", "P29_005": "岐阜県高山市下林町353", "P29_006": "4", "P29_007": "0", "P29_008": "00", "P29_009": null }, "geometry": { "type": "Point", "coordinates": [ 137.224946303707213, 36.154270155241015 ] } },
{ "type": "Feature", "properties": { "P29_001": "21204", "P29_002": "D121320400013", "P29_003": "16004", "P29_004": "多治見西高等学校", "P29_005": "岐阜県多治見市明和町1-18", "P29_006": "4", "P29_007": "0", "P29_008": "00", "P29_009": null }, "geometry": { "type": "Point", "coordinates": [ 137.101965806786865, 35.351836721605302 ] } },
{ "type": "Feature", "properties": { "P29_001": "21208", "P29_002": "D121320800019", "P29_003": "16004", "P29_004": "麗澤瑞浪高等学校", "P29_005": "岐阜県瑞浪市稲津町萩原1661", "P29_006": "4", "P29_007": "0", "P29_008": "00", "P29_009": null }, "geometry": { "type": "Point", "coordinates": [ 137.298278950673932, 35.364190368471498 ] } },
{ "type": "Feature", "properties": { "P29_001": "21208", "P29_002": "D121320800028", "P29_003": "16004", "P29_004": "中京高等学校", "P29_005": "岐阜県瑞浪市土岐町7074-1", "P29_006": "4", "P29_007": "0", "P29_008": "00", "P29_009": null }, "geometry": { "type": "Point", "coordinates": [ 137.262266955324407, 35.364014674245666 ] } },
{ "type": "Feature", "properties": { "P29_001": "21211", "P29_002": "D121321100014", "P29_003": "16004", "P29_004": "美濃加茂高等学校", "P29_005": "岐阜県美濃加茂市本郷町7-6-60", "P29_006": "4", "P29_007": "0", "P29_008": "00", "P29_009": null }, "geometry": { "type": "Point", "coordinates": [ 137.041980924636164, 35.461944488251596 ] } },
{ "type": "Feature", "properties": { "P29_001": "21214", "P29_002": "D121321400011", "P29_003": "16004", "P29_004": "帝京大学可児高等学校", "P29_005": "岐阜県可児市桂ケ丘1-1", "P29_006": "4", "P29_007": "0", "P29_008": "00", "P29_009": null }, "geometry": { "type": "Point", "coordinates": [ 137.085807498521632, 35.38984555554358 ] } },
{ "type": "Feature", "properties": { "P29_001": "21218", "P29_002": "D121321800017", "P29_003": "16004", "P29_004": "岐阜第一高等学校", "P29_005": "岐阜県本巣市仏生寺884-7", "P29_006": "4", "P29_007": "0", "P29_008": "00", "P29_009": null }, "geometry": { "type": "Point", "coordinates": [ 136.675020618156196, 35.443309909882785 ] } },
{ "type": "Feature", "properties": { "P29_001": "21302", "P29_002": "D121330200014", "P29_003": "16004", "P29_004": "岐阜女子高等学校", "P29_005": "岐阜県羽島郡岐南町三宅1-130", "P29_006": "4", "P29_007": "0", "P29_008": "00", "P29_009": null }, "geometry": { "type": "Point", "coordinates": [ 136.791879956249943, 35.396794808333311 ] } },
{ "type": "Feature", "properties": { "P29_001": "21401", "P29_002": "D121340100014", "P29_003": "16004", "P29_004": "西濃学園高等学校", "P29_005": "岐阜県揖斐郡揖斐川町西津汲481-3", "P29_006": "4", "P29_007": "0", "P29_008": "00", "P29_009": null }, "geometry": { "type": "Point", "coordinates": [ 136.505662397667351, 35.553460749604852 ] } }
]
}
