{
"type": "FeatureCollection",
"name": "geo_21_短期大学",
"crs": { "type": "name", "properties": { "name": "urn:ogc:def:crs:EPSG::6668" } },
"features": [
{ "type": "Feature", "properties": { "P29_001": "21201", "P29_002": "F221210106106", "P29_003": "16006", "P29_004": "岐阜市立女子短期大学", "P29_005": "岐阜県岐阜市一日市場北町7-1", "P29_006": "3", "P29_007": "0", "P29_008": "00", "P29_009": null }, "geometry": { "type": "Point", "coordinates": [ 136.716752742830124, 35.425858222669071 ] } },
{ "type": "Feature", "properties": { "P29_001": "21205", "P29_002": "F221310106113", "P29_003": "16006", "P29_004": "中部学院大学短期大学部", "P29_005": "岐阜県関市桐ヶ丘2-1", "P29_006": "4", "P29_007": "0", "P29_008": "00", "P29_009": null }, "geometry": { "type": "Point", "coordinates": [ 136.898620769895587, 35.458868474161513 ] } },
{ "type": "Feature", "properties": { "P29_001": "21201", "P29_002": "F221310106122", "P29_003": "16006", "P29_004": "岐阜聖徳学園大学短期大学部", "P29_005": "岐阜県岐阜市中鶉1-38", "P29_006": "4", "P29_007": "0", "P29_008": "00", "P29_009": null }, "geometry": { "type": "Point", "coordinates": [ 136.736209320195854, 35.387047414853676 ] } },
{ "type": "Feature", "properties": { "P29_001": "21211", "P29_002": "F221310106131", "P29_003": "16006", "P29_004": "正眼短期大学", "P29_005": "岐阜県美濃加茂市伊深町876-10", "P29_006": "4", "P29_007": "0", "P29_008": "00", "P29_009": null }, "geometry": { "type": "Point", "coordinates": [ 137.004588655846533, 35.504667669343085 ] } },
{ "type": "Feature", "properties": { "P29_001": "21208", "P29_002": "F221310106140", "P29_003": "16006", "P29_004": "中京学院大学短期大学部", "P29_005": "岐阜県瑞浪市土岐町2216", "P29_006": "4", "P29_007": "0", "P29_008": "00", "P29_009": null }, "geometry": { "type": "Point", "coordinates": [ 137.264372597809796, 35.384603290936873 ] } },
{ "type": "Feature", "properties": { "P29_001": "21213", "P29_002": "F221310106159", "P29_003": "16006", "P29_004": "東海学院大学短期大学部", "P29_005": "岐阜県各務原市那加桐野町2-43", "P29_006": "4", "P29_007": "0", "P29_008": "00", "P29_009": null }, "geometry": { "type": "Point", "coordinates": [ 136.816530501796251, 35.423800393206307 ] } },
{ "type": "Feature", "properties": { "P29_001": "21501", "P29_002": "F221310106168", "P29_003": "16006", "P29_004": "中日本自動車短期大学", "P29_005": "岐阜県加茂郡坂祝町深萱1301", "P29_006": "4", "P29_007": "0", "P29_008": "00", "P29_009": null }, "geometry": { "type": "Point", "coordinates": [ 136.969936500327066, 35.444822850649771 ] } },
{ "type": "Feature", "properties": { "P29_001": "21202", "P29_002": "F221310106177", "P29_003": "16006", "P29_004": "大垣女子短期大学", "P29_005": "岐阜県大垣市西之川町1-109", "P29_006": "4", "P29_007": "0", "P29_008": "00", "P29_009": null }, "geometry": { "type": "Point", "coordinates": [ 136.607532148464941, 35.386568857109729 ] } },
{ "type": "Feature", "properties": { "P29_001": "21203", "P29_002": "F221310106186", "P29_003": "16006", "P29_004": "高山自動車短期大学", "P29_005": "岐阜県高山市下林町1155", "P29_006": "4", "P29_007": "0", "P29_008": "00", "P29_009": null }, "geometry": { "type": "Point", "coordinates": [ 137.234428828131286, 36.14734713694326 ] } },
{ "type": "Feature", "properties": { "P29_001": "21201", "P29_002": "F221310106195", "P29_003": "16006", "P29_004": "岐阜保健大学短期大学部", "P29_005": "岐阜県岐阜市東鶉2-92", "P29_006": "4", "P29_007": "0", "P29_008": "00", "P29_009": null }, "geometry": { "type": "Point", "coordinates": [ 136.739981015547585, 35.384213693264591 ] } },
{ "type": "Feature", "properties": { "P29_001": "21201", "P29_002": "F221310106202", "P29_003": "16006", "P29_004": "平成医療短期大学", "P29_005": "岐阜県岐阜市黒野180", "P29_006": "4", "P29_007": "0", "P29_008": "00", "P29_009": null }, "geometry": { "type": "Point", "coordinates": [ 136.726475413403875, 35.45900814944325 ] } }
]
}
