{
"type": "FeatureCollection",
"name": "geo_21_福祉用具貸与",
"crs": { "type": "name", "properties": { "name": "urn:ogc:def:crs:OGC:1.3:CRS84" } },
"features": [
{ "type": "Feature", "properties": { "内容": "げんきの家福祉用具貸与【福祉用具貸与】岐阜県岐阜市福富天神前299-3", "url": "https://www.kaigokensaku.mhlw.go.jp/21/index.php?action_kouhyou_detail_004_kani=true&JigyosyoCd=2170112284-00&ServiceCd=170&Type=search", "url2": null }, "geometry": { "type": "Point", "coordinates": [ 136.815484903179936, 35.484022172499934 ] } },
{ "type": "Feature", "properties": { "内容": "ライフまごのて【福祉用具貸与】岐阜県岐阜市福光南町12-15", "url": "https://www.kaigokensaku.mhlw.go.jp/21/index.php?action_kouhyou_detail_004_kani=true&JigyosyoCd=2170114793-00&ServiceCd=170&Type=search", "url2": null }, "geometry": { "type": "Point", "coordinates": [ 136.7659306, 35.4485717 ] } },
{ "type": "Feature", "properties": { "内容": "株式会社トーカイ　岐大前営業所【福祉用具貸与】岐阜県岐阜市大学西一丁目91番地3", "url": "https://www.kaigokensaku.mhlw.go.jp/21/index.php?action_kouhyou_detail_004_kani=true&JigyosyoCd=2170116061-00&ServiceCd=170&Type=search", "url2": "https://www.tokai-corp.com/" }, "geometry": { "type": "Point", "coordinates": [ 136.7319065, 35.4680512 ] } },
{ "type": "Feature", "properties": { "内容": "合資会社イング【福祉用具貸与】岐阜県岐阜市下土居３丁目１番１２号", "url": "https://www.kaigokensaku.mhlw.go.jp/21/index.php?action_kouhyou_detail_004_kani=true&JigyosyoCd=2170100222-00&ServiceCd=170&Type=search", "url2": "https://g-ing.co.jp" }, "geometry": { "type": "Point", "coordinates": [ 136.7578502, 35.4544635 ] } },
{ "type": "Feature", "properties": { "内容": "株式会社美濃庄【福祉用具貸与】岐阜県岐阜市六条北２丁目１２番８号", "url": "https://www.kaigokensaku.mhlw.go.jp/21/index.php?action_kouhyou_detail_004_kani=true&JigyosyoCd=2170100339-00&ServiceCd=170&Type=search", "url2": "https://minosho.com/" }, "geometry": { "type": "Point", "coordinates": [ 136.741712399999983, 35.4013815 ] } },
{ "type": "Feature", "properties": { "内容": "ヤガミホームヘルスセンター岐阜【福祉用具貸与】岐阜県岐阜市平和通一丁目6番地1", "url": "https://www.kaigokensaku.mhlw.go.jp/21/index.php?action_kouhyou_detail_004_kani=true&JigyosyoCd=2170100545-00&ServiceCd=170&Type=search", "url2": "https://www.yagami.co.jp/yhhc/" }, "geometry": { "type": "Point", "coordinates": [ 136.772966351091043, 35.446297005026366 ] } },
{ "type": "Feature", "properties": { "内容": "株式会社ナイスワーク【福祉用具貸与】岐阜県岐阜市東鶉三丁目76番地2", "url": "https://www.kaigokensaku.mhlw.go.jp/21/index.php?action_kouhyou_detail_004_kani=true&JigyosyoCd=2170100560-00&ServiceCd=170&Type=search", "url2": "http://www.nicework.co.jp" }, "geometry": { "type": "Point", "coordinates": [ 136.740624600000046, 35.3823255 ] } },
{ "type": "Feature", "properties": { "内容": "株式会社アイボリー医療住設【福祉用具貸与】岐阜県岐阜市薮田南３丁目７番１７号", "url": "https://www.kaigokensaku.mhlw.go.jp/21/index.php?action_kouhyou_detail_004_kani=true&JigyosyoCd=2170100701-00&ServiceCd=170&Type=search", "url2": null }, "geometry": { "type": "Point", "coordinates": [ 136.7230462, 35.3889053 ] } },
{ "type": "Feature", "properties": { "内容": "有限会社シルバーショップ錦【福祉用具貸与】岐阜県岐阜市近島５丁目１番８号", "url": "https://www.kaigokensaku.mhlw.go.jp/21/index.php?action_kouhyou_detail_004_kani=true&JigyosyoCd=2170100735-00&ServiceCd=170&Type=search", "url2": null }, "geometry": { "type": "Point", "coordinates": [ 136.7361429, 35.4307609 ] } },
{ "type": "Feature", "properties": { "内容": "けやきサポート【福祉用具貸与】岐阜県岐阜市加野6丁目37-25", "url": "https://www.kaigokensaku.mhlw.go.jp/21/index.php?action_kouhyou_detail_004_kani=true&JigyosyoCd=2170103127-00&ServiceCd=170&Type=search", "url2": "http://keyakisp.com/" }, "geometry": { "type": "Point", "coordinates": [ 136.825437, 35.4696346 ] } },
{ "type": "Feature", "properties": { "内容": "株式会社愛安住　岐阜営業所【福祉用具貸与】岐阜県岐阜市宇佐南2-9-6", "url": "https://www.kaigokensaku.mhlw.go.jp/21/index.php?action_kouhyou_detail_004_kani=true&JigyosyoCd=2170103358-00&ServiceCd=170&Type=search", "url2": "http://www.aianju.co.jp" }, "geometry": { "type": "Point", "coordinates": [ 136.735185900000033, 35.3948712 ] } },
{ "type": "Feature", "properties": { "内容": "パナソニックエイジフリーショップ長良(株)五月商店【福祉用具貸与】岐阜県岐阜市福光東3-1-11", "url": "https://www.kaigokensaku.mhlw.go.jp/21/index.php?action_kouhyou_detail_004_kani=true&JigyosyoCd=2170103465-00&ServiceCd=170&Type=search", "url2": "https://www.satsuki-5.co.jp" }, "geometry": { "type": "Point", "coordinates": [ 136.775230501705778, 35.455000661874514 ] } },
{ "type": "Feature", "properties": { "内容": "介護レンタルの山田屋【福祉用具貸与】岐阜県岐阜市島栄町１丁目３３番地シャトーシャルマン３D", "url": "https://www.kaigokensaku.mhlw.go.jp/21/index.php?action_kouhyou_detail_004_kani=true&JigyosyoCd=2170103770-00&ServiceCd=170&Type=search", "url2": "https://www.kaigo-yamadaya.jp" }, "geometry": { "type": "Point", "coordinates": [ 136.745801905001827, 35.432590227695449 ] } },
{ "type": "Feature", "properties": { "内容": "ケアサービス【福祉用具貸与】岐阜県岐阜市鏡島南1丁目6番５号", "url": "https://www.kaigokensaku.mhlw.go.jp/21/index.php?action_kouhyou_detail_004_kani=true&JigyosyoCd=2170103887-00&ServiceCd=170&Type=search", "url2": "http://www.koukikai.gr.jp/tomii_top/guide/careservice/" }, "geometry": { "type": "Point", "coordinates": [ 136.716765461377008, 35.408415822309415 ] } },
{ "type": "Feature", "properties": { "内容": "めぃぷる【福祉用具貸与】岐阜県岐阜市粟野西6丁目535-1有限会社大野建装", "url": "https://www.kaigokensaku.mhlw.go.jp/21/index.php?action_kouhyou_detail_004_kani=true&JigyosyoCd=2170104042-00&ServiceCd=170&Type=search", "url2": null }, "geometry": { "type": "Point", "coordinates": [ 136.7721785, 35.4863007 ] } },
{ "type": "Feature", "properties": { "内容": "ダスキンヘルスレント岐阜ステーション【福祉用具貸与】岐阜県岐阜市市橋4丁目7番6号", "url": "https://www.kaigokensaku.mhlw.go.jp/21/index.php?action_kouhyou_detail_004_kani=true&JigyosyoCd=2170104752-00&ServiceCd=170&Type=search", "url2": "http://healthrent.duskin.jp/" }, "geometry": { "type": "Point", "coordinates": [ 136.724624362421423, 35.402402306382371 ] } },
{ "type": "Feature", "properties": { "内容": "ペンギン介護用品【福祉用具貸与】岐阜県岐阜市敷島町3-6", "url": "https://www.kaigokensaku.mhlw.go.jp/21/index.php?action_kouhyou_detail_004_kani=true&JigyosyoCd=2170111245-00&ServiceCd=170&Type=search", "url2": "http://www.ansenior.com" }, "geometry": { "type": "Point", "coordinates": [ 136.743353599999978, 35.411456200000011 ] } },
{ "type": "Feature", "properties": { "内容": "ユナイテッドケアサービス　福祉用具課【福祉用具貸与】岐阜県岐阜市加納栄町通二丁目7番地", "url": "https://www.kaigokensaku.mhlw.go.jp/21/index.php?action_kouhyou_detail_004_kani=true&JigyosyoCd=2170111815-00&ServiceCd=170&Type=search", "url2": null }, "geometry": { "type": "Point", "coordinates": [ 136.756099, 35.4072253 ] } },
{ "type": "Feature", "properties": { "内容": "日建ヘルスメディカル　岐阜【福祉用具貸与】岐阜県岐阜市今町4-22日建ビル　3階", "url": "https://www.kaigokensaku.mhlw.go.jp/21/index.php?action_kouhyou_detail_004_kani=true&JigyosyoCd=2170112870-00&ServiceCd=170&Type=search", "url2": "http://www.gifu-healthmedical.jp/" }, "geometry": { "type": "Point", "coordinates": [ 136.769585900000038, 35.4324834 ] } },
{ "type": "Feature", "properties": { "内容": "福祉用具ケアファミリー【福祉用具貸与】岐阜県岐阜市桜通2丁目26番地高木ビル2階", "url": "https://www.kaigokensaku.mhlw.go.jp/21/index.php?action_kouhyou_detail_004_kani=true&JigyosyoCd=2170112938-00&ServiceCd=170&Type=search", "url2": null }, "geometry": { "type": "Point", "coordinates": [ 136.748572514715192, 35.41920887553654 ] } },
{ "type": "Feature", "properties": { "内容": "株式会社アーネスト【福祉用具貸与】岐阜県岐阜市茜部菱野４丁目104-3", "url": "https://www.kaigokensaku.mhlw.go.jp/21/index.php?action_kouhyou_detail_004_kani=true&JigyosyoCd=2170113241-00&ServiceCd=170&Type=search", "url2": "http://earnest-gifu.jp" }, "geometry": { "type": "Point", "coordinates": [ 136.748386745754999, 35.381512573735336 ] } },
{ "type": "Feature", "properties": { "内容": "ＹＭＳライフサポート【福祉用具貸与】岐阜県岐阜市元宮町2丁19ハイウッドビル1階ハイウッドビル２階", "url": "https://www.kaigokensaku.mhlw.go.jp/21/index.php?action_kouhyou_detail_004_kani=true&JigyosyoCd=2170113720-00&ServiceCd=170&Type=search", "url2": "https://yutaka-ms.jp/" }, "geometry": { "type": "Point", "coordinates": [ 136.748301235651411, 35.416301486451914 ] } },
{ "type": "Feature", "properties": { "内容": "ウェルサス　岐阜営業所【福祉用具貸与】岐阜県岐阜市西島町2番10号", "url": "https://www.kaigokensaku.mhlw.go.jp/21/index.php?action_kouhyou_detail_004_kani=true&JigyosyoCd=2170113894-00&ServiceCd=170&Type=search", "url2": null }, "geometry": { "type": "Point", "coordinates": [ 136.731282700000094, 35.4262114 ] } },
{ "type": "Feature", "properties": { "内容": "株式会社アクティブワン【福祉用具貸与】岐阜県岐阜市福富天神前344番地", "url": "https://www.kaigokensaku.mhlw.go.jp/21/index.php?action_kouhyou_detail_004_kani=true&JigyosyoCd=2170114496-00&ServiceCd=170&Type=search", "url2": "https://activeone-smile.com/" }, "geometry": { "type": "Point", "coordinates": [ 136.812138299999958, 35.4825232 ] } },
{ "type": "Feature", "properties": { "内容": "株式会社ヤマシタ岐阜営業所【福祉用具貸与】岐阜県岐阜市領下1569", "url": "https://www.kaigokensaku.mhlw.go.jp/21/index.php?action_kouhyou_detail_004_kani=true&JigyosyoCd=2170115261-00&ServiceCd=170&Type=search", "url2": "https://www.yco.co.jp/" }, "geometry": { "type": "Point", "coordinates": [ 136.7791374, 35.3998682 ] } },
{ "type": "Feature", "properties": { "内容": "株式会社そらと【福祉用具貸与】河渡4丁目156番地1101号", "url": "https://www.kaigokensaku.mhlw.go.jp/21/index.php?action_kouhyou_detail_004_kani=true&JigyosyoCd=2170115378-00&ServiceCd=170&Type=search", "url2": null }, "geometry": { "type": "Point", "coordinates": [ 136.699335600000012, 35.4129983 ] } },
{ "type": "Feature", "properties": { "内容": "福祉用具ケアリー【福祉用具貸与】岐阜県岐阜市柳津町下佐波5-191ナーシングホームケアリー岐阜下佐波２号館", "url": "https://www.kaigokensaku.mhlw.go.jp/21/index.php?action_kouhyou_detail_004_kani=true&JigyosyoCd=2170115618-00&ServiceCd=170&Type=search", "url2": "https://gifu-shimosaba.carely-home.com/" }, "geometry": { "type": "Point", "coordinates": [ 136.7254881, 35.358625 ] } },
{ "type": "Feature", "properties": { "内容": "株式会社ケア【福祉用具貸与】岐阜県岐阜市早田本町1丁目9番地", "url": "https://www.kaigokensaku.mhlw.go.jp/21/index.php?action_kouhyou_detail_004_kani=true&JigyosyoCd=2170100453-00&ServiceCd=170&Type=search", "url2": "https://www.care-kaigo.co.jp" }, "geometry": { "type": "Point", "coordinates": [ 136.7549649, 35.4362551 ] } },
{ "type": "Feature", "properties": { "内容": "有限会社郡上開発【福祉用具貸与】岐阜県岐阜市加納朝日町三丁目41番", "url": "https://www.kaigokensaku.mhlw.go.jp/21/index.php?action_kouhyou_detail_004_kani=true&JigyosyoCd=2170101964-00&ServiceCd=170&Type=search", "url2": null }, "geometry": { "type": "Point", "coordinates": [ 136.757669250297084, 35.401612875406379 ] } },
{ "type": "Feature", "properties": { "内容": "株式会社スマイリープ【福祉用具貸与】岐阜県岐阜市鏡島精華1丁目6番12号", "url": "https://www.kaigokensaku.mhlw.go.jp/21/index.php?action_kouhyou_detail_004_kani=true&JigyosyoCd=2170105569-00&ServiceCd=170&Type=search", "url2": "http://www.smileap.care" }, "geometry": { "type": "Point", "coordinates": [ 136.724324635063084, 35.412002098951902 ] } },
{ "type": "Feature", "properties": { "内容": "Liv【福祉用具貸与】岐阜県岐阜市柳津町梅松4丁目19-2", "url": "https://www.kaigokensaku.mhlw.go.jp/21/index.php?action_kouhyou_detail_004_kani=true&JigyosyoCd=2170114363-00&ServiceCd=170&Type=search", "url2": null }, "geometry": { "type": "Point", "coordinates": [ 136.741337872390687, 35.362729368242597 ] } },
{ "type": "Feature", "properties": { "内容": "ライフまごのて【福祉用具貸与】岐阜県岐阜市福光南町12-15", "url": "https://www.kaigokensaku.mhlw.go.jp/21/index.php?action_kouhyou_detail_004_kani=true&JigyosyoCd=2170116210-00&ServiceCd=170&Type=search", "url2": null }, "geometry": { "type": "Point", "coordinates": [ 136.7659009, 35.4485738 ] } },
{ "type": "Feature", "properties": { "内容": "福祉用具のSMILION【福祉用具貸与】岐阜県岐阜市東中島1-2-3", "url": "https://www.kaigokensaku.mhlw.go.jp/21/index.php?action_kouhyou_detail_004_kani=true&JigyosyoCd=2170115063-00&ServiceCd=170&Type=search", "url2": "https://smilion.jp/index.html" }, "geometry": { "type": "Point", "coordinates": [ 136.803615668337301, 35.390393690757918 ] } },
{ "type": "Feature", "properties": { "内容": "株式会社大石電気商会パナソニックエイジフリーショップ大垣【福祉用具貸与】岐阜県大垣市藤江町２丁目９７", "url": "https://www.kaigokensaku.mhlw.go.jp/21/index.php?action_kouhyou_detail_004_kani=true&JigyosyoCd=2172100618-00&ServiceCd=170&Type=search", "url2": "http://www.ooishidenki.com" }, "geometry": { "type": "Point", "coordinates": [ 136.623668913955754, 35.36429335093046 ] } },
{ "type": "Feature", "properties": { "内容": "福祉用具いずみ【福祉用具貸与】岐阜県大垣市西崎町２丁目７０番地", "url": "https://www.kaigokensaku.mhlw.go.jp/21/index.php?action_kouhyou_detail_004_kani=true&JigyosyoCd=2172100709-00&ServiceCd=170&Type=search", "url2": null }, "geometry": { "type": "Point", "coordinates": [ 136.607946770502906, 35.360913872673557 ] } },
{ "type": "Feature", "properties": { "内容": "株式会社　ハートサービス【福祉用具貸与】岐阜県大垣市矢道町1丁目23番地", "url": "https://www.kaigokensaku.mhlw.go.jp/21/index.php?action_kouhyou_detail_004_kani=true&JigyosyoCd=2172100196-00&ServiceCd=170&Type=search", "url2": "https://heart-gp.org/sv-top/" }, "geometry": { "type": "Point", "coordinates": [ 136.5568101, 35.3726199 ] } },
{ "type": "Feature", "properties": { "内容": "アシストケアワカミヤ【福祉用具貸与】岐阜県大垣市本今4丁目26-1", "url": "https://www.kaigokensaku.mhlw.go.jp/21/index.php?action_kouhyou_detail_004_kani=true&JigyosyoCd=2172100352-00&ServiceCd=170&Type=search", "url2": null }, "geometry": { "type": "Point", "coordinates": [ 136.606046099999958, 35.3474047 ] } },
{ "type": "Feature", "properties": { "内容": "株式会社友悠【福祉用具貸与】岐阜県大垣市西長町31番地", "url": "https://www.kaigokensaku.mhlw.go.jp/21/index.php?action_kouhyou_detail_004_kani=true&JigyosyoCd=2172102143-00&ServiceCd=170&Type=search", "url2": null }, "geometry": { "type": "Point", "coordinates": [ 136.610661700000037, 35.359473 ] } },
{ "type": "Feature", "properties": { "内容": "株式会社ナイスワーク　大垣営業所【福祉用具貸与】岐阜県大垣市本今5丁目128番地", "url": "https://www.kaigokensaku.mhlw.go.jp/21/index.php?action_kouhyou_detail_004_kani=true&JigyosyoCd=2172102515-00&ServiceCd=170&Type=search", "url2": "http://www.nicework.co.jp" }, "geometry": { "type": "Point", "coordinates": [ 136.61331355937071, 35.346906299171309 ] } },
{ "type": "Feature", "properties": { "内容": "Hi-Road　Medical　福祉用具貸与事業所【福祉用具貸与】岐阜県大垣市平町243番地2", "url": "https://www.kaigokensaku.mhlw.go.jp/21/index.php?action_kouhyou_detail_004_kani=true&JigyosyoCd=2172102523-00&ServiceCd=170&Type=search", "url2": "http://www.hi-road-medical.com" }, "geometry": { "type": "Point", "coordinates": [ 136.645102899999983, 35.3415367 ] } },
{ "type": "Feature", "properties": { "内容": "ＯＫＢケアサービス明星【福祉用具貸与】岐阜県大垣市郭町2丁目25番地Kix中央ビル2F", "url": "https://www.kaigokensaku.mhlw.go.jp/21/index.php?action_kouhyou_detail_004_kani=true&JigyosyoCd=2172102549-00&ServiceCd=170&Type=search", "url2": "http://www.myojo.jp/" }, "geometry": { "type": "Point", "coordinates": [ 136.61664410000003, 35.3604676 ] } },
{ "type": "Feature", "properties": { "内容": "株式会社トーカイ　大垣営業所【福祉用具貸与】岐阜県大垣市新田町3丁目7番地", "url": "https://www.kaigokensaku.mhlw.go.jp/21/index.php?action_kouhyou_detail_004_kani=true&JigyosyoCd=2172102879-00&ServiceCd=170&Type=search", "url2": "https://www.tokai-corp.com/" }, "geometry": { "type": "Point", "coordinates": [ 136.622232, 35.346083 ] } },
{ "type": "Feature", "properties": { "内容": "すまいる訪問看護リハビリステーション【福祉用具貸与】岐阜県高山市下林町８３１－１", "url": "https://www.kaigokensaku.mhlw.go.jp/21/index.php?action_kouhyou_detail_004_kani=true&JigyosyoCd=2162790105-00&ServiceCd=170&Type=search", "url2": null }, "geometry": { "type": "Point", "coordinates": [ 137.227842214474634, 36.155314434978855 ] } },
{ "type": "Feature", "properties": { "内容": "株式会社　ケア高山【福祉用具貸与】岐阜県高山市岡本町4丁目311-14", "url": "https://www.kaigokensaku.mhlw.go.jp/21/index.php?action_kouhyou_detail_004_kani=true&JigyosyoCd=2172700102-00&ServiceCd=170&Type=search", "url2": "https://www.caretakayama.com" }, "geometry": { "type": "Point", "coordinates": [ 137.247394749573118, 36.152523026737327 ] } },
{ "type": "Feature", "properties": { "内容": "高山市福祉サービス公社【福祉用具貸与】岐阜県高山市森下町１丁目２０８番地1階", "url": "https://www.kaigokensaku.mhlw.go.jp/21/index.php?action_kouhyou_detail_004_kani=true&JigyosyoCd=2172700250-00&ServiceCd=170&Type=search", "url2": "http://www.takayamakousya.jp/" }, "geometry": { "type": "Point", "coordinates": [ 137.259186499999942, 36.1319422 ] } },
{ "type": "Feature", "properties": { "内容": "有限会社アドバンス飛騨【福祉用具貸与】岐阜県高山市一之宮町１５６６－１", "url": "https://www.kaigokensaku.mhlw.go.jp/21/index.php?action_kouhyou_detail_004_kani=true&JigyosyoCd=2172700953-00&ServiceCd=170&Type=search", "url2": "https://advance-hida.jimdofree.com/" }, "geometry": { "type": "Point", "coordinates": [ 137.219905033729532, 36.077202 ] } },
{ "type": "Feature", "properties": { "内容": "福祉用具貸与販売事業所ラルゴ【福祉用具貸与】岐阜県高山市新宮677番地ヒルサイド露越E-5", "url": "https://www.kaigokensaku.mhlw.go.jp/21/index.php?action_kouhyou_detail_004_kani=true&JigyosyoCd=2172701357-00&ServiceCd=170&Type=search", "url2": "http://living-largo.com/" }, "geometry": { "type": "Point", "coordinates": [ 137.209300202377364, 36.131467330637776 ] } },
{ "type": "Feature", "properties": { "内容": "ファインシニアけやき福祉用具貸与事業所【福祉用具貸与】岐阜県高山市昭和町3-180-1", "url": "https://www.kaigokensaku.mhlw.go.jp/21/index.php?action_kouhyou_detail_004_kani=true&JigyosyoCd=2172701464-00&ServiceCd=170&Type=search", "url2": null }, "geometry": { "type": "Point", "coordinates": [ 137.247976608598265, 36.147449402066066 ] } },
{ "type": "Feature", "properties": { "内容": "アシストケア【福祉用具貸与】岐阜県高山市桐生町４丁目267番地4", "url": "https://www.kaigokensaku.mhlw.go.jp/21/index.php?action_kouhyou_detail_004_kani=true&JigyosyoCd=2172701514-00&ServiceCd=170&Type=search", "url2": null }, "geometry": { "type": "Point", "coordinates": [ 137.249056911600974, 36.154509710278525 ] } },
{ "type": "Feature", "properties": { "内容": "福祉用具　えがお【福祉用具貸与】岐阜県高山市岡本町2丁目67-9", "url": "https://www.kaigokensaku.mhlw.go.jp/21/index.php?action_kouhyou_detail_004_kani=true&JigyosyoCd=2172701522-00&ServiceCd=170&Type=search", "url2": "http://hp.kaipoke.biz/ng3/" }, "geometry": { "type": "Point", "coordinates": [ 137.246858893254085, 36.146072822973466 ] } },
{ "type": "Feature", "properties": { "内容": "株式会社ケアサポート洞口【福祉用具貸与】岐阜県高山市桐生町4-372-3", "url": "https://www.kaigokensaku.mhlw.go.jp/21/index.php?action_kouhyou_detail_004_kani=true&JigyosyoCd=2173300159-00&ServiceCd=170&Type=search", "url2": null }, "geometry": { "type": "Point", "coordinates": [ 137.24855070000001, 36.1564056 ] } },
{ "type": "Feature", "properties": { "内容": "株式会社トーカイ高山営業所【福祉用具貸与】岐阜県高山市昭和町３丁目５５番地１９", "url": "https://www.kaigokensaku.mhlw.go.jp/21/index.php?action_kouhyou_detail_004_kani=true&JigyosyoCd=2172700748-00&ServiceCd=170&Type=search", "url2": "http://www.tokai-corp.com/" }, "geometry": { "type": "Point", "coordinates": [ 137.24910639999996, 36.1492121 ] } },
{ "type": "Feature", "properties": { "内容": "Liv’’E【福祉用具貸与】岐阜県多治見市住吉町7丁目29-6ファインビル住吉Ⅱ　105号", "url": "https://www.kaigokensaku.mhlw.go.jp/21/index.php?action_kouhyou_detail_004_kani=true&JigyosyoCd=2171102508-00&ServiceCd=170&Type=search", "url2": null }, "geometry": { "type": "Point", "coordinates": [ 137.120415400000013, 35.3460799 ] } },
{ "type": "Feature", "properties": { "内容": "カム・オン有限会社【福祉用具貸与】岐阜県多治見市上野町３丁目１５番地", "url": "https://www.kaigokensaku.mhlw.go.jp/21/index.php?action_kouhyou_detail_004_kani=true&JigyosyoCd=2171100346-00&ServiceCd=170&Type=search", "url2": "http://www.comeon2000.com/" }, "geometry": { "type": "Point", "coordinates": [ 137.126215699999989, 35.3401324 ] } },
{ "type": "Feature", "properties": { "内容": "株式会社ナイスワーク　多治見支店【福祉用具貸与】岐阜県多治見市新富町2丁目4番地1", "url": "https://www.kaigokensaku.mhlw.go.jp/21/index.php?action_kouhyou_detail_004_kani=true&JigyosyoCd=2171101534-00&ServiceCd=170&Type=search", "url2": "http://nicework.co.jp" }, "geometry": { "type": "Point", "coordinates": [ 137.134783176265756, 35.337301837180775 ] } },
{ "type": "Feature", "properties": { "内容": "株式会社美濃庄　多治見営業所【福祉用具貸与】岐阜県多治見市太平町１丁目１２", "url": "https://www.kaigokensaku.mhlw.go.jp/21/index.php?action_kouhyou_detail_004_kani=true&JigyosyoCd=2171102300-00&ServiceCd=170&Type=search", "url2": "https://minosho.com/" }, "geometry": { "type": "Point", "coordinates": [ 137.113286748479453, 35.333331521476531 ] } },
{ "type": "Feature", "properties": { "内容": "株式会社トーカイ　多治見営業所【福祉用具貸与】岐阜県多治見市若松町4丁目37番3", "url": "https://www.kaigokensaku.mhlw.go.jp/21/index.php?action_kouhyou_detail_004_kani=true&JigyosyoCd=2171102367-00&ServiceCd=170&Type=search", "url2": "http://www.tokai-corp.com/" }, "geometry": { "type": "Point", "coordinates": [ 137.114615174239731, 35.343262269701874 ] } },
{ "type": "Feature", "properties": { "内容": "合同会社ハートフルlife福祉用具貸与事業所【福祉用具貸与】岐阜県多治見市下沢町四丁目78番地の5", "url": "https://www.kaigokensaku.mhlw.go.jp/21/index.php?action_kouhyou_detail_004_kani=true&JigyosyoCd=2171102375-00&ServiceCd=170&Type=search", "url2": null }, "geometry": { "type": "Point", "coordinates": [ 137.152006115968561, 35.321141962801406 ] } },
{ "type": "Feature", "properties": { "内容": "介護福祉サービス　いろは【福祉用具貸与】岐阜県関市山田880－3丹羽ビル２B", "url": "https://www.kaigokensaku.mhlw.go.jp/21/index.php?action_kouhyou_detail_004_kani=true&JigyosyoCd=2170201541-00&ServiceCd=170&Type=search", "url2": null }, "geometry": { "type": "Point", "coordinates": [ 136.861824811604691, 35.473840500611828 ] } },
{ "type": "Feature", "properties": { "内容": "福祉サポート夢咲【福祉用具貸与】岐阜県関市平賀町4-52-1", "url": "https://www.kaigokensaku.mhlw.go.jp/21/index.php?action_kouhyou_detail_004_kani=true&JigyosyoCd=2170201509-00&ServiceCd=170&Type=search", "url2": "https://tenma0404.com/" }, "geometry": { "type": "Point", "coordinates": [ 136.9314264, 35.4838485 ] } },
{ "type": "Feature", "properties": { "内容": "福祉サポート夢咲【福祉用具貸与】岐阜県関市平賀町4丁目52番", "url": "https://www.kaigokensaku.mhlw.go.jp/21/index.php?action_kouhyou_detail_004_kani=true&JigyosyoCd=2170201715-00&ServiceCd=170&Type=search", "url2": "https://tenma0404.com/" }, "geometry": { "type": "Point", "coordinates": [ 136.9377149, 35.486489 ] } },
{ "type": "Feature", "properties": { "内容": "平成会福祉用具事業所【福祉用具貸与】岐阜県関市市平賀大知洞566番地１", "url": "https://www.kaigokensaku.mhlw.go.jp/21/index.php?action_kouhyou_detail_004_kani=true&JigyosyoCd=2170200436-00&ServiceCd=170&Type=search", "url2": "https://swct.or.jp/swch.html" }, "geometry": { "type": "Point", "coordinates": [ 136.937476599999968, 35.4842619 ] } },
{ "type": "Feature", "properties": { "内容": "ＪＡめぐみの介護サービス【福祉用具貸与】岐阜県関市若草通１丁目１番地", "url": "https://www.kaigokensaku.mhlw.go.jp/21/index.php?action_kouhyou_detail_004_kani=true&JigyosyoCd=2170200519-00&ServiceCd=170&Type=search", "url2": "http://www.ja-megumino.or.jp" }, "geometry": { "type": "Point", "coordinates": [ 136.91397, 35.4967988 ] } },
{ "type": "Feature", "properties": { "内容": "ラクア　アイテム【福祉用具貸与】岐阜県関市小瀬1431-1", "url": "https://www.kaigokensaku.mhlw.go.jp/21/index.php?action_kouhyou_detail_004_kani=true&JigyosyoCd=2170201467-00&ServiceCd=170&Type=search", "url2": "http://frontique.com" }, "geometry": { "type": "Point", "coordinates": [ 136.890460998811363, 35.488358757823512 ] } },
{ "type": "Feature", "properties": { "内容": "アシスト関【福祉用具貸与】岐阜県関市天徳町２丁目２－４３レジデンスさくらヶ丘101", "url": "https://www.kaigokensaku.mhlw.go.jp/21/index.php?action_kouhyou_detail_004_kani=true&JigyosyoCd=2170200774-00&ServiceCd=170&Type=search", "url2": null }, "geometry": { "type": "Point", "coordinates": [ 136.932052125656128, 35.475925629286486 ] } },
{ "type": "Feature", "properties": { "内容": "株式会社トーカイ中津川営業所【福祉用具貸与】岐阜県中津川市北野町1番36号", "url": "https://www.kaigokensaku.mhlw.go.jp/21/index.php?action_kouhyou_detail_004_kani=true&JigyosyoCd=2171500594-00&ServiceCd=170&Type=search", "url2": "http://www.tokai-corp.com/" }, "geometry": { "type": "Point", "coordinates": [ 137.503203918979636, 35.503042186558666 ] } },
{ "type": "Feature", "properties": { "内容": "有限会社ライフサポートぎふ【福祉用具貸与】岐阜県中津川市駒場７３１－４", "url": "https://www.kaigokensaku.mhlw.go.jp/21/index.php?action_kouhyou_detail_004_kani=true&JigyosyoCd=2171500776-00&ServiceCd=170&Type=search", "url2": "http://www.rakuten.co.jp/lsg/" }, "geometry": { "type": "Point", "coordinates": [ 137.495073300000058, 35.4972657 ] } },
{ "type": "Feature", "properties": { "内容": "ケアサポートはやかわ【福祉用具貸与】岐阜県中津川市付知町10169番地1", "url": "https://www.kaigokensaku.mhlw.go.jp/21/index.php?action_kouhyou_detail_004_kani=true&JigyosyoCd=2171501105-00&ServiceCd=170&Type=search", "url2": null }, "geometry": { "type": "Point", "coordinates": [ 137.437597900000043, 35.648119246958174 ] } },
{ "type": "Feature", "properties": { "内容": "株式会社ユーワン介護用品専門店【福祉用具貸与】岐阜県中津川市福岡978－97", "url": "https://www.kaigokensaku.mhlw.go.jp/21/index.php?action_kouhyou_detail_004_kani=true&JigyosyoCd=2172000420-00&ServiceCd=170&Type=search", "url2": "http://www.yuwan.jp" }, "geometry": { "type": "Point", "coordinates": [ 137.4520824, 35.5630025 ] } },
{ "type": "Feature", "properties": { "内容": "株式会社福祉の里　美濃営業所【福祉用具貸与】岐阜県美濃市松森595番地マツモリビル", "url": "https://www.kaigokensaku.mhlw.go.jp/21/index.php?action_kouhyou_detail_004_kani=true&JigyosyoCd=2170300228-00&ServiceCd=170&Type=search", "url2": "https://www.fukushinosato.co.jp/facility/mino.html" }, "geometry": { "type": "Point", "coordinates": [ 136.9085675, 35.5305799 ] } },
{ "type": "Feature", "properties": { "内容": "ナガヤ　福祉用具【福祉用具貸与】岐阜県瑞浪市寺河戸町1184番地の２", "url": "https://www.kaigokensaku.mhlw.go.jp/21/index.php?action_kouhyou_detail_004_kani=true&JigyosyoCd=2171600261-00&ServiceCd=170&Type=search", "url2": "https://yugengaisha-nagaya.com/" }, "geometry": { "type": "Point", "coordinates": [ 137.252803973016398, 35.368436479223554 ] } },
{ "type": "Feature", "properties": { "内容": "有限会社つちや家具【福祉用具貸与】岐阜県瑞浪市北小田町２丁目１５１番地", "url": "https://www.kaigokensaku.mhlw.go.jp/21/index.php?action_kouhyou_detail_004_kani=true&JigyosyoCd=2171600709-00&ServiceCd=170&Type=search", "url2": null }, "geometry": { "type": "Point", "coordinates": [ 137.243435, 35.3586513 ] } },
{ "type": "Feature", "properties": { "内容": "ベターライフケア【福祉用具貸与】岐阜県瑞浪市土岐町6691－2", "url": "https://www.kaigokensaku.mhlw.go.jp/21/index.php?action_kouhyou_detail_004_kani=true&JigyosyoCd=2171600790-00&ServiceCd=170&Type=search", "url2": "http://matsui-dk.com" }, "geometry": { "type": "Point", "coordinates": [ 137.261119199999939, 35.3672147 ] } },
{ "type": "Feature", "properties": { "内容": "特定非営利活動法人コンフォートケア【福祉用具貸与】岐阜県羽島市竹鼻町狐穴字下土手1597番地1", "url": "https://www.kaigokensaku.mhlw.go.jp/21/index.php?action_kouhyou_detail_004_kani=true&JigyosyoCd=2170400820-00&ServiceCd=170&Type=search", "url2": null }, "geometry": { "type": "Point", "coordinates": [ 136.706273537048361, 35.320238981652771 ] } },
{ "type": "Feature", "properties": { "内容": "株式会社トーカイ　岐阜営業課【福祉用具貸与】岐阜県羽島市正木町須賀赤松2627番地", "url": "https://www.kaigokensaku.mhlw.go.jp/21/index.php?action_kouhyou_detail_004_kani=true&JigyosyoCd=2170400846-00&ServiceCd=170&Type=search", "url2": "http://www.tokai-corp.com/" }, "geometry": { "type": "Point", "coordinates": [ 136.739628378712496, 35.342629569007165 ] } },
{ "type": "Feature", "properties": { "内容": "ファミリア福祉用具サービス【福祉用具貸与】岐阜県羽島市竹鼻町丸の内10丁目72番地5", "url": "https://www.kaigokensaku.mhlw.go.jp/21/index.php?action_kouhyou_detail_004_kani=true&JigyosyoCd=2170401471-00&ServiceCd=170&Type=search", "url2": null }, "geometry": { "type": "Point", "coordinates": [ 136.696030161515807, 35.328240180999948 ] } },
{ "type": "Feature", "properties": { "内容": "Kanekuコーポレーション　ライフケア事業部【福祉用具貸与】岐阜県恵那市大井町1122-4", "url": "https://www.kaigokensaku.mhlw.go.jp/21/index.php?action_kouhyou_detail_004_kani=true&JigyosyoCd=2171700566-00&ServiceCd=170&Type=search", "url2": "https://www.kaneku.com" }, "geometry": { "type": "Point", "coordinates": [ 137.421359046241037, 35.453857227097323 ] } },
{ "type": "Feature", "properties": { "内容": "中部ケアサービス【福祉用具貸与】岐阜県恵那市長島町中野1216-8", "url": "https://www.kaigokensaku.mhlw.go.jp/21/index.php?action_kouhyou_detail_004_kani=true&JigyosyoCd=2171700681-00&ServiceCd=170&Type=search", "url2": "https://chubu-gpf.or.jp/nursingcare/#service03" }, "geometry": { "type": "Point", "coordinates": [ 137.394849746032719, 35.455806537080917 ] } },
{ "type": "Feature", "properties": { "内容": "株式会社オア・シス恵那営業所【福祉用具貸与】岐阜県恵那市大井町667-27", "url": "https://www.kaigokensaku.mhlw.go.jp/21/index.php?action_kouhyou_detail_004_kani=true&JigyosyoCd=2171700905-00&ServiceCd=170&Type=search", "url2": null }, "geometry": { "type": "Point", "coordinates": [ 137.412109688646296, 35.453863541026415 ] } },
{ "type": "Feature", "properties": { "内容": "有限会社エムエスサービス【福祉用具貸与】岐阜県美濃加茂市太田町174", "url": "https://www.kaigokensaku.mhlw.go.jp/21/index.php?action_kouhyou_detail_004_kani=true&JigyosyoCd=2171200237-00&ServiceCd=170&Type=search", "url2": "http://meet-smile.com/" }, "geometry": { "type": "Point", "coordinates": [ 137.013252941564758, 35.449730319387392 ] } },
{ "type": "Feature", "properties": { "内容": "たちばなや【福祉用具貸与】岐阜県土岐市泉町久尻44番地の19", "url": "https://www.kaigokensaku.mhlw.go.jp/21/index.php?action_kouhyou_detail_004_kani=true&JigyosyoCd=2171800127-00&ServiceCd=170&Type=search", "url2": null }, "geometry": { "type": "Point", "coordinates": [ 137.183740700000044, 35.3569275 ] } },
{ "type": "Feature", "properties": { "内容": "有限会社棉好【福祉用具貸与】岐阜県土岐市泉町久尻50-19", "url": "https://www.kaigokensaku.mhlw.go.jp/21/index.php?action_kouhyou_detail_004_kani=true&JigyosyoCd=2171800200-00&ServiceCd=170&Type=search", "url2": "https://shop.tokicci.or.jp/watayoshi/" }, "geometry": { "type": "Point", "coordinates": [ 137.181266, 35.3564885 ] } },
{ "type": "Feature", "properties": { "内容": "有限会社　ミノタ家具【福祉用具貸与】岐阜県土岐市肥田浅野元町1-6-1", "url": "https://www.kaigokensaku.mhlw.go.jp/21/index.php?action_kouhyou_detail_004_kani=true&JigyosyoCd=2171800762-00&ServiceCd=170&Type=search", "url2": null }, "geometry": { "type": "Point", "coordinates": [ 137.2004862, 35.3600582 ] } },
{ "type": "Feature", "properties": { "内容": "株式会社福祉の里　土岐【福祉用具貸与】岐阜県土岐市土岐口中町三丁目96", "url": "https://www.kaigokensaku.mhlw.go.jp/21/index.php?action_kouhyou_detail_004_kani=true&JigyosyoCd=2171800804-00&ServiceCd=170&Type=search", "url2": "https://www.fukushinosato.co.jp/facility/toki.html" }, "geometry": { "type": "Point", "coordinates": [ 137.175513979803867, 35.346822138723958 ] } },
{ "type": "Feature", "properties": { "内容": "美善　岐阜店【福祉用具貸与】岐阜県土岐市泉東窯町３丁目２０番地", "url": "https://www.kaigokensaku.mhlw.go.jp/21/index.php?action_kouhyou_detail_004_kani=true&JigyosyoCd=2171800978-00&ServiceCd=170&Type=search", "url2": null }, "geometry": { "type": "Point", "coordinates": [ 137.190420200000062, 35.3698428 ] } },
{ "type": "Feature", "properties": { "内容": "福祉サポート　東濃営業所【福祉用具貸与】岐阜県土岐市泉が丘町４丁目１３５", "url": "https://www.kaigokensaku.mhlw.go.jp/21/index.php?action_kouhyou_detail_004_kani=true&JigyosyoCd=2171801257-00&ServiceCd=170&Type=search", "url2": "https://www.fukushi-support.co.jp/" }, "geometry": { "type": "Point", "coordinates": [ 137.171859500000011, 35.3741853 ] } },
{ "type": "Feature", "properties": { "内容": "住ま居るレンタルサービス【福祉用具貸与】岐阜県土岐市下石町304-136", "url": "https://www.kaigokensaku.mhlw.go.jp/21/index.php?action_kouhyou_detail_004_kani=true&JigyosyoCd=2171801075-00&ServiceCd=170&Type=search", "url2": "http://www.smile-tajimi.com" }, "geometry": { "type": "Point", "coordinates": [ 137.172417200000041, 35.3140648 ] } },
{ "type": "Feature", "properties": { "内容": "株式会社五月商店【福祉用具貸与】岐阜県各務原市鵜沼古市場町2-56-3", "url": "https://www.kaigokensaku.mhlw.go.jp/21/index.php?action_kouhyou_detail_004_kani=true&JigyosyoCd=2170500017-00&ServiceCd=170&Type=search", "url2": "https://www.satsuki-5.co.jp/" }, "geometry": { "type": "Point", "coordinates": [ 136.936511600000017, 35.396618600000011 ] } },
{ "type": "Feature", "properties": { "内容": "有限会社メディックス【福祉用具貸与】岐阜県各務原市鵜沼小伊木町1-70-1", "url": "https://www.kaigokensaku.mhlw.go.jp/21/index.php?action_kouhyou_detail_004_kani=true&JigyosyoCd=2170500140-00&ServiceCd=170&Type=search", "url2": "https://medix-gifu.com" }, "geometry": { "type": "Point", "coordinates": [ 136.930008318385262, 35.392755057721942 ] } },
{ "type": "Feature", "properties": { "内容": "コープぎふ福祉サポートセンター【福祉用具貸与】岐阜県各務原市蘇原六軒町３丁目38-2", "url": "https://www.kaigokensaku.mhlw.go.jp/21/index.php?action_kouhyou_detail_004_kani=true&JigyosyoCd=2170500272-00&ServiceCd=170&Type=search", "url2": "http://www.coop-gifu.jp/" }, "geometry": { "type": "Point", "coordinates": [ 136.862349433972668, 35.400823823328977 ] } },
{ "type": "Feature", "properties": { "内容": "福祉サポート　岐阜営業所【福祉用具貸与】岐阜県各務原市那加桐野外二ヶ大字入会地6-4エステイタスKN-6　102号", "url": "https://www.kaigokensaku.mhlw.go.jp/21/index.php?action_kouhyou_detail_004_kani=true&JigyosyoCd=2170502237-00&ServiceCd=170&Type=search", "url2": "http://www.fukushi-support.co.jp" }, "geometry": { "type": "Point", "coordinates": [ 136.857017587642474, 35.398530139763977 ] } },
{ "type": "Feature", "properties": { "内容": "ＪＡめぐみの介護サービス可児営業所【福祉用具貸与】岐阜県可児市川合2228-4", "url": "https://www.kaigokensaku.mhlw.go.jp/21/index.php?action_kouhyou_detail_004_kani=true&JigyosyoCd=2173100781-00&ServiceCd=170&Type=search", "url2": "http://www.ja-megumino.or.jp" }, "geometry": { "type": "Point", "coordinates": [ 137.054787316471874, 35.441161992846006 ] } },
{ "type": "Feature", "properties": { "内容": "やまもと企画株式会社【福祉用具貸与】岐阜県可児市塩河1054番地の1", "url": "https://www.kaigokensaku.mhlw.go.jp/21/index.php?action_kouhyou_detail_004_kani=true&JigyosyoCd=2173100062-00&ServiceCd=170&Type=search", "url2": "https://yamamotokikaku.co.jp/" }, "geometry": { "type": "Point", "coordinates": [ 137.035742199999959, 35.3772419 ] } },
{ "type": "Feature", "properties": { "内容": "えにし　ぎふ【福祉用具貸与】岐阜県可児市土田2546番地246", "url": "https://www.kaigokensaku.mhlw.go.jp/21/index.php?action_kouhyou_detail_004_kani=true&JigyosyoCd=2173100757-00&ServiceCd=170&Type=search", "url2": null }, "geometry": { "type": "Point", "coordinates": [ 137.026272, 35.4318185 ] } },
{ "type": "Feature", "properties": { "内容": "ハートリフト【福祉用具貸与】岐阜県可児市下恵土5131", "url": "https://www.kaigokensaku.mhlw.go.jp/21/index.php?action_kouhyou_detail_004_kani=true&JigyosyoCd=2173101524-00&ServiceCd=170&Type=search", "url2": null }, "geometry": { "type": "Point", "coordinates": [ 137.052938387835695, 35.424007471629423 ] } },
{ "type": "Feature", "properties": { "内容": "スズキアートホーム株式会社【福祉用具貸与】岐阜県可児市土田２２１３番地の１３", "url": "https://www.kaigokensaku.mhlw.go.jp/21/index.php?action_kouhyou_detail_004_kani=true&JigyosyoCd=2173100211-00&ServiceCd=170&Type=search", "url2": "https://www.suzuki-ah.com" }, "geometry": { "type": "Point", "coordinates": [ 137.0138057, 35.4224691 ] } },
{ "type": "Feature", "properties": { "内容": "福祉用具Quality【福祉用具貸与】岐阜県山県市東深瀬505-1", "url": "https://www.kaigokensaku.mhlw.go.jp/21/index.php?action_kouhyou_detail_004_kani=true&JigyosyoCd=2170800557-00&ServiceCd=170&Type=search", "url2": "https://heian-gifu.jp/" }, "geometry": { "type": "Point", "coordinates": [ 136.7909756, 35.5199745 ] } },
{ "type": "Feature", "properties": { "内容": "介護ショップ　優結【福祉用具貸与】岐阜県飛騨市神岡町坂富町19-5", "url": "https://www.kaigokensaku.mhlw.go.jp/21/index.php?action_kouhyou_detail_004_kani=true&JigyosyoCd=2173300092-00&ServiceCd=170&Type=search", "url2": null }, "geometry": { "type": "Point", "coordinates": [ 137.303373299999947, 36.3264259 ] } },
{ "type": "Feature", "properties": { "内容": "有限会社　古川住設管工事【福祉用具貸与】岐阜県飛騨市古川町上町９５４－１", "url": "https://www.kaigokensaku.mhlw.go.jp/21/index.php?action_kouhyou_detail_004_kani=true&JigyosyoCd=2173300126-00&ServiceCd=170&Type=search", "url2": null }, "geometry": { "type": "Point", "coordinates": [ 137.190528, 36.225820400000011 ] } },
{ "type": "Feature", "properties": { "内容": "合同会社　みんなの羽【福祉用具貸与】岐阜県本巣市下真桑４６５－６", "url": "https://www.kaigokensaku.mhlw.go.jp/21/index.php?action_kouhyou_detail_004_kani=true&JigyosyoCd=2173400538-00&ServiceCd=170&Type=search", "url2": null }, "geometry": { "type": "Point", "coordinates": [ 136.660424130514002, 35.441419827559045 ] } },
{ "type": "Feature", "properties": { "内容": "カネコ株式会社郡上営業所【福祉用具貸与】岐阜県郡上市白鳥町白鳥1063番地の14", "url": "https://www.kaigokensaku.mhlw.go.jp/21/index.php?action_kouhyou_detail_004_kani=true&JigyosyoCd=2171000165-00&ServiceCd=170&Type=search", "url2": "http://www.kanekolinen.jp" }, "geometry": { "type": "Point", "coordinates": [ 136.857113799999979, 35.8832853 ] } },
{ "type": "Feature", "properties": { "内容": "ヘルパーステーションしろとり【福祉用具貸与】岐阜県郡上市白鳥町白鳥２－6", "url": "https://www.kaigokensaku.mhlw.go.jp/21/index.php?action_kouhyou_detail_004_kani=true&JigyosyoCd=2111000747-00&ServiceCd=170&Type=search", "url2": null }, "geometry": { "type": "Point", "coordinates": [ 136.8575194, 35.8788691 ] } },
{ "type": "Feature", "properties": { "内容": "ケアショップそよかぜ【福祉用具貸与】岐阜県郡上市白鳥町越佐１６９番地", "url": "https://www.kaigokensaku.mhlw.go.jp/21/index.php?action_kouhyou_detail_004_kani=true&JigyosyoCd=2171000702-00&ServiceCd=170&Type=search", "url2": null }, "geometry": { "type": "Point", "coordinates": [ 136.853042400000049, 35.8661233 ] } },
{ "type": "Feature", "properties": { "内容": "株式会社　畑中水道【福祉用具貸与】岐阜県郡上市大和町剣1601-8", "url": "https://www.kaigokensaku.mhlw.go.jp/21/index.php?action_kouhyou_detail_004_kani=true&JigyosyoCd=2171000710-00&ServiceCd=170&Type=search", "url2": "http://hata-sd.com/" }, "geometry": { "type": "Point", "coordinates": [ 136.889036300000043, 35.8245784 ] } },
{ "type": "Feature", "properties": { "内容": "有限会社みどりの店【福祉用具貸与】岐阜県下呂市森２４３０－１", "url": "https://www.kaigokensaku.mhlw.go.jp/21/index.php?action_kouhyou_detail_004_kani=true&JigyosyoCd=2172800076-00&ServiceCd=170&Type=search", "url2": "https://midorinomise.jp" }, "geometry": { "type": "Point", "coordinates": [ 137.247236, 35.8070401 ] } },
{ "type": "Feature", "properties": { "内容": "福祉用具のつみき【福祉用具貸与】岐阜県下呂市萩原町中呂197-1", "url": "https://www.kaigokensaku.mhlw.go.jp/21/index.php?action_kouhyou_detail_004_kani=true&JigyosyoCd=2172800274-00&ServiceCd=170&Type=search", "url2": "http://www.imamurashokai.co.jp/tsumik_topi.php" }, "geometry": { "type": "Point", "coordinates": [ 137.2230174, 35.853364 ] } },
{ "type": "Feature", "properties": { "内容": "正直屋介護支援サービス【福祉用具貸与】岐阜県下呂市森８７２－１８", "url": "https://www.kaigokensaku.mhlw.go.jp/21/index.php?action_kouhyou_detail_004_kani=true&JigyosyoCd=2172800696-00&ServiceCd=170&Type=search", "url2": null }, "geometry": { "type": "Point", "coordinates": [ 137.245189100000061, 35.8034431 ] } },
{ "type": "Feature", "properties": { "内容": "SBライフ【福祉用具貸与】岐阜県羽島郡岐南町三宅2丁目58番地", "url": "https://www.kaigokensaku.mhlw.go.jp/21/index.php?action_kouhyou_detail_004_kani=true&JigyosyoCd=2170601260-00&ServiceCd=170&Type=search", "url2": null }, "geometry": { "type": "Point", "coordinates": [ 136.794057400000042, 35.393939 ] } },
{ "type": "Feature", "properties": { "内容": "ケアレンタルうぃんぐ【福祉用具貸与】岐阜県羽島郡岐南町伏屋９丁目１５３-１", "url": "https://www.kaigokensaku.mhlw.go.jp/21/index.php?action_kouhyou_detail_004_kani=true&JigyosyoCd=2170601401-00&ServiceCd=170&Type=search", "url2": null }, "geometry": { "type": "Point", "coordinates": [ 136.78550445441445, 35.380894053794464 ] } },
{ "type": "Feature", "properties": { "内容": "サンライズケアステーション【福祉用具貸与】岐阜県羽島郡岐南町八剣2丁目27番地", "url": "https://www.kaigokensaku.mhlw.go.jp/21/index.php?action_kouhyou_detail_004_kani=true&JigyosyoCd=2170600700-00&ServiceCd=170&Type=search", "url2": "http://sunrise-station.jp" }, "geometry": { "type": "Point", "coordinates": [ 136.781670202481422, 35.392963322481783 ] } },
{ "type": "Feature", "properties": { "内容": "株式会社　松永製作所【福祉用具貸与】岐阜県養老郡養老町大場484", "url": "https://www.kaigokensaku.mhlw.go.jp/21/index.php?action_kouhyou_detail_004_kani=true&JigyosyoCd=2172300051-00&ServiceCd=170&Type=search", "url2": "https://www.matsunaga-w.co.jp/" }, "geometry": { "type": "Point", "coordinates": [ 136.586947400000014, 35.2711229 ] } },
{ "type": "Feature", "properties": { "内容": "株式会社K-support岐阜【福祉用具貸与】岐阜県養老郡養老町有尾２０番地５", "url": "https://www.kaigokensaku.mhlw.go.jp/21/index.php?action_kouhyou_detail_004_kani=true&JigyosyoCd=2172300531-00&ServiceCd=170&Type=search", "url2": "https://k-support-gifu.co.jp" }, "geometry": { "type": "Point", "coordinates": [ 136.5725708, 35.2734313 ] } },
{ "type": "Feature", "properties": { "内容": "弁慶せいのう【福祉用具貸与】岐阜県不破郡垂井町垂井１５６１－２", "url": "https://www.kaigokensaku.mhlw.go.jp/21/index.php?action_kouhyou_detail_004_kani=true&JigyosyoCd=2172400281-00&ServiceCd=170&Type=search", "url2": null }, "geometry": { "type": "Point", "coordinates": [ 136.5298487, 35.3706507 ] } },
{ "type": "Feature", "properties": { "内容": "福祉用具waはびリース【福祉用具貸与】岐阜県揖斐郡大野町公郷79", "url": "https://www.kaigokensaku.mhlw.go.jp/21/index.php?action_kouhyou_detail_004_kani=true&JigyosyoCd=2172601326-00&ServiceCd=170&Type=search", "url2": "https://nagomi-wa.com" }, "geometry": { "type": "Point", "coordinates": [ 136.603740900000048, 35.4612649 ] } },
{ "type": "Feature", "properties": { "内容": "株式会社　新生メディカル【福祉用具貸与】岐阜県揖斐郡池田町本郷1531-1", "url": "https://www.kaigokensaku.mhlw.go.jp/21/index.php?action_kouhyou_detail_004_kani=true&JigyosyoCd=2172600948-00&ServiceCd=170&Type=search", "url2": "http://www.shinsei-md.jp/" }, "geometry": { "type": "Point", "coordinates": [ 136.574906300000066, 35.4428948 ] } }
]
}
