{
"type": "FeatureCollection",
"name": "geo_21_専修学校",
"crs": { "type": "name", "properties": { "name": "urn:ogc:def:crs:EPSG::6668" } },
"features": [
{ "type": "Feature", "properties": { "P29_001": "21201", "P29_002": "H121220100019", "P29_003": "16016", "P29_004": "岐阜県立衛生専門学校", "P29_005": "岐阜県岐阜市野一色4-11-2", "P29_006": "2", "P29_007": "0", "P29_008": "00", "P29_009": null }, "geometry": { "type": "Point", "coordinates": [ 136.800178032881291, 35.410679783070805 ] } },
{ "type": "Feature", "properties": { "P29_001": "21201", "P29_002": "H121220100028", "P29_003": "16016", "P29_004": "岐阜市立看護専門学校", "P29_005": "岐阜県岐阜市鹿島町7-1", "P29_006": "3", "P29_007": "0", "P29_008": "00", "P29_009": null }, "geometry": { "type": "Point", "coordinates": [ 136.733502590036096, 35.41437287228009 ] } },
{ "type": "Feature", "properties": { "P29_001": "21204", "P29_002": "H121220400016", "P29_003": "16016", "P29_004": "岐阜県立多治見看護専門学校", "P29_005": "岐阜県多治見市前畑町5-11-15", "P29_006": "2", "P29_007": "0", "P29_008": "00", "P29_009": null }, "geometry": { "type": "Point", "coordinates": [ 137.111042270440691, 35.32881747409899 ] } },
{ "type": "Feature", "properties": { "P29_001": "21207", "P29_002": "H121220700013", "P29_003": "16016", "P29_004": "岐阜県立森林文化アカデミー", "P29_005": "岐阜県美濃市曽代88", "P29_006": "2", "P29_007": "0", "P29_008": "00", "P29_009": null }, "geometry": { "type": "Point", "coordinates": [ 136.917666116788951, 35.555248481906865 ] } },
{ "type": "Feature", "properties": { "P29_001": "21212", "P29_002": "H121221200016", "P29_003": "16016", "P29_004": "東濃西部広域行政事務組合立東濃看護専門学校", "P29_005": "岐阜県土岐市土岐津町土岐口703-24", "P29_006": "3", "P29_007": "0", "P29_008": "00", "P29_009": null }, "geometry": { "type": "Point", "coordinates": [ 137.18922192105083, 35.333640534985165 ] } },
{ "type": "Feature", "properties": { "P29_001": "21214", "P29_002": "H121221400014", "P29_003": "16016", "P29_004": "岐阜県立国際園芸アカデミー", "P29_005": "岐阜県可児市塩1094-8", "P29_006": "2", "P29_007": "0", "P29_008": "00", "P29_009": null }, "geometry": { "type": "Point", "coordinates": [ 137.032436523679166, 35.411256172199273 ] } },
{ "type": "Feature", "properties": { "P29_001": "21220", "P29_002": "H121222000016", "P29_003": "16016", "P29_004": "岐阜県立下呂看護専門学校", "P29_005": "岐阜県下呂市幸田1128-1", "P29_006": "2", "P29_007": "0", "P29_008": "00", "P29_009": null }, "geometry": { "type": "Point", "coordinates": [ 137.237575578543016, 35.809190732759994 ] } },
{ "type": "Feature", "properties": { "P29_001": "21201", "P29_002": "H121320100017", "P29_003": "16016", "P29_004": "石木編物専門学校", "P29_005": "岐阜県岐阜市上竹町26", "P29_006": "4", "P29_007": "0", "P29_008": "00", "P29_009": null }, "geometry": { "type": "Point", "coordinates": [ 136.76431699541925, 35.427489004144803 ] } },
{ "type": "Feature", "properties": { "P29_001": "21201", "P29_002": "H121320100026", "P29_003": "16016", "P29_004": "コロムビア・ファッション・カレッジ", "P29_005": "岐阜県岐阜市竜田町1-7-1", "P29_006": "4", "P29_007": "0", "P29_008": "00", "P29_009": null }, "geometry": { "type": "Point", "coordinates": [ 136.767517099580999, 35.415867951807648 ] } },
{ "type": "Feature", "properties": { "P29_001": "21201", "P29_002": "H121320100035", "P29_003": "16016", "P29_004": "飯原服装専門学校", "P29_005": "岐阜県岐阜市矢島町1-28", "P29_006": "4", "P29_007": "0", "P29_008": "00", "P29_009": null }, "geometry": { "type": "Point", "coordinates": [ 136.764537051885327, 35.429952103324531 ] } },
{ "type": "Feature", "properties": { "P29_001": "21201", "P29_002": "H121320100044", "P29_003": "16016", "P29_004": "岐阜調理専門学校", "P29_005": "岐阜県岐阜市橋本町1-10-1アクティブＧ2Ｆ", "P29_006": "4", "P29_007": "0", "P29_008": "00", "P29_009": null }, "geometry": { "type": "Point", "coordinates": [ 136.754308440306062, 35.409749029476536 ] } },
{ "type": "Feature", "properties": { "P29_001": "21201", "P29_002": "H121320100053", "P29_003": "16016", "P29_004": "城南高等専修学校", "P29_005": "岐阜県岐阜市細畑1-10-1", "P29_006": "4", "P29_007": "0", "P29_008": "00", "P29_009": null }, "geometry": { "type": "Point", "coordinates": [ 136.785111920336504, 35.40555407688737 ] } },
{ "type": "Feature", "properties": { "P29_001": "21201", "P29_002": "H121320100062", "P29_003": "16016", "P29_004": "岐阜美容専門学校", "P29_005": "岐阜県岐阜市金園町2-1", "P29_006": "4", "P29_007": "0", "P29_008": "00", "P29_009": null }, "geometry": { "type": "Point", "coordinates": [ 136.76199416189786, 35.417394355008113 ] } },
{ "type": "Feature", "properties": { "P29_001": "21201", "P29_002": "H121320100071", "P29_003": "16016", "P29_004": "ベルフォート美容専門学校", "P29_005": "岐阜県岐阜市橋本町1-10-1", "P29_006": "4", "P29_007": "0", "P29_008": "00", "P29_009": null }, "geometry": { "type": "Point", "coordinates": [ 136.753706670803155, 35.40985471413088 ] } },
{ "type": "Feature", "properties": { "P29_001": "21201", "P29_002": "H121320100080", "P29_003": "16016", "P29_004": "岐阜歯科衛生専門学校", "P29_005": "岐阜県岐阜市東栄町1-25", "P29_006": "4", "P29_007": "0", "P29_008": "00", "P29_009": null }, "geometry": { "type": "Point", "coordinates": [ 136.772063998757432, 35.414777003032846 ] } },
{ "type": "Feature", "properties": { "P29_001": "21201", "P29_002": "H121320100099", "P29_003": "16016", "P29_004": "岐阜保健大学医療専門学校", "P29_005": "岐阜県岐阜市東鶉2-68", "P29_006": "4", "P29_007": "0", "P29_008": "00", "P29_009": null }, "geometry": { "type": "Point", "coordinates": [ 136.739156592872774, 35.384354783951437 ] } },
{ "type": "Feature", "properties": { "P29_001": "21201", "P29_002": "H121320100106", "P29_003": "16016", "P29_004": "岐阜市医師会看護学校", "P29_005": "岐阜県岐阜市青柳町5-3", "P29_006": "4", "P29_007": "0", "P29_008": "00", "P29_009": null }, "geometry": { "type": "Point", "coordinates": [ 136.748660965974437, 35.427118372825156 ] } },
{ "type": "Feature", "properties": { "P29_001": "21201", "P29_002": "H121320100115", "P29_003": "16016", "P29_004": "ＴｏＢｕＣｏ専門学校", "P29_005": "岐阜県岐阜市吹上町1-20", "P29_006": "4", "P29_007": "0", "P29_008": "00", "P29_009": null }, "geometry": { "type": "Point", "coordinates": [ 136.743884214806968, 35.414343604692903 ] } },
{ "type": "Feature", "properties": { "P29_001": "21201", "P29_002": "H121320100124", "P29_003": "16016", "P29_004": "大原簿記情報医療専門学校岐阜校", "P29_005": "岐阜県岐阜市西問屋町11", "P29_006": "4", "P29_007": "0", "P29_008": "00", "P29_009": null }, "geometry": { "type": "Point", "coordinates": [ 136.75318289548801, 35.411881192164529 ] } },
{ "type": "Feature", "properties": { "P29_001": "21201", "P29_002": "H121320100133", "P29_003": "16016", "P29_004": "大原法律公務員専門学校岐阜校", "P29_005": "岐阜県岐阜市西問屋町11", "P29_006": "4", "P29_007": "0", "P29_008": "00", "P29_009": null }, "geometry": { "type": "Point", "coordinates": [ 136.753175458685547, 35.411828391355336 ] } },
{ "type": "Feature", "properties": { "P29_001": "21202", "P29_002": "H121320200016", "P29_003": "16016", "P29_004": "ヴィジョンネクスト情報デザイン専門学校", "P29_005": "岐阜県大垣市東長町28", "P29_006": "4", "P29_007": "0", "P29_008": "00", "P29_009": null }, "geometry": { "type": "Point", "coordinates": [ 136.621395828863001, 35.361093499372828 ] } },
{ "type": "Feature", "properties": { "P29_001": "21202", "P29_002": "H121320200025", "P29_003": "16016", "P29_004": "大垣市医師会看護専門学校", "P29_005": "岐阜県大垣市緑園129", "P29_006": "4", "P29_007": "0", "P29_008": "00", "P29_009": null }, "geometry": { "type": "Point", "coordinates": [ 136.632631004527724, 35.361198002279778 ] } },
{ "type": "Feature", "properties": { "P29_001": "21202", "P29_002": "H121320200034", "P29_003": "16016", "P29_004": "日本総合ビジネス専門学校", "P29_005": "岐阜県大垣市中野町4-46", "P29_006": "4", "P29_007": "0", "P29_008": "00", "P29_009": null }, "geometry": { "type": "Point", "coordinates": [ 136.608297410703756, 35.383893583788733 ] } },
{ "type": "Feature", "properties": { "P29_001": "21203", "P29_002": "H121320300015", "P29_003": "16016", "P29_004": "ＪＡ岐阜厚生連看護専門学校", "P29_005": "岐阜県高山市大新町5-45-1", "P29_006": "4", "P29_007": "0", "P29_008": "00", "P29_009": null }, "geometry": { "type": "Point", "coordinates": [ 137.256233095673792, 36.156017003385621 ] } },
{ "type": "Feature", "properties": { "P29_001": "21204", "P29_002": "H121320400014", "P29_003": "16016", "P29_004": "多治見文化洋裁学院", "P29_005": "岐阜県多治見市宮前町1-128", "P29_006": "4", "P29_007": "0", "P29_008": "00", "P29_009": null }, "geometry": { "type": "Point", "coordinates": [ 137.127303763788319, 35.336856018054526 ] } },
{ "type": "Feature", "properties": { "P29_001": "21204", "P29_002": "H121320400023", "P29_003": "16016", "P29_004": "ミユキ文化服飾専門学校", "P29_005": "岐阜県多治見市広小路4-39", "P29_006": "4", "P29_007": "0", "P29_008": "00", "P29_009": null }, "geometry": { "type": "Point", "coordinates": [ 137.130106998569318, 35.331719003584311 ] } },
{ "type": "Feature", "properties": { "P29_001": "21204", "P29_002": "H121320400032", "P29_003": "16016", "P29_004": "アンファッションカレッジ", "P29_005": "岐阜県多治見市上野町1-96", "P29_006": "4", "P29_007": "0", "P29_008": "00", "P29_009": null }, "geometry": { "type": "Point", "coordinates": [ 137.124072310591856, 35.337229965740661 ] } },
{ "type": "Feature", "properties": { "P29_001": "21205", "P29_002": "H121320500013", "P29_003": "16016", "P29_004": "中日本航空専門学校", "P29_005": "岐阜県関市迫間字吉田洞1577-5", "P29_006": "4", "P29_007": "0", "P29_008": "00", "P29_009": null }, "geometry": { "type": "Point", "coordinates": [ 136.932900001123414, 35.452662001117815 ] } },
{ "type": "Feature", "properties": { "P29_001": "21208", "P29_002": "H121320800010", "P29_003": "16016", "P29_004": "日本プロスポーツ専門学校", "P29_005": "岐阜県瑞浪市釜戸町上桑原4605-85", "P29_006": "4", "P29_007": "0", "P29_008": "00", "P29_009": null }, "geometry": { "type": "Point", "coordinates": [ 137.3312526540536, 35.414275466444359 ] } },
{ "type": "Feature", "properties": { "P29_001": "21211", "P29_002": "H121321100015", "P29_003": "16016", "P29_004": "あじさい看護福祉専門学校", "P29_005": "岐阜県美濃加茂市川合町4-6-8", "P29_006": "4", "P29_007": "0", "P29_008": "00", "P29_009": null }, "geometry": { "type": "Point", "coordinates": [ 137.050718780235542, 35.450729711325621 ] } },
{ "type": "Feature", "properties": { "P29_001": "21212", "P29_002": "H121321200014", "P29_003": "16016", "P29_004": "専修学校中部国際自動車大学校", "P29_005": "岐阜県土岐市肥田浅野朝日町2-7", "P29_006": "4", "P29_007": "0", "P29_008": "00", "P29_009": null }, "geometry": { "type": "Point", "coordinates": [ 137.197535398960923, 35.360696716387281 ] } },
{ "type": "Feature", "properties": { "P29_001": "21216", "P29_002": "H121321600010", "P29_003": "16016", "P29_004": "朝日大学歯科衛生士専門学校", "P29_005": "岐阜県瑞穂市穂積1851-1", "P29_006": "4", "P29_007": "0", "P29_008": "00", "P29_009": null }, "geometry": { "type": "Point", "coordinates": [ 136.690774252332801, 35.381266161788169 ] } },
{ "type": "Feature", "properties": { "P29_001": "21404", "P29_002": "H121340400012", "P29_003": "16016", "P29_004": "サンビレッジ国際医療福祉専門学校", "P29_005": "岐阜県揖斐郡池田町白鳥104", "P29_006": "4", "P29_007": "0", "P29_008": "00", "P29_009": null }, "geometry": { "type": "Point", "coordinates": [ 136.593967537195738, 35.447290946598692 ] } }
]
}
