{
"type": "FeatureCollection",
"name": "geo_21_幼稚園",
"crs": { "type": "name", "properties": { "name": "urn:ogc:def:crs:EPSG::6668" } },
"features": [
{ "type": "Feature", "properties": { "P29_001": "21201", "P29_002": "A121220100014", "P29_003": "16011", "P29_004": "岐阜市立加納幼稚園", "P29_005": "岐阜県岐阜市加納東丸町2-9-1", "P29_006": "3", "P29_007": "0", "P29_008": "00", "P29_009": null }, "geometry": { "type": "Point", "coordinates": [ 136.762588805845354, 35.402055544410999 ] } },
{ "type": "Feature", "properties": { "P29_001": "21201", "P29_002": "A121220100023", "P29_003": "16011", "P29_004": "岐阜市立岐阜東幼稚園", "P29_005": "岐阜県岐阜市水海道1-16-13", "P29_006": "3", "P29_007": "0", "P29_008": "00", "P29_009": null }, "geometry": { "type": "Point", "coordinates": [ 136.814056428999606, 35.412807706478205 ] } },
{ "type": "Feature", "properties": { "P29_001": "21202", "P29_002": "A121220200031", "P29_003": "16011", "P29_004": "大垣市立西幼稚園", "P29_005": "岐阜県大垣市久瀬川町6-110", "P29_006": "3", "P29_007": "0", "P29_008": "00", "P29_009": null }, "geometry": { "type": "Point", "coordinates": [ 136.600882615457721, 35.358183823866618 ] } },
{ "type": "Feature", "properties": { "P29_001": "21202", "P29_002": "A121220200040", "P29_003": "16011", "P29_004": "大垣市立北幼保園", "P29_005": "岐阜県大垣市室村町1-42-8", "P29_006": "3", "P29_007": "0", "P29_008": "00", "P29_009": null }, "geometry": { "type": "Point", "coordinates": [ 136.610270675571968, 35.374214357961392 ] } },
{ "type": "Feature", "properties": { "P29_001": "21202", "P29_002": "A121220200059", "P29_003": "16011", "P29_004": "大垣市立日新幼保園", "P29_005": "岐阜県大垣市入方1-38", "P29_006": "3", "P29_007": "0", "P29_008": "00", "P29_009": null }, "geometry": { "type": "Point", "coordinates": [ 136.600553000476964, 35.331128003847056 ] } },
{ "type": "Feature", "properties": { "P29_001": "21202", "P29_002": "A121220200068", "P29_003": "16011", "P29_004": "大垣市立安井幼稚園", "P29_005": "岐阜県大垣市禾森1-46-1", "P29_006": "3", "P29_007": "0", "P29_008": "00", "P29_009": null }, "geometry": { "type": "Point", "coordinates": [ 136.627358869561988, 35.352050455182777 ] } },
{ "type": "Feature", "properties": { "P29_001": "21202", "P29_002": "A121220200086", "P29_003": "16011", "P29_004": "大垣市立静里幼稚園", "P29_005": "岐阜県大垣市久徳町423", "P29_006": "3", "P29_007": "0", "P29_008": "00", "P29_009": null }, "geometry": { "type": "Point", "coordinates": [ 136.588689260496096, 35.360205643290712 ] } },
{ "type": "Feature", "properties": { "P29_001": "21202", "P29_002": "A121220200095", "P29_003": "16011", "P29_004": "大垣市立綾里幼保園", "P29_005": "岐阜県大垣市綾野5-87", "P29_006": "3", "P29_007": "0", "P29_008": "00", "P29_009": null }, "geometry": { "type": "Point", "coordinates": [ 136.58606891731057, 35.343326573628644 ] } },
{ "type": "Feature", "properties": { "P29_001": "21202", "P29_002": "A121220200102", "P29_003": "16011", "P29_004": "大垣市立川並幼稚園", "P29_005": "岐阜県大垣市馬の瀬町1524", "P29_006": "3", "P29_007": "0", "P29_008": "00", "P29_009": null }, "geometry": { "type": "Point", "coordinates": [ 136.638113872439021, 35.336490787924518 ] } },
{ "type": "Feature", "properties": { "P29_001": "21202", "P29_002": "A121220200120", "P29_003": "16011", "P29_004": "大垣市立三城幼保園", "P29_005": "岐阜県大垣市東町3-27-1", "P29_006": "3", "P29_007": "0", "P29_008": "00", "P29_009": null }, "geometry": { "type": "Point", "coordinates": [ 136.647265309625567, 35.367802615081317 ] } },
{ "type": "Feature", "properties": { "P29_001": "21202", "P29_002": "A121220200139", "P29_003": "16011", "P29_004": "大垣市立荒崎幼保園", "P29_005": "岐阜県大垣市長松町771-1", "P29_006": "3", "P29_007": "0", "P29_008": "00", "P29_009": null }, "geometry": { "type": "Point", "coordinates": [ 136.56901827789423, 35.36475395762762 ] } },
{ "type": "Feature", "properties": { "P29_001": "21202", "P29_002": "A121220200148", "P29_003": "16011", "P29_004": "大垣市立赤坂幼保園", "P29_005": "岐阜県大垣市赤坂新町1-49", "P29_006": "3", "P29_007": "0", "P29_008": "00", "P29_009": null }, "geometry": { "type": "Point", "coordinates": [ 136.58790649116375, 35.392205396553294 ] } },
{ "type": "Feature", "properties": { "P29_001": "21202", "P29_002": "A121220200157", "P29_003": "16011", "P29_004": "大垣市立青墓幼保園", "P29_005": "岐阜県大垣市青墓町2-228", "P29_006": "3", "P29_007": "0", "P29_008": "00", "P29_009": null }, "geometry": { "type": "Point", "coordinates": [ 136.561785177344461, 35.384178034168443 ] } },
{ "type": "Feature", "properties": { "P29_001": "21204", "P29_002": "A121220400011", "P29_003": "16011", "P29_004": "多治見市立養正小学校附属幼稚園", "P29_005": "岐阜県多治見市平野町2-79", "P29_006": "3", "P29_007": "0", "P29_008": "00", "P29_009": null }, "geometry": { "type": "Point", "coordinates": [ 137.134518233061556, 35.330136919371746 ] } },
{ "type": "Feature", "properties": { "P29_001": "21204", "P29_002": "A121220400020", "P29_003": "16011", "P29_004": "多治見市立昭和小学校附属幼稚園", "P29_005": "岐阜県多治見市平和町4-180", "P29_006": "3", "P29_007": "0", "P29_008": "00", "P29_009": null }, "geometry": { "type": "Point", "coordinates": [ 137.121088101192669, 35.328236228892678 ] } },
{ "type": "Feature", "properties": { "P29_001": "21204", "P29_002": "A121220400039", "P29_003": "16011", "P29_004": "多治見市立明和幼稚園", "P29_005": "岐阜県多治見市明和町4-5-257", "P29_006": "3", "P29_007": "0", "P29_008": "00", "P29_009": null }, "geometry": { "type": "Point", "coordinates": [ 137.1066663684893, 35.360686786808984 ] } },
{ "type": "Feature", "properties": { "P29_001": "21204", "P29_002": "A121220400048", "P29_003": "16011", "P29_004": "多治見市立笠原小学校附属幼稚園", "P29_005": "岐阜県多治見市笠原町3387-9", "P29_006": "3", "P29_007": "0", "P29_008": "00", "P29_009": null }, "geometry": { "type": "Point", "coordinates": [ 137.160470506357228, 35.292694634900158 ] } },
{ "type": "Feature", "properties": { "P29_001": "21204", "P29_002": "A121220400057", "P29_003": "16011", "P29_004": "多治見市立精華小学校附属愛児幼稚園", "P29_005": "岐阜県多治見市白山町3-1", "P29_006": "3", "P29_007": "0", "P29_008": "00", "P29_009": null }, "geometry": { "type": "Point", "coordinates": [ 137.121005088856919, 35.339338873029526 ] } },
{ "type": "Feature", "properties": { "P29_001": "21206", "P29_002": "A121220600019", "P29_003": "16011", "P29_004": "中津川市立中津川幼稚園", "P29_005": "岐阜県中津川市東宮町5-1", "P29_006": "3", "P29_007": "0", "P29_008": "00", "P29_009": null }, "geometry": { "type": "Point", "coordinates": [ 137.509553285663799, 35.496261253882267 ] } },
{ "type": "Feature", "properties": { "P29_001": "21206", "P29_002": "A121220600028", "P29_003": "16011", "P29_004": "中津川市立南幼稚園", "P29_005": "岐阜県中津川市昭和町6-47", "P29_006": "3", "P29_007": "0", "P29_008": "00", "P29_009": null }, "geometry": { "type": "Point", "coordinates": [ 137.503253417860407, 35.492296938055212 ] } },
{ "type": "Feature", "properties": { "P29_001": "21206", "P29_002": "A121220600037", "P29_003": "16011", "P29_004": "中津川市立西幼稚園", "P29_005": "岐阜県中津川市駒場260-2", "P29_006": "3", "P29_007": "0", "P29_008": "00", "P29_009": null }, "geometry": { "type": "Point", "coordinates": [ 137.494415554729898, 35.486450072984667 ] } },
{ "type": "Feature", "properties": { "P29_001": "21206", "P29_002": "A121220600046", "P29_003": "16011", "P29_004": "中津川市立神坂幼稚園", "P29_005": "岐阜県中津川市神坂1526-3", "P29_006": "3", "P29_007": "0", "P29_008": "00", "P29_009": null }, "geometry": { "type": "Point", "coordinates": [ 137.569620497699674, 35.519814258664262 ] } },
{ "type": "Feature", "properties": { "P29_001": "21208", "P29_002": "A121220800017", "P29_003": "16011", "P29_004": "瑞浪市立瑞浪幼児園", "P29_005": "岐阜県瑞浪市北小田町1-54", "P29_006": "3", "P29_007": "0", "P29_008": "00", "P29_009": null }, "geometry": { "type": "Point", "coordinates": [ 137.24475952143726, 35.36125550591558 ] } },
{ "type": "Feature", "properties": { "P29_001": "21208", "P29_002": "A121220800026", "P29_003": "16011", "P29_004": "瑞浪市立稲津幼児園", "P29_005": "岐阜県瑞浪市稲津町小里697-1", "P29_006": "3", "P29_007": "0", "P29_008": "00", "P29_009": null }, "geometry": { "type": "Point", "coordinates": [ 137.273640996252482, 35.350257004881847 ] } },
{ "type": "Feature", "properties": { "P29_001": "21208", "P29_002": "A121220800035", "P29_003": "16011", "P29_004": "瑞浪市立桔梗幼児園", "P29_005": "岐阜県瑞浪市土岐町1770-2", "P29_006": "3", "P29_007": "0", "P29_008": "00", "P29_009": null }, "geometry": { "type": "Point", "coordinates": [ 137.264153643769362, 35.377219295539618 ] } },
{ "type": "Feature", "properties": { "P29_001": "21208", "P29_002": "A121220800044", "P29_003": "16011", "P29_004": "瑞浪市立陶幼児園", "P29_005": "岐阜県瑞浪市陶町猿爪1082-46", "P29_006": "3", "P29_007": "0", "P29_008": "00", "P29_009": null }, "geometry": { "type": "Point", "coordinates": [ 137.321339326830724, 35.319836909748666 ] } },
{ "type": "Feature", "properties": { "P29_001": "21208", "P29_002": "A121220800053", "P29_003": "16011", "P29_004": "瑞浪市立竜吟幼児園", "P29_005": "岐阜県瑞浪市釜戸町2821-2", "P29_006": "3", "P29_007": "0", "P29_008": "00", "P29_009": null }, "geometry": { "type": "Point", "coordinates": [ 137.302547148587536, 35.408078498257034 ] } },
{ "type": "Feature", "properties": { "P29_001": "21208", "P29_002": "A121220800062", "P29_003": "16011", "P29_004": "瑞浪市立日吉幼児園", "P29_005": "岐阜県瑞浪市日吉町4115-2", "P29_006": "3", "P29_007": "0", "P29_008": "00", "P29_009": null }, "geometry": { "type": "Point", "coordinates": [ 137.244851647624102, 35.405870501460711 ] } },
{ "type": "Feature", "properties": { "P29_001": "21208", "P29_002": "A121220800071", "P29_003": "16011", "P29_004": "瑞浪市立みどり幼児園", "P29_005": "岐阜県瑞浪市下沖町2-10", "P29_006": "3", "P29_007": "0", "P29_008": "00", "P29_009": null }, "geometry": { "type": "Point", "coordinates": [ 137.239382000125687, 35.364021500202611 ] } },
{ "type": "Feature", "properties": { "P29_001": "21208", "P29_002": "A121220800080", "P29_003": "16011", "P29_004": "瑞浪市立一色幼児園", "P29_005": "岐阜県瑞浪市寺河戸町190-1", "P29_006": "3", "P29_007": "0", "P29_008": "00", "P29_009": null }, "geometry": { "type": "Point", "coordinates": [ 137.249032379546065, 35.357786004813931 ] } },
{ "type": "Feature", "properties": { "P29_001": "21209", "P29_002": "A121220900016", "P29_003": "16011", "P29_004": "羽島市立西部幼稚園", "P29_005": "岐阜県羽島市福寿町本郷1-128", "P29_006": "3", "P29_007": "0", "P29_008": "00", "P29_009": null }, "geometry": { "type": "Point", "coordinates": [ 136.685440249712229, 35.322431997402695 ] } },
{ "type": "Feature", "properties": { "P29_001": "21212", "P29_002": "A121221200011", "P29_003": "16011", "P29_004": "土岐市立土岐津小学校附属幼稚園", "P29_005": "岐阜県土岐市土岐津町土岐口2005-1", "P29_006": "3", "P29_007": "0", "P29_008": "00", "P29_009": null }, "geometry": { "type": "Point", "coordinates": [ 137.181237928676552, 35.353103000206509 ] } },
{ "type": "Feature", "properties": { "P29_001": "21212", "P29_002": "A121221200020", "P29_003": "16011", "P29_004": "土岐市立妻木小学校附属幼稚園", "P29_005": "岐阜県土岐市妻木町1284-1", "P29_006": "3", "P29_007": "0", "P29_008": "00", "P29_009": null }, "geometry": { "type": "Point", "coordinates": [ 137.19271485496364, 35.30990981494881 ] } },
{ "type": "Feature", "properties": { "P29_001": "21212", "P29_002": "A121221200039", "P29_003": "16011", "P29_004": "土岐市立駄知小学校附属幼稚園", "P29_005": "岐阜県土岐市駄知町1858-1", "P29_006": "3", "P29_007": "0", "P29_008": "00", "P29_009": null }, "geometry": { "type": "Point", "coordinates": [ 137.221520019954113, 35.329020495536888 ] } },
{ "type": "Feature", "properties": { "P29_001": "21212", "P29_002": "A121221200048", "P29_003": "16011", "P29_004": "土岐市立肥田小学校附属幼稚園", "P29_005": "岐阜県土岐市肥田町肥田2269-1", "P29_006": "3", "P29_007": "0", "P29_008": "00", "P29_009": null }, "geometry": { "type": "Point", "coordinates": [ 137.207695368899294, 35.351039384367574 ] } },
{ "type": "Feature", "properties": { "P29_001": "21212", "P29_002": "A121221200057", "P29_003": "16011", "P29_004": "土岐市立泉小学校附属幼稚園", "P29_005": "岐阜県土岐市泉中窯町1-5", "P29_006": "3", "P29_007": "0", "P29_008": "00", "P29_009": null }, "geometry": { "type": "Point", "coordinates": [ 137.188814000037183, 35.368801001311923 ] } },
{ "type": "Feature", "properties": { "P29_001": "21212", "P29_002": "A121221200066", "P29_003": "16011", "P29_004": "土岐市立泉西小学校附属幼稚園", "P29_005": "岐阜県土岐市泉町久尻1413-2", "P29_006": "3", "P29_007": "0", "P29_008": "00", "P29_009": null }, "geometry": { "type": "Point", "coordinates": [ 137.174697928686953, 35.369007574420543 ] } },
{ "type": "Feature", "properties": { "P29_001": "21214", "P29_002": "A121221400019", "P29_003": "16011", "P29_004": "可児市立瀬田幼稚園", "P29_005": "岐阜県可児市瀬田981", "P29_006": "3", "P29_007": "0", "P29_008": "00", "P29_009": null }, "geometry": { "type": "Point", "coordinates": [ 137.087802996619445, 35.427398996381953 ] } },
{ "type": "Feature", "properties": { "P29_001": "21216", "P29_002": "A121221600017", "P29_003": "16011", "P29_004": "瑞穂市立ほづみ幼稚園", "P29_005": "岐阜県瑞穂市只越500", "P29_006": "3", "P29_007": "0", "P29_008": "00", "P29_009": null }, "geometry": { "type": "Point", "coordinates": [ 136.684540715866206, 35.398198261747098 ] } },
{ "type": "Feature", "properties": { "P29_001": "21218", "P29_002": "A121221800015", "P29_003": "16011", "P29_004": "本巣市立根尾幼児園", "P29_005": "岐阜県本巣市根尾高尾775-1", "P29_006": "3", "P29_007": "0", "P29_008": "00", "P29_009": null }, "geometry": { "type": "Point", "coordinates": [ 136.626580847552646, 35.59804652083691 ] } },
{ "type": "Feature", "properties": { "P29_001": "21218", "P29_002": "A121221800024", "P29_003": "16011", "P29_004": "本巣市立神海幼児園", "P29_005": "岐阜県本巣市神海459-1", "P29_006": "3", "P29_007": "0", "P29_008": "00", "P29_009": null }, "geometry": { "type": "Point", "coordinates": [ 136.649281173192634, 35.537839091709301 ] } },
{ "type": "Feature", "properties": { "P29_001": "21218", "P29_002": "A121221800033", "P29_003": "16011", "P29_004": "本巣市立本巣幼児園", "P29_005": "岐阜県本巣市曽井中島1429-2", "P29_006": "3", "P29_007": "0", "P29_008": "00", "P29_009": null }, "geometry": { "type": "Point", "coordinates": [ 136.676095418790993, 35.484351159442397 ] } },
{ "type": "Feature", "properties": { "P29_001": "21218", "P29_002": "A121221800042", "P29_003": "16011", "P29_004": "本巣市立糸貫東幼児園", "P29_005": "岐阜県本巣市石原39-1", "P29_006": "3", "P29_007": "0", "P29_008": "00", "P29_009": null }, "geometry": { "type": "Point", "coordinates": [ 136.683725760075561, 35.456159085040596 ] } },
{ "type": "Feature", "properties": { "P29_001": "21218", "P29_002": "A121221800051", "P29_003": "16011", "P29_004": "本巣市立糸貫西幼児園", "P29_005": "岐阜県本巣市見延698", "P29_006": "3", "P29_007": "0", "P29_008": "00", "P29_009": null }, "geometry": { "type": "Point", "coordinates": [ 136.670492994456623, 35.455888998051236 ] } },
{ "type": "Feature", "properties": { "P29_001": "21218", "P29_002": "A121221800060", "P29_003": "16011", "P29_004": "本巣市立真正幼児園", "P29_005": "岐阜県本巣市下真桑443-2", "P29_006": "3", "P29_007": "0", "P29_008": "00", "P29_009": null }, "geometry": { "type": "Point", "coordinates": [ 136.663047128267181, 35.442715806311 ] } },
{ "type": "Feature", "properties": { "P29_001": "21218", "P29_002": "A121221800079", "P29_003": "16011", "P29_004": "本巣市立真桑幼児園", "P29_005": "岐阜県本巣市下真桑178-1", "P29_006": "3", "P29_007": "0", "P29_008": "00", "P29_009": null }, "geometry": { "type": "Point", "coordinates": [ 136.66624989467212, 35.434441394686402 ] } },
{ "type": "Feature", "properties": { "P29_001": "21218", "P29_002": "A121221800088", "P29_003": "16011", "P29_004": "本巣市立弾正幼児園", "P29_005": "岐阜県本巣市政田2206", "P29_006": "3", "P29_007": "0", "P29_008": "00", "P29_009": null }, "geometry": { "type": "Point", "coordinates": [ 136.642647718397711, 35.436830173402932 ] } },
{ "type": "Feature", "properties": { "P29_001": "21219", "P29_002": "A121221900014", "P29_003": "16011", "P29_004": "郡上市立はちまん幼稚園", "P29_005": "岐阜県郡上市八幡町小野8-5-1", "P29_006": "3", "P29_007": "0", "P29_008": "00", "P29_009": null }, "geometry": { "type": "Point", "coordinates": [ 136.974858365969254, 35.757177587604012 ] } },
{ "type": "Feature", "properties": { "P29_001": "21219", "P29_002": "A121221900023", "P29_003": "16011", "P29_004": "郡上市立幼児教育センターやまびこ園", "P29_005": "岐阜県郡上市大和町島5327", "P29_006": "3", "P29_007": "0", "P29_008": "00", "P29_009": null }, "geometry": { "type": "Point", "coordinates": [ 136.906821003930219, 35.79737900165361 ] } },
{ "type": "Feature", "properties": { "P29_001": "21219", "P29_002": "A121221900032", "P29_003": "16011", "P29_004": "郡上市立幼児教育センターみなみ園", "P29_005": "岐阜県郡上市美並町白山1271", "P29_006": "3", "P29_007": "0", "P29_008": "00", "P29_009": null }, "geometry": { "type": "Point", "coordinates": [ 136.947212242936246, 35.654625262935092 ] } },
{ "type": "Feature", "properties": { "P29_001": "21381", "P29_002": "A121238100016", "P29_003": "16011", "P29_004": "安八郡神戸町立神戸幼児園", "P29_005": "岐阜県安八郡神戸町大字神戸1397", "P29_006": "3", "P29_007": "0", "P29_008": "00", "P29_009": null }, "geometry": { "type": "Point", "coordinates": [ 136.610840337647318, 35.420141171616045 ] } },
{ "type": "Feature", "properties": { "P29_001": "21381", "P29_002": "A121238100025", "P29_003": "16011", "P29_004": "安八郡神戸町立下宮幼児園", "P29_005": "岐阜県安八郡神戸町大字瀬古1520", "P29_006": "3", "P29_007": "0", "P29_008": "00", "P29_009": null }, "geometry": { "type": "Point", "coordinates": [ 136.626350239921379, 35.403064723088491 ] } },
{ "type": "Feature", "properties": { "P29_001": "21381", "P29_002": "A121238100034", "P29_003": "16011", "P29_004": "安八郡神戸町立南平野幼児園", "P29_005": "岐阜県安八郡神戸町大字和泉46-1", "P29_006": "3", "P29_007": "0", "P29_008": "00", "P29_009": null }, "geometry": { "type": "Point", "coordinates": [ 136.595911555813075, 35.401950897890792 ] } },
{ "type": "Feature", "properties": { "P29_001": "21381", "P29_002": "A121238100043", "P29_003": "16011", "P29_004": "安八郡神戸町立北幼児園", "P29_005": "岐阜県安八郡神戸町大字安次279", "P29_006": "3", "P29_007": "0", "P29_008": "00", "P29_009": null }, "geometry": { "type": "Point", "coordinates": [ 136.598176575586763, 35.430307272670092 ] } },
{ "type": "Feature", "properties": { "P29_001": "21501", "P29_002": "A121250100011", "P29_003": "16011", "P29_004": "加茂郡坂祝町立坂祝幼稚園", "P29_005": "岐阜県加茂郡坂祝町黒岩20-1", "P29_006": "3", "P29_007": "0", "P29_008": "00", "P29_009": null }, "geometry": { "type": "Point", "coordinates": [ 136.984834501114619, 35.437341867268422 ] } },
{ "type": "Feature", "properties": { "P29_001": "21201", "P29_002": "A121320100012", "P29_003": "16011", "P29_004": "中部学院大学中部学院大学短期大学部附属幼稚園", "P29_005": "岐阜県岐阜市下土居2-28-28", "P29_006": "4", "P29_007": "0", "P29_008": "00", "P29_009": null }, "geometry": { "type": "Point", "coordinates": [ 136.758432418420284, 35.453904687792928 ] } },
{ "type": "Feature", "properties": { "P29_001": "21201", "P29_002": "A121320100021", "P29_003": "16011", "P29_004": "こばと幼稚園", "P29_005": "岐阜県岐阜市鹿島町4-15", "P29_006": "4", "P29_007": "0", "P29_008": "00", "P29_009": null }, "geometry": { "type": "Point", "coordinates": [ 136.740155068216382, 35.415428337206585 ] } },
{ "type": "Feature", "properties": { "P29_001": "21201", "P29_002": "A121320100030", "P29_003": "16011", "P29_004": "こばと西幼稚園", "P29_005": "岐阜県岐阜市大菅北12-25", "P29_006": "4", "P29_007": "0", "P29_008": "00", "P29_009": null }, "geometry": { "type": "Point", "coordinates": [ 136.709865384186088, 35.405604464397328 ] } },
{ "type": "Feature", "properties": { "P29_001": "21201", "P29_002": "A121320100049", "P29_003": "16011", "P29_004": "こばと第３幼稚園", "P29_005": "岐阜県岐阜市下奈良3-15-5", "P29_006": "4", "P29_007": "0", "P29_008": "00", "P29_009": null }, "geometry": { "type": "Point", "coordinates": [ 136.711083995883541, 35.385890996501658 ] } },
{ "type": "Feature", "properties": { "P29_001": "21201", "P29_002": "A121320100058", "P29_003": "16011", "P29_004": "若葉第一幼稚園", "P29_005": "岐阜県岐阜市北一色1-23-13", "P29_006": "4", "P29_007": "0", "P29_008": "00", "P29_009": null }, "geometry": { "type": "Point", "coordinates": [ 136.789687381012214, 35.417087995493112 ] } },
{ "type": "Feature", "properties": { "P29_001": "21201", "P29_002": "A121320100067", "P29_003": "16011", "P29_004": "若葉第二幼稚園", "P29_005": "岐阜県岐阜市村里町15", "P29_006": "4", "P29_007": "0", "P29_008": "00", "P29_009": null }, "geometry": { "type": "Point", "coordinates": [ 136.7676393701758, 35.394167095577117 ] } },
{ "type": "Feature", "properties": { "P29_001": "21201", "P29_002": "A121320100076", "P29_003": "16011", "P29_004": "若葉第三幼稚園", "P29_005": "岐阜県岐阜市宇佐南1-11-17", "P29_006": "4", "P29_007": "0", "P29_008": "00", "P29_009": null }, "geometry": { "type": "Point", "coordinates": [ 136.735027659378488, 35.396187002763369 ] } },
{ "type": "Feature", "properties": { "P29_001": "21201", "P29_002": "A121320100085", "P29_003": "16011", "P29_004": "いづみ中央幼稚園", "P29_005": "岐阜県岐阜市北鶉2-34", "P29_006": "4", "P29_007": "0", "P29_008": "00", "P29_009": null }, "geometry": { "type": "Point", "coordinates": [ 136.726595002791697, 35.386286003867887 ] } },
{ "type": "Feature", "properties": { "P29_001": "21201", "P29_002": "A121320100094", "P29_003": "16011", "P29_004": "明照幼稚園", "P29_005": "岐阜県岐阜市矢島町2-46", "P29_006": "4", "P29_007": "0", "P29_008": "00", "P29_009": null }, "geometry": { "type": "Point", "coordinates": [ 136.762861379606562, 35.428573192216284 ] } },
{ "type": "Feature", "properties": { "P29_001": "21201", "P29_002": "A121320100101", "P29_003": "16011", "P29_004": "こじか幼稚園", "P29_005": "岐阜県岐阜市旦島4-10-17", "P29_006": "4", "P29_007": "0", "P29_008": "00", "P29_009": null }, "geometry": { "type": "Point", "coordinates": [ 136.720097813651137, 35.435451911383709 ] } },
{ "type": "Feature", "properties": { "P29_001": "21201", "P29_002": "A121320100110", "P29_003": "16011", "P29_004": "いづみ第二幼稚園", "P29_005": "岐阜県岐阜市早田町3-2-3", "P29_006": "4", "P29_007": "0", "P29_008": "00", "P29_009": null }, "geometry": { "type": "Point", "coordinates": [ 136.752227581890224, 35.435564684517587 ] } },
{ "type": "Feature", "properties": { "P29_001": "21201", "P29_002": "A121320100129", "P29_003": "16011", "P29_004": "はなぞの幼稚園", "P29_005": "岐阜県岐阜市則武西2-25-27", "P29_006": "4", "P29_007": "0", "P29_008": "00", "P29_009": null }, "geometry": { "type": "Point", "coordinates": [ 136.737372059294444, 35.445281983652194 ] } },
{ "type": "Feature", "properties": { "P29_001": "21201", "P29_002": "A121320100138", "P29_003": "16011", "P29_004": "ひかり幼稚園", "P29_005": "岐阜県岐阜市黒野404", "P29_006": "4", "P29_007": "0", "P29_008": "00", "P29_009": null }, "geometry": { "type": "Point", "coordinates": [ 136.719452981073999, 35.460707830204868 ] } },
{ "type": "Feature", "properties": { "P29_001": "21201", "P29_002": "A121320100147", "P29_003": "16011", "P29_004": "かぐや第三幼稚園", "P29_005": "岐阜県岐阜市粟野西1-10", "P29_006": "4", "P29_007": "0", "P29_008": "00", "P29_009": null }, "geometry": { "type": "Point", "coordinates": [ 136.776705769835218, 35.477614234626806 ] } },
{ "type": "Feature", "properties": { "P29_001": "21201", "P29_002": "A121320100156", "P29_003": "16011", "P29_004": "まどか幼稚園", "P29_005": "岐阜県岐阜市茜部本郷3-116-2", "P29_006": "4", "P29_007": "0", "P29_008": "00", "P29_009": null }, "geometry": { "type": "Point", "coordinates": [ 136.752336865354806, 35.390188672513631 ] } },
{ "type": "Feature", "properties": { "P29_001": "21201", "P29_002": "A121320100165", "P29_003": "16011", "P29_004": "まどか南幼稚園", "P29_005": "岐阜県岐阜市茜部寺屋敷2-127-1", "P29_006": "4", "P29_007": "0", "P29_008": "00", "P29_009": null }, "geometry": { "type": "Point", "coordinates": [ 136.749154658013055, 35.376062910039863 ] } },
{ "type": "Feature", "properties": { "P29_001": "21201", "P29_002": "A121320100174", "P29_003": "16011", "P29_004": "ゆりかご幼稚園", "P29_005": "岐阜県岐阜市椿洞1105-1", "P29_006": "4", "P29_007": "0", "P29_008": "00", "P29_009": null }, "geometry": { "type": "Point", "coordinates": [ 136.762892606338255, 35.489811890910552 ] } },
{ "type": "Feature", "properties": { "P29_001": "21201", "P29_002": "A121320100183", "P29_003": "16011", "P29_004": "みのり幼稚園", "P29_005": "岐阜県岐阜市本荘西4-39", "P29_006": "4", "P29_007": "0", "P29_008": "00", "P29_009": null }, "geometry": { "type": "Point", "coordinates": [ 136.728714143836413, 35.408781284916351 ] } },
{ "type": "Feature", "properties": { "P29_001": "21201", "P29_002": "A121320100192", "P29_003": "16011", "P29_004": "芥見幼稚園", "P29_005": "岐阜県岐阜市芥見南山3-1-27", "P29_006": "4", "P29_007": "0", "P29_008": "00", "P29_009": null }, "geometry": { "type": "Point", "coordinates": [ 136.859716979347269, 35.456101717405041 ] } },
{ "type": "Feature", "properties": { "P29_001": "21201", "P29_002": "A121320100209", "P29_003": "16011", "P29_004": "芥見第二幼稚園", "P29_005": "岐阜県岐阜市加野3-1-7", "P29_006": "4", "P29_007": "0", "P29_008": "00", "P29_009": null }, "geometry": { "type": "Point", "coordinates": [ 136.821056542902141, 35.46181122338357 ] } },
{ "type": "Feature", "properties": { "P29_001": "21201", "P29_002": "A121320100227", "P29_003": "16011", "P29_004": "東海第一幼稚園", "P29_005": "岐阜県岐阜市芥見6-270-1", "P29_006": "4", "P29_007": "0", "P29_008": "00", "P29_009": null }, "geometry": { "type": "Point", "coordinates": [ 136.85354608416975, 35.447256792773764 ] } },
{ "type": "Feature", "properties": { "P29_001": "21201", "P29_002": "A121320100236", "P29_003": "16011", "P29_004": "東海第二幼稚園", "P29_005": "岐阜県岐阜市日野北4-2-13", "P29_006": "4", "P29_007": "0", "P29_008": "00", "P29_009": null }, "geometry": { "type": "Point", "coordinates": [ 136.813220653366812, 35.443066642256362 ] } },
{ "type": "Feature", "properties": { "P29_001": "21201", "P29_002": "A121320100245", "P29_003": "16011", "P29_004": "ながら幼稚園", "P29_005": "岐阜県岐阜市長良城西町1-10", "P29_006": "4", "P29_007": "0", "P29_008": "00", "P29_009": null }, "geometry": { "type": "Point", "coordinates": [ 136.776254616463774, 35.448115969585366 ] } },
{ "type": "Feature", "properties": { "P29_001": "21201", "P29_002": "A121320100254", "P29_003": "16011", "P29_004": "サニーサイドインターナショナルスクール", "P29_005": "岐阜県岐阜市岩井4-10-25", "P29_006": "4", "P29_007": "0", "P29_008": "00", "P29_009": null }, "geometry": { "type": "Point", "coordinates": [ 136.824692873990585, 35.471323780323921 ] } },
{ "type": "Feature", "properties": { "P29_001": "21201", "P29_002": "A121320100263", "P29_003": "16011", "P29_004": "むつみ幼稚園", "P29_005": "岐阜県岐阜市西改田村前107", "P29_006": "4", "P29_007": "0", "P29_008": "00", "P29_009": null }, "geometry": { "type": "Point", "coordinates": [ 136.699912847427981, 35.445711114309091 ] } },
{ "type": "Feature", "properties": { "P29_001": "21201", "P29_002": "A121320100272", "P29_003": "16011", "P29_004": "長森幼稚園", "P29_005": "岐阜県岐阜市琴塚2-16-7", "P29_006": "4", "P29_007": "0", "P29_008": "00", "P29_009": null }, "geometry": { "type": "Point", "coordinates": [ 136.809213386645467, 35.414839204864002 ] } },
{ "type": "Feature", "properties": { "P29_001": "21201", "P29_002": "A121320100281", "P29_003": "16011", "P29_004": "ながもり第二幼稚園", "P29_005": "岐阜県岐阜市岩田坂4-7-1", "P29_006": "4", "P29_007": "0", "P29_008": "00", "P29_009": null }, "geometry": { "type": "Point", "coordinates": [ 136.825731157261885, 35.432081730022752 ] } },
{ "type": "Feature", "properties": { "P29_001": "21201", "P29_002": "A121320100290", "P29_003": "16011", "P29_004": "くるみ幼稚園", "P29_005": "岐阜県岐阜市曽我屋4-21", "P29_006": "4", "P29_007": "0", "P29_008": "00", "P29_009": null }, "geometry": { "type": "Point", "coordinates": [ 136.702875113685735, 35.425846702638623 ] } },
{ "type": "Feature", "properties": { "P29_001": "21201", "P29_002": "A121320100307", "P29_003": "16011", "P29_004": "岐阜幼稚園", "P29_005": "岐阜県岐阜市西野町3-1", "P29_006": "4", "P29_007": "0", "P29_008": "00", "P29_009": null }, "geometry": { "type": "Point", "coordinates": [ 136.756523996770483, 35.427677997241211 ] } },
{ "type": "Feature", "properties": { "P29_001": "21201", "P29_002": "A121320100316", "P29_003": "16011", "P29_004": "認定こども園芽含幼稚園", "P29_005": "岐阜県岐阜市鷹見町5", "P29_006": "4", "P29_007": "0", "P29_008": "00", "P29_009": null }, "geometry": { "type": "Point", "coordinates": [ 136.760166380108899, 35.424048190127827 ] } },
{ "type": "Feature", "properties": { "P29_001": "21201", "P29_002": "A121320100325", "P29_003": "16011", "P29_004": "天使幼稚園", "P29_005": "岐阜県岐阜市青柳町3-22", "P29_006": "4", "P29_007": "0", "P29_008": "00", "P29_009": null }, "geometry": { "type": "Point", "coordinates": [ 136.750310174393633, 35.425217495005732 ] } },
{ "type": "Feature", "properties": { "P29_001": "21201", "P29_002": "A121320100334", "P29_003": "16011", "P29_004": "ほんごう幼稚園", "P29_005": "岐阜県岐阜市本郷町3-4", "P29_006": "4", "P29_007": "0", "P29_008": "00", "P29_009": null }, "geometry": { "type": "Point", "coordinates": [ 136.748555118323196, 35.421238011568583 ] } },
{ "type": "Feature", "properties": { "P29_001": "21201", "P29_002": "A121320100343", "P29_003": "16011", "P29_004": "諏訪幼稚園", "P29_005": "岐阜県岐阜市岩崎2-18-1", "P29_006": "4", "P29_007": "0", "P29_008": "00", "P29_009": null }, "geometry": { "type": "Point", "coordinates": [ 136.777994424599882, 35.46332483699701 ] } },
{ "type": "Feature", "properties": { "P29_001": "21201", "P29_002": "A121320100352", "P29_003": "16011", "P29_004": "岐阜聖徳学園大学附属幼稚園", "P29_005": "岐阜県岐阜市柳津町高桑西1-1", "P29_006": "4", "P29_007": "0", "P29_008": "00", "P29_009": null }, "geometry": { "type": "Point", "coordinates": [ 136.707802671819167, 35.362816607570537 ] } },
{ "type": "Feature", "properties": { "P29_001": "21201", "P29_002": "A121320100361", "P29_003": "16011", "P29_004": "円徳寺幼稚園", "P29_005": "岐阜県岐阜市神田町6-24", "P29_006": "4", "P29_007": "0", "P29_008": "00", "P29_009": null }, "geometry": { "type": "Point", "coordinates": [ 136.759546415297336, 35.415773894721127 ] } },
{ "type": "Feature", "properties": { "P29_001": "21202", "P29_002": "A121320200011", "P29_003": "16011", "P29_004": "まこと幼稚園", "P29_005": "岐阜県大垣市三塚町350", "P29_006": "4", "P29_007": "0", "P29_008": "00", "P29_009": null }, "geometry": { "type": "Point", "coordinates": [ 136.631970860433341, 35.365540896919661 ] } },
{ "type": "Feature", "properties": { "P29_001": "21202", "P29_002": "A121320200020", "P29_003": "16011", "P29_004": "大垣幼稚園", "P29_005": "岐阜県大垣市伝馬町11", "P29_006": "4", "P29_007": "0", "P29_008": "00", "P29_009": null }, "geometry": { "type": "Point", "coordinates": [ 136.621861123644379, 35.363875525941054 ] } },
{ "type": "Feature", "properties": { "P29_001": "21202", "P29_002": "A121320200039", "P29_003": "16011", "P29_004": "キートスガーデン幼稚園", "P29_005": "岐阜県大垣市外渕2-92", "P29_006": "4", "P29_007": "0", "P29_008": "00", "P29_009": null }, "geometry": { "type": "Point", "coordinates": [ 136.611881999081533, 35.328483998536747 ] } },
{ "type": "Feature", "properties": { "P29_001": "21203", "P29_002": "A121320300010", "P29_003": "16011", "P29_004": "高山幼稚園", "P29_005": "岐阜県高山市片野町2-279", "P29_006": "4", "P29_007": "0", "P29_008": "00", "P29_009": null }, "geometry": { "type": "Point", "coordinates": [ 137.265217186726915, 36.122329979967091 ] } },
{ "type": "Feature", "properties": { "P29_001": "21203", "P29_002": "A121320300029", "P29_003": "16011", "P29_004": "美鳩幼稚園", "P29_005": "岐阜県高山市下林町353", "P29_006": "4", "P29_007": "0", "P29_008": "00", "P29_009": null }, "geometry": { "type": "Point", "coordinates": [ 137.224494590777283, 36.154129978362832 ] } },
{ "type": "Feature", "properties": { "P29_001": "21203", "P29_002": "A121320300038", "P29_003": "16011", "P29_004": "高山短期大学附属幼稚園", "P29_005": "岐阜県高山市下岡本町2241", "P29_006": "4", "P29_007": "0", "P29_008": "00", "P29_009": null }, "geometry": { "type": "Point", "coordinates": [ 137.23546931371456, 36.149625043348301 ] } },
{ "type": "Feature", "properties": { "P29_001": "21204", "P29_002": "A121320400019", "P29_003": "16011", "P29_004": "菫幼稚園", "P29_005": "岐阜県多治見市新富町2-12", "P29_006": "4", "P29_007": "0", "P29_008": "00", "P29_009": null }, "geometry": { "type": "Point", "coordinates": [ 137.134530996558254, 35.336947003628431 ] } },
{ "type": "Feature", "properties": { "P29_001": "21204", "P29_002": "A121320400028", "P29_003": "16011", "P29_004": "菫根本幼稚園", "P29_005": "岐阜県多治見市北丘町1-69", "P29_006": "4", "P29_007": "0", "P29_008": "00", "P29_009": null }, "geometry": { "type": "Point", "coordinates": [ 137.088282434767677, 35.361526218602492 ] } },
{ "type": "Feature", "properties": { "P29_001": "21204", "P29_002": "A121320400037", "P29_003": "16011", "P29_004": "多治見ひまわり幼稚園", "P29_005": "岐阜県多治見市市之倉町13-83-356", "P29_006": "4", "P29_007": "0", "P29_008": "00", "P29_009": null }, "geometry": { "type": "Point", "coordinates": [ 137.109975979014791, 35.302647012893857 ] } },
{ "type": "Feature", "properties": { "P29_001": "21204", "P29_002": "A121320400046", "P29_003": "16011", "P29_004": "多治見大和幼稚園", "P29_005": "岐阜県多治見市滝呂町14-186-1", "P29_006": "4", "P29_007": "0", "P29_008": "00", "P29_009": null }, "geometry": { "type": "Point", "coordinates": [ 137.15534899793937, 35.313764000081122 ] } },
{ "type": "Feature", "properties": { "P29_001": "21205", "P29_002": "A121320500018", "P29_003": "16011", "P29_004": "旭ヶ丘幼稚園", "P29_005": "岐阜県関市旭ヶ丘2-1-2", "P29_006": "4", "P29_007": "0", "P29_008": "00", "P29_009": null }, "geometry": { "type": "Point", "coordinates": [ 136.926925606882122, 35.483912195582235 ] } },
{ "type": "Feature", "properties": { "P29_001": "21205", "P29_002": "A121320500027", "P29_003": "16011", "P29_004": "のぞみ第二幼稚園", "P29_005": "岐阜県関市東新町6-347", "P29_006": "4", "P29_007": "0", "P29_008": "00", "P29_009": null }, "geometry": { "type": "Point", "coordinates": [ 136.939772036658098, 35.482297460051242 ] } },
{ "type": "Feature", "properties": { "P29_001": "21205", "P29_002": "A121320500036", "P29_003": "16011", "P29_004": "虹ケ丘幼稚園", "P29_005": "岐阜県関市山田字新大栗973-2", "P29_006": "4", "P29_007": "0", "P29_008": "00", "P29_009": null }, "geometry": { "type": "Point", "coordinates": [ 136.864102940842088, 35.469068051170638 ] } },
{ "type": "Feature", "properties": { "P29_001": "21205", "P29_002": "A121320500045", "P29_003": "16011", "P29_004": "あかつき幼稚園", "P29_005": "岐阜県関市下有知5055-1", "P29_006": "4", "P29_007": "0", "P29_008": "00", "P29_009": null }, "geometry": { "type": "Point", "coordinates": [ 136.919744271297787, 35.50572654066773 ] } },
{ "type": "Feature", "properties": { "P29_001": "21205", "P29_002": "A121320500054", "P29_003": "16011", "P29_004": "中部学院大学中部学院大学短期大学部附属桐が丘幼稚園", "P29_005": "岐阜県関市桐ヶ丘2-2", "P29_006": "4", "P29_007": "0", "P29_008": "00", "P29_009": null }, "geometry": { "type": "Point", "coordinates": [ 136.896361998015209, 35.460148855300744 ] } },
{ "type": "Feature", "properties": { "P29_001": "21205", "P29_002": "A121320500072", "P29_003": "16011", "P29_004": "武芸川幼稚園", "P29_005": "岐阜県関市武芸川町八幡580-2", "P29_006": "4", "P29_007": "0", "P29_008": "00", "P29_009": null }, "geometry": { "type": "Point", "coordinates": [ 136.849329763801933, 35.535894174999576 ] } },
{ "type": "Feature", "properties": { "P29_001": "21206", "P29_002": "A121320600017", "P29_003": "16011", "P29_004": "杉の子幼稚園", "P29_005": "岐阜県中津川市駒場字後洞1195-7", "P29_006": "4", "P29_007": "0", "P29_008": "00", "P29_009": null }, "geometry": { "type": "Point", "coordinates": [ 137.490534802833821, 35.496160591038368 ] } },
{ "type": "Feature", "properties": { "P29_001": "21206", "P29_002": "A121320600026", "P29_003": "16011", "P29_004": "誠和幼稚園", "P29_005": "岐阜県中津川市手賀野175", "P29_006": "4", "P29_007": "0", "P29_008": "00", "P29_009": null }, "geometry": { "type": "Point", "coordinates": [ 137.490329456372848, 35.476274531849761 ] } },
{ "type": "Feature", "properties": { "P29_001": "21206", "P29_002": "A121320600035", "P29_003": "16011", "P29_004": "付知のぞみ幼稚園", "P29_005": "岐阜県中津川市付知町11010-3", "P29_006": "4", "P29_007": "0", "P29_008": "00", "P29_009": null }, "geometry": { "type": "Point", "coordinates": [ 137.445100452546853, 35.644419988416509 ] } },
{ "type": "Feature", "properties": { "P29_001": "21209", "P29_002": "A121320900014", "P29_003": "16011", "P29_004": "羽島幼稚園", "P29_005": "岐阜県羽島市竹鼻町飯柄987-1", "P29_006": "4", "P29_007": "0", "P29_008": "00", "P29_009": null }, "geometry": { "type": "Point", "coordinates": [ 136.717622998188176, 35.321217997822068 ] } },
{ "type": "Feature", "properties": { "P29_001": "21209", "P29_002": "A121320900023", "P29_003": "16011", "P29_004": "はしま西幼稚園", "P29_005": "岐阜県羽島市福寿町間島4-24", "P29_006": "4", "P29_007": "0", "P29_008": "00", "P29_009": null }, "geometry": { "type": "Point", "coordinates": [ 136.695155998130815, 35.332871001097693 ] } },
{ "type": "Feature", "properties": { "P29_001": "21210", "P29_002": "A121321000011", "P29_003": "16011", "P29_004": "すずめっこ杉の子幼稚園", "P29_005": "岐阜県恵那市大井町鏡山2018", "P29_006": "4", "P29_007": "0", "P29_008": "00", "P29_009": null }, "geometry": { "type": "Point", "coordinates": [ 137.429797580641548, 35.456778301905253 ] } },
{ "type": "Feature", "properties": { "P29_001": "21211", "P29_002": "A121321100029", "P29_003": "16011", "P29_004": "山手幼稚園", "P29_005": "岐阜県美濃加茂市本郷町7-15-25", "P29_006": "4", "P29_007": "0", "P29_008": "00", "P29_009": null }, "geometry": { "type": "Point", "coordinates": [ 137.043474716148609, 35.45835888325518 ] } },
{ "type": "Feature", "properties": { "P29_001": "21211", "P29_002": "A121321100038", "P29_003": "16011", "P29_004": "古井幼稚園", "P29_005": "岐阜県美濃加茂市中富町2-1", "P29_006": "4", "P29_007": "0", "P29_008": "00", "P29_009": null }, "geometry": { "type": "Point", "coordinates": [ 137.025357004012676, 35.44551499674634 ] } },
{ "type": "Feature", "properties": { "P29_001": "21213", "P29_002": "A121321300018", "P29_003": "16011", "P29_004": "認定こども園みどり幼稚園", "P29_005": "岐阜県各務原市三井山町1-70-1", "P29_006": "4", "P29_007": "0", "P29_008": "00", "P29_009": null }, "geometry": { "type": "Point", "coordinates": [ 136.848311461667237, 35.388993873512952 ] } },
{ "type": "Feature", "properties": { "P29_001": "21213", "P29_002": "A121321300027", "P29_003": "16011", "P29_004": "認定こども園ひよし幼稚園", "P29_005": "岐阜県各務原市那加新田町1-80-1", "P29_006": "4", "P29_007": "0", "P29_008": "00", "P29_009": null }, "geometry": { "type": "Point", "coordinates": [ 136.825593999488177, 35.403576001503453 ] } },
{ "type": "Feature", "properties": { "P29_001": "21213", "P29_002": "A121321300036", "P29_003": "16011", "P29_004": "さくら幼稚園", "P29_005": "岐阜県各務原市那加北洞町2-17-1", "P29_006": "4", "P29_007": "0", "P29_008": "00", "P29_009": null }, "geometry": { "type": "Point", "coordinates": [ 136.843532997884296, 35.422411000784408 ] } },
{ "type": "Feature", "properties": { "P29_001": "21213", "P29_002": "A121321300045", "P29_003": "16011", "P29_004": "子苑第一幼稚園", "P29_005": "岐阜県各務原市蘇原花園町4-28", "P29_006": "4", "P29_007": "0", "P29_008": "00", "P29_009": null }, "geometry": { "type": "Point", "coordinates": [ 136.852273821961319, 35.409448862680598 ] } },
{ "type": "Feature", "properties": { "P29_001": "21213", "P29_002": "A121321300054", "P29_003": "16011", "P29_004": "子苑第二幼稚園", "P29_005": "岐阜県各務原市鵜沼三ッ池町1-48", "P29_006": "4", "P29_007": "0", "P29_008": "00", "P29_009": null }, "geometry": { "type": "Point", "coordinates": [ 136.882864096536139, 35.405445263658741 ] } },
{ "type": "Feature", "properties": { "P29_001": "21213", "P29_002": "A121321300063", "P29_003": "16011", "P29_004": "うぬま第一幼稚園", "P29_005": "岐阜県各務原市鵜沼東町8-64", "P29_006": "4", "P29_007": "0", "P29_008": "00", "P29_009": null }, "geometry": { "type": "Point", "coordinates": [ 136.947335679754133, 35.403535147908876 ] } },
{ "type": "Feature", "properties": { "P29_001": "21213", "P29_002": "A121321300072", "P29_003": "16011", "P29_004": "うぬま第二幼稚園", "P29_005": "岐阜県各務原市鵜沼羽場町1-68", "P29_006": "4", "P29_007": "0", "P29_008": "00", "P29_009": null }, "geometry": { "type": "Point", "coordinates": [ 136.92101799625982, 35.406813998092346 ] } },
{ "type": "Feature", "properties": { "P29_001": "21213", "P29_002": "A121321300081", "P29_003": "16011", "P29_004": "うぬま中央幼稚園", "P29_005": "岐阜県各務原市緑苑中1-109", "P29_006": "4", "P29_007": "0", "P29_008": "00", "P29_009": null }, "geometry": { "type": "Point", "coordinates": [ 136.945155525095515, 35.411530060719549 ] } },
{ "type": "Feature", "properties": { "P29_001": "21213", "P29_002": "A121321300090", "P29_003": "16011", "P29_004": "尾崎幼稚園", "P29_005": "岐阜県各務原市尾崎南町1-88", "P29_006": "4", "P29_007": "0", "P29_008": "00", "P29_009": null }, "geometry": { "type": "Point", "coordinates": [ 136.828631999296306, 35.422356996326272 ] } },
{ "type": "Feature", "properties": { "P29_001": "21213", "P29_002": "A121321300107", "P29_003": "16011", "P29_004": "合歓の木幼稚園", "P29_005": "岐阜県各務原市鵜沼羽場町1-143", "P29_006": "4", "P29_007": "0", "P29_008": "00", "P29_009": null }, "geometry": { "type": "Point", "coordinates": [ 136.916191004839987, 35.405691997275063 ] } },
{ "type": "Feature", "properties": { "P29_001": "21213", "P29_002": "A121321300116", "P29_003": "16011", "P29_004": "合歓の木南幼稚園", "P29_005": "岐阜県各務原市鵜沼三ッ池町5-208", "P29_006": "4", "P29_007": "0", "P29_008": "00", "P29_009": null }, "geometry": { "type": "Point", "coordinates": [ 136.895468000486659, 35.398955998345592 ] } },
{ "type": "Feature", "properties": { "P29_001": "21213", "P29_002": "A121321300125", "P29_003": "16011", "P29_004": "認定こども園だいち各務原幼稚園", "P29_005": "岐阜県各務原市名務西町5-189", "P29_006": "4", "P29_007": "0", "P29_008": "00", "P29_009": null }, "geometry": { "type": "Point", "coordinates": [ 136.893623218092131, 35.412707897959699 ] } },
{ "type": "Feature", "properties": { "P29_001": "21213", "P29_002": "A121321300134", "P29_003": "16011", "P29_004": "那加幼稚園", "P29_005": "岐阜県各務原市那加門前町4-8", "P29_006": "4", "P29_007": "0", "P29_008": "00", "P29_009": null }, "geometry": { "type": "Point", "coordinates": [ 136.841724540139239, 35.400944928406759 ] } },
{ "type": "Feature", "properties": { "P29_001": "21214", "P29_002": "A121321400017", "P29_003": "16011", "P29_004": "ひめ幼稚園", "P29_005": "岐阜県可児市下切1532", "P29_006": "4", "P29_007": "0", "P29_008": "00", "P29_009": null }, "geometry": { "type": "Point", "coordinates": [ 137.058868055683519, 35.395120302482546 ] } },
{ "type": "Feature", "properties": { "P29_001": "21214", "P29_002": "A121321400026", "P29_003": "16011", "P29_004": "桜ケ丘幼稚園", "P29_005": "岐阜県可児市桜ケ丘3-124", "P29_006": "4", "P29_007": "0", "P29_008": "00", "P29_009": null }, "geometry": { "type": "Point", "coordinates": [ 137.11707345352815, 35.375073270110363 ] } },
{ "type": "Feature", "properties": { "P29_001": "21214", "P29_002": "A121321400035", "P29_003": "16011", "P29_004": "かたびら幼稚園", "P29_005": "岐阜県可児市鳩吹台4-61", "P29_006": "4", "P29_007": "0", "P29_008": "00", "P29_009": null }, "geometry": { "type": "Point", "coordinates": [ 136.996503521533128, 35.404938328967866 ] } },
{ "type": "Feature", "properties": { "P29_001": "21214", "P29_002": "A121321400044", "P29_003": "16011", "P29_004": "かたびら第二幼稚園", "P29_005": "岐阜県可児市東帷子2263-2", "P29_006": "4", "P29_007": "0", "P29_008": "00", "P29_009": null }, "geometry": { "type": "Point", "coordinates": [ 137.013963005440104, 35.389675001011419 ] } },
{ "type": "Feature", "properties": { "P29_001": "21214", "P29_002": "A121321400053", "P29_003": "16011", "P29_004": "トキワ幼稚園", "P29_005": "岐阜県可児市緑ヶ丘2-188-1", "P29_006": "4", "P29_007": "0", "P29_008": "00", "P29_009": null }, "geometry": { "type": "Point", "coordinates": [ 137.075101495476133, 35.40941505493025 ] } },
{ "type": "Feature", "properties": { "P29_001": "21214", "P29_002": "A121321400062", "P29_003": "16011", "P29_004": "大栄幼稚園", "P29_005": "岐阜県可児市土田1165", "P29_006": "4", "P29_007": "0", "P29_008": "00", "P29_009": null }, "geometry": { "type": "Point", "coordinates": [ 137.016305585125622, 35.420228456314355 ] } },
{ "type": "Feature", "properties": { "P29_001": "21214", "P29_002": "A121321400071", "P29_003": "16011", "P29_004": "今渡幼稚園", "P29_005": "岐阜県可児市今渡1511-5", "P29_006": "4", "P29_007": "0", "P29_008": "00", "P29_009": null }, "geometry": { "type": "Point", "coordinates": [ 137.035884037717636, 35.435486998620007 ] } },
{ "type": "Feature", "properties": { "P29_001": "21214", "P29_002": "A121321400080", "P29_003": "16011", "P29_004": "かわい幼稚園", "P29_005": "岐阜県可児市川合861-1", "P29_006": "4", "P29_007": "0", "P29_008": "00", "P29_009": null }, "geometry": { "type": "Point", "coordinates": [ 137.063318003711856, 35.437563998435401 ] } },
{ "type": "Feature", "properties": { "P29_001": "21215", "P29_002": "A121321500016", "P29_003": "16011", "P29_004": "はなぞの北幼稚園", "P29_005": "岐阜県山県市高富2813-46", "P29_006": "4", "P29_007": "0", "P29_008": "00", "P29_009": null }, "geometry": { "type": "Point", "coordinates": [ 136.791977210816782, 35.503489389230339 ] } },
{ "type": "Feature", "properties": { "P29_001": "21218", "P29_002": "A121321800013", "P29_003": "16011", "P29_004": "いづみ北幼稚園", "P29_005": "岐阜県本巣市文殊57-253", "P29_006": "4", "P29_007": "0", "P29_008": "00", "P29_009": null }, "geometry": { "type": "Point", "coordinates": [ 136.690553468129309, 35.495023008801844 ] } },
{ "type": "Feature", "properties": { "P29_001": "21219", "P29_002": "A121321900012", "P29_003": "16011", "P29_004": "認定こども園妙高幼稚園", "P29_005": "岐阜県郡上市八幡町初音1070", "P29_006": "4", "P29_007": "0", "P29_008": "00", "P29_009": null }, "geometry": { "type": "Point", "coordinates": [ 136.952730854215417, 35.770109414000601 ] } },
{ "type": "Feature", "properties": { "P29_001": "21303", "P29_002": "A121330300019", "P29_003": "16011", "P29_004": "笠松幼稚園", "P29_005": "岐阜県羽島郡笠松町長池377", "P29_006": "4", "P29_007": "0", "P29_008": "00", "P29_009": null }, "geometry": { "type": "Point", "coordinates": [ 136.750161877210189, 35.358706658056271 ] } },
{ "type": "Feature", "properties": { "P29_001": "21303", "P29_002": "A121330300028", "P29_003": "16011", "P29_004": "笠松双葉幼稚園", "P29_005": "岐阜県羽島郡笠松町北及66", "P29_006": "4", "P29_007": "0", "P29_008": "00", "P29_009": null }, "geometry": { "type": "Point", "coordinates": [ 136.742715497549199, 35.350766758200642 ] } },
{ "type": "Feature", "properties": { "P29_001": "21401", "P29_002": "A121340100010", "P29_003": "16011", "P29_004": "揖斐幼稚園", "P29_005": "岐阜県揖斐郡揖斐川町三輪黒石2113-2", "P29_006": "4", "P29_007": "0", "P29_008": "00", "P29_009": null }, "geometry": { "type": "Point", "coordinates": [ 136.585001565803907, 35.481248987174062 ] } },
{ "type": "Feature", "properties": { "P29_001": "21403", "P29_002": "A121340300018", "P29_003": "16011", "P29_004": "認定こども園大野クローバー幼稚園", "P29_005": "岐阜県揖斐郡大野町桜大門30", "P29_006": "4", "P29_007": "0", "P29_008": "00", "P29_009": null }, "geometry": { "type": "Point", "coordinates": [ 136.62035199699676, 35.472393995600598 ] } },
{ "type": "Feature", "properties": { "P29_001": "21404", "P29_002": "A121340400017", "P29_003": "16011", "P29_004": "コスモ幼稚園", "P29_005": "岐阜県揖斐郡池田町池野513", "P29_006": "4", "P29_007": "0", "P29_008": "00", "P29_009": null }, "geometry": { "type": "Point", "coordinates": [ 136.574623954014868, 35.438042823001354 ] } },
{ "type": "Feature", "properties": { "P29_001": "21421", "P29_002": "A121342100016", "P29_003": "16011", "P29_004": "北方幼稚園", "P29_005": "岐阜県本巣郡北方町春来町3-38", "P29_006": "4", "P29_007": "0", "P29_008": "00", "P29_009": null }, "geometry": { "type": "Point", "coordinates": [ 136.686399616723889, 35.430112501254882 ] } },
{ "type": "Feature", "properties": { "P29_001": "21521", "P29_002": "A121352100015", "P29_003": "16011", "P29_004": "みたけ幼稚園", "P29_005": "岐阜県可児郡御嵩町中字西田903-9", "P29_006": "4", "P29_007": "0", "P29_008": "00", "P29_009": null }, "geometry": { "type": "Point", "coordinates": [ 137.117196155369527, 35.430216699995533 ] } }
]
}
