{
"type": "FeatureCollection",
"name": "geo_21_認知症対応型通所介護",
"crs": { "type": "name", "properties": { "name": "urn:ogc:def:crs:OGC:1.3:CRS84" } },
"features": [
{ "type": "Feature", "properties": { "内容": "くぬぎの木【認知症対応型通所介護】岐阜県岐阜市北一色5丁目13-25ガーデンハイツ　１階　西テナント", "url": "https://www.kaigokensaku.mhlw.go.jp/21/index.php?action_kouhyou_detail_004_kani=true&JigyosyoCd=2190104667-00&ServiceCd=720&Type=search", "url2": "http://yamamie.flips.jp/mobile/?page=menu3" }, "geometry": { "type": "Point", "coordinates": [ 136.7886552, 35.4103583 ] } },
{ "type": "Feature", "properties": { "内容": "ハートデイサービス老松【認知症対応型通所介護】岐阜県岐阜市老松町10番地", "url": "https://www.kaigokensaku.mhlw.go.jp/21/index.php?action_kouhyou_detail_004_kani=true&JigyosyoCd=2190100194-00&ServiceCd=720&Type=search", "url2": "http://zuihokai-group.jp/" }, "geometry": { "type": "Point", "coordinates": [ 136.766943754550681, 35.414194083579311 ] } },
{ "type": "Feature", "properties": { "内容": "株式会社TERAビジネスサポート【認知症対応型通所介護】岐阜県岐阜市六条片田1-16-10", "url": "https://www.kaigokensaku.mhlw.go.jp/21/index.php?action_kouhyou_detail_004_kani=true&JigyosyoCd=2190104626-00&ServiceCd=720&Type=search", "url2": "https://www.tera-tomato.com" }, "geometry": { "type": "Point", "coordinates": [ 136.746035799999987, 35.3968236 ] } },
{ "type": "Feature", "properties": { "内容": "認知症対応型通所介護　デイサービス　つなぐ色【認知症対応型通所介護】岐阜県岐阜市萱場東町10丁目12番1", "url": "https://www.kaigokensaku.mhlw.go.jp/21/index.php?action_kouhyou_detail_004_kani=true&JigyosyoCd=2190104782-00&ServiceCd=720&Type=search", "url2": null }, "geometry": { "type": "Point", "coordinates": [ 136.7336901, 35.4398061 ] } },
{ "type": "Feature", "properties": { "内容": "城南デイサービスセンター笑来学院【認知症対応型通所介護】岐阜県岐阜市東明見町15番地", "url": "https://www.kaigokensaku.mhlw.go.jp/21/index.php?action_kouhyou_detail_004_kani=true&JigyosyoCd=2190100145-00&ServiceCd=720&Type=search", "url2": "https://www.wakokai.or.jp/search/nursing/warakurugakuin/" }, "geometry": { "type": "Point", "coordinates": [ 136.766849461971333, 35.397045760154235 ] } },
{ "type": "Feature", "properties": { "内容": "九重町デイサービスセンター　笑来庵【認知症対応型通所介護】岐阜県岐阜市九重町１丁目１０－１", "url": "https://www.kaigokensaku.mhlw.go.jp/21/index.php?action_kouhyou_detail_004_kani=true&JigyosyoCd=2190100152-00&ServiceCd=720&Type=search", "url2": "https://www.wakokai.or.jp/search/nursing/warakuruan/" }, "geometry": { "type": "Point", "coordinates": [ 136.7731695, 35.4137023 ] } },
{ "type": "Feature", "properties": { "内容": "デイサービス　ササダ【認知症対応型通所介護】岐阜県岐阜市加納本石町3丁目3", "url": "https://www.kaigokensaku.mhlw.go.jp/21/index.php?action_kouhyou_detail_004_kani=true&JigyosyoCd=2190100202-00&ServiceCd=720&Type=search", "url2": null }, "geometry": { "type": "Point", "coordinates": [ 136.748422500000061, 35.4036257 ] } },
{ "type": "Feature", "properties": { "内容": "長良脳活性化センター【認知症対応型通所介護】岐阜県岐阜市長良雄総字法喜54", "url": "https://www.kaigokensaku.mhlw.go.jp/21/index.php?action_kouhyou_detail_004_kani=true&JigyosyoCd=2190100285-00&ServiceCd=720&Type=search", "url2": "http://alt-kaigo.co.jp/" }, "geometry": { "type": "Point", "coordinates": [ 136.791246088706743, 35.44396301004506 ] } },
{ "type": "Feature", "properties": { "内容": "認知症対応型通所介護笑来加納【認知症対応型通所介護】岐阜県岐阜市加納愛宕町１８番地２", "url": "https://www.kaigokensaku.mhlw.go.jp/21/index.php?action_kouhyou_detail_004_kani=true&JigyosyoCd=2190102653-00&ServiceCd=720&Type=search", "url2": "http://www.wakokai.or.jp" }, "geometry": { "type": "Point", "coordinates": [ 136.750784317860365, 35.409003697923474 ] } },
{ "type": "Feature", "properties": { "内容": "デイサービスセンターきらり【認知症対応型通所介護】岐阜県岐阜市鏡島南1-2-30", "url": "https://www.kaigokensaku.mhlw.go.jp/21/index.php?action_kouhyou_detail_004_kani=true&JigyosyoCd=2190102661-00&ServiceCd=720&Type=search", "url2": "http://www.koukikai.gr.jp/welfare_top/guide/kirari/" }, "geometry": { "type": "Point", "coordinates": [ 136.717054800000028, 35.4077833 ] } },
{ "type": "Feature", "properties": { "内容": "認知症対応型通所介護　デイサービス　つなぐ【認知症対応型通所介護】岐阜県岐阜市萱場東町3丁目22", "url": "https://www.kaigokensaku.mhlw.go.jp/21/index.php?action_kouhyou_detail_004_kani=true&JigyosyoCd=2190104048-00&ServiceCd=720&Type=search", "url2": null }, "geometry": { "type": "Point", "coordinates": [ 136.7354967, 35.437122 ] } },
{ "type": "Feature", "properties": { "内容": "認知症対応型通所介護　デイサービス　　つなぐの花【認知症対応型通所介護】岐阜県岐阜市萱場東町１０丁目１２番１", "url": "https://www.kaigokensaku.mhlw.go.jp/21/index.php?action_kouhyou_detail_004_kani=true&JigyosyoCd=2190104352-00&ServiceCd=720&Type=search", "url2": null }, "geometry": { "type": "Point", "coordinates": [ 136.7337024, 35.4398005 ] } },
{ "type": "Feature", "properties": { "内容": "デイサービスみーの・みーの【認知症対応型通所介護】岐阜県大垣市南頬町1-118-1", "url": "https://www.kaigokensaku.mhlw.go.jp/21/index.php?action_kouhyou_detail_004_kani=true&JigyosyoCd=2172101061-00&ServiceCd=720&Type=search", "url2": "http://www.shinsei-md.jp/" }, "geometry": { "type": "Point", "coordinates": [ 136.624002915042837, 35.355816822999145 ] } },
{ "type": "Feature", "properties": { "内容": "デイサービスひのき【認知症対応型通所介護】岐阜県大垣市桧町７０６", "url": "https://www.kaigokensaku.mhlw.go.jp/21/index.php?action_kouhyou_detail_004_kani=true&JigyosyoCd=2172101236-00&ServiceCd=720&Type=search", "url2": "http://seinou.coop/branch/branch_4/" }, "geometry": { "type": "Point", "coordinates": [ 136.587895399999979, 35.3655771 ] } },
{ "type": "Feature", "properties": { "内容": "デイサービスセンターサンビレッジ大垣【認知症対応型通所介護】岐阜県大垣市北方町5丁目35番地", "url": "https://www.kaigokensaku.mhlw.go.jp/21/index.php?action_kouhyou_detail_004_kani=true&JigyosyoCd=2172101350-00&ServiceCd=720&Type=search", "url2": "https://www.sun-village.jp/" }, "geometry": { "type": "Point", "coordinates": [ 136.620747132540885, 35.397482836940831 ] } },
{ "type": "Feature", "properties": { "内容": "認知症デイサービスあらかわ【認知症対応型通所介護】岐阜県大垣市荒川町字森元446番地1", "url": "https://www.kaigokensaku.mhlw.go.jp/21/index.php?action_kouhyou_detail_004_kani=true&JigyosyoCd=2192100390-00&ServiceCd=720&Type=search", "url2": "https://kmh-care.com/arakawa/" }, "geometry": { "type": "Point", "coordinates": [ 136.574652600000036, 35.3610328 ] } },
{ "type": "Feature", "properties": { "内容": "株式会社新生メディカル高山営業所デイサービスセンターしんせい【認知症対応型通所介護】岐阜県高山市岡本町２丁目１８－２１", "url": "https://www.kaigokensaku.mhlw.go.jp/21/index.php?action_kouhyou_detail_004_kani=true&JigyosyoCd=2192700017-00&ServiceCd=720&Type=search", "url2": "http://www.shinsei-md.jp/" }, "geometry": { "type": "Point", "coordinates": [ 137.247451100000035, 36.1462152 ] } },
{ "type": "Feature", "properties": { "内容": "デイサービスセンターあんき【認知症対応型通所介護】岐阜県関市洞戸通元寺261番地", "url": "https://www.kaigokensaku.mhlw.go.jp/21/index.php?action_kouhyou_detail_004_kani=true&JigyosyoCd=2190200044-00&ServiceCd=720&Type=search", "url2": "http://miwakai.or.jp/" }, "geometry": { "type": "Point", "coordinates": [ 136.819419499999981, 35.6073577 ] } },
{ "type": "Feature", "properties": { "内容": "まなびやデイサービスセンターほほえみ【認知症対応型通所介護】岐阜県関市稲口776番地1医療法人明萌会　介護老人保健施設花咲き庵１階", "url": "https://www.kaigokensaku.mhlw.go.jp/21/index.php?action_kouhyou_detail_004_kani=true&JigyosyoCd=2190200184-00&ServiceCd=720&Type=search", "url2": "https://www.hohoemi.or.jp" }, "geometry": { "type": "Point", "coordinates": [ 136.926269122615054, 35.470069111039905 ] } },
{ "type": "Feature", "properties": { "内容": "まなびやデイサービスセンターほほえみ栄町【認知症対応型通所介護】岐阜県関市栄町２丁目８番１", "url": "https://www.kaigokensaku.mhlw.go.jp/21/index.php?action_kouhyou_detail_004_kani=true&JigyosyoCd=2190200242-00&ServiceCd=720&Type=search", "url2": "https:/www.hohoemi.or.jp" }, "geometry": { "type": "Point", "coordinates": [ 136.910124788763369, 35.487160807697101 ] } },
{ "type": "Feature", "properties": { "内容": "グループホームしくらめん【認知症対応型通所介護】岐阜県中津川市阿木２８１１番地の１", "url": "https://www.kaigokensaku.mhlw.go.jp/21/index.php?action_kouhyou_detail_004_kani=true&JigyosyoCd=2191500129-00&ServiceCd=720&Type=search", "url2": "https://www.cyclamen.or.jp/" }, "geometry": { "type": "Point", "coordinates": [ 137.447494799999987, 35.4093567 ] } },
{ "type": "Feature", "properties": { "内容": "認知症対応型デイサービス恵寿【認知症対応型通所介護】岐阜県中津川市中津川９５０－２３８", "url": "https://www.kaigokensaku.mhlw.go.jp/21/index.php?action_kouhyou_detail_004_kani=true&JigyosyoCd=2191500137-00&ServiceCd=720&Type=search", "url2": "http://www.keijyu-nc.com" }, "geometry": { "type": "Point", "coordinates": [ 137.526942114118725, 35.501441524833055 ] } },
{ "type": "Feature", "properties": { "内容": "中津川ケアハートガーデン　グループホームなかむらの郷【認知症対応型通所介護】岐阜県中津川市中津川３０４２番地３９", "url": "https://www.kaigokensaku.mhlw.go.jp/21/index.php?action_kouhyou_detail_004_kani=true&JigyosyoCd=2191500277-00&ServiceCd=720&Type=search", "url2": "https://www.careheart-garden.com/" }, "geometry": { "type": "Point", "coordinates": [ 137.5044555, 35.4882556 ] } },
{ "type": "Feature", "properties": { "内容": "中津川ケアハートガーデン　グループホームてがのの家【認知症対応型通所介護】岐阜県中津川市手賀野321番地", "url": "https://www.kaigokensaku.mhlw.go.jp/21/index.php?action_kouhyou_detail_004_kani=true&JigyosyoCd=2191500285-00&ServiceCd=720&Type=search", "url2": "https://www.careheart-garden.com/" }, "geometry": { "type": "Point", "coordinates": [ 137.495947300000012, 35.4837734 ] } },
{ "type": "Feature", "properties": { "内容": "認知症対応型通所介護　こころの丘【認知症対応型通所介護】岐阜県恵那市岩村町矢坪2453-123", "url": "https://www.kaigokensaku.mhlw.go.jp/21/index.php?action_kouhyou_detail_004_kani=true&JigyosyoCd=2191700059-00&ServiceCd=720&Type=search", "url2": "http://www.keiyu-kai.com/" }, "geometry": { "type": "Point", "coordinates": [ 137.428953691379547, 35.368296558452798 ] } },
{ "type": "Feature", "properties": { "内容": "くわのみデイサービス【認知症対応型通所介護】岐阜県恵那市岩村町飯羽間１６１９", "url": "https://www.kaigokensaku.mhlw.go.jp/21/index.php?action_kouhyou_detail_004_kani=true&JigyosyoCd=2171700525-00&ServiceCd=720&Type=search", "url2": "http://www.kuwanomi-ena.co.jp/" }, "geometry": { "type": "Point", "coordinates": [ 137.4289374, 35.3791325 ] } },
{ "type": "Feature", "properties": { "内容": "藤の里「結い」デイサービス【認知症対応型通所介護】岐阜県恵那市武並町藤1929-1", "url": "https://www.kaigokensaku.mhlw.go.jp/21/index.php?action_kouhyou_detail_004_kani=true&JigyosyoCd=2191700125-00&ServiceCd=720&Type=search", "url2": "http://www.fujinosato-yui.com/" }, "geometry": { "type": "Point", "coordinates": [ 137.32149359999994, 35.4575567 ] } },
{ "type": "Feature", "properties": { "内容": "認知症対応型通所介護事業所　デイサービスあじさい【認知症対応型通所介護】岐阜県恵那市明智町1110番地5", "url": "https://www.kaigokensaku.mhlw.go.jp/21/index.php?action_kouhyou_detail_004_kani=true&JigyosyoCd=2191700141-00&ServiceCd=720&Type=search", "url2": "http://enacity.info/ajisai/" }, "geometry": { "type": "Point", "coordinates": [ 137.394399, 35.2972224 ] } },
{ "type": "Feature", "properties": { "内容": "毛呂窪の里「結い」デイサービス【認知症対応型通所介護】岐阜県恵那市笠置町毛呂窪1042-2", "url": "https://www.kaigokensaku.mhlw.go.jp/21/index.php?action_kouhyou_detail_004_kani=true&JigyosyoCd=2191700208-00&ServiceCd=720&Type=search", "url2": "http://www.fujinosato-yui.com/" }, "geometry": { "type": "Point", "coordinates": [ 137.383710800000017, 35.4940933 ] } },
{ "type": "Feature", "properties": { "内容": "デイサービスセンターすずらん【認知症対応型通所介護】岐阜県各務原市鵜沼羽場町3丁目35番地2", "url": "https://www.kaigokensaku.mhlw.go.jp/21/index.php?action_kouhyou_detail_004_kani=true&JigyosyoCd=2170500488-00&ServiceCd=720&Type=search", "url2": "http://www.phoenix-g.jp" }, "geometry": { "type": "Point", "coordinates": [ 136.917548025933797, 35.403169107657355 ] } },
{ "type": "Feature", "properties": { "内容": "デイサービスセンターほおずき【認知症対応型通所介護】岐阜県各務原市上中屋町2丁目183番地", "url": "https://www.kaigokensaku.mhlw.go.jp/21/index.php?action_kouhyou_detail_004_kani=true&JigyosyoCd=2190500146-00&ServiceCd=720&Type=search", "url2": "http://hozuki-peace.jimdo.com/" }, "geometry": { "type": "Point", "coordinates": [ 136.8503485, 35.378886 ] } },
{ "type": "Feature", "properties": { "内容": "あい【認知症対応型通所介護】岐阜県各務原市蘇原新生町3丁目１３番地", "url": "https://www.kaigokensaku.mhlw.go.jp/21/index.php?action_kouhyou_detail_004_kani=true&JigyosyoCd=2190500161-00&ServiceCd=720&Type=search", "url2": "http://www.kaigo-ai.com" }, "geometry": { "type": "Point", "coordinates": [ 136.8820743, 35.4174569 ] } },
{ "type": "Feature", "properties": { "内容": "樹楽　久々利の里【認知症対応型通所介護】岐阜県可児市久々利1628-5", "url": "https://www.kaigokensaku.mhlw.go.jp/21/index.php?action_kouhyou_detail_004_kani=true&JigyosyoCd=2193100225-00&ServiceCd=720&Type=search", "url2": null }, "geometry": { "type": "Point", "coordinates": [ 137.10917, 35.4037782 ] } },
{ "type": "Feature", "properties": { "内容": "医療法人社団高和会高木デイサービスセンター【認知症対応型通所介護】岐阜県瑞穂市古橋1123-1", "url": "https://www.kaigokensaku.mhlw.go.jp/21/index.php?action_kouhyou_detail_004_kani=true&JigyosyoCd=2173200102-00&ServiceCd=720&Type=search", "url2": "http://takagi-clinic.net/" }, "geometry": { "type": "Point", "coordinates": [ 136.650318199999987, 35.3918063 ] } },
{ "type": "Feature", "properties": { "内容": "デイサービスセンターもやいの家瑞穂【認知症対応型通所介護】岐阜県瑞穂市本田２０５０番地１", "url": "https://www.kaigokensaku.mhlw.go.jp/21/index.php?action_kouhyou_detail_004_kani=true&JigyosyoCd=2193200033-00&ServiceCd=720&Type=search", "url2": "https://www.sun-village.jp/" }, "geometry": { "type": "Point", "coordinates": [ 136.676818599999933, 35.4022943 ] } },
{ "type": "Feature", "properties": { "内容": "岐阜県立飛騨寿楽苑デイサービスセンター【認知症対応型通所介護】岐阜県飛騨市古川町是重１０２", "url": "https://www.kaigokensaku.mhlw.go.jp/21/index.php?action_kouhyou_detail_004_kani=true&JigyosyoCd=2173000395-00&ServiceCd=720&Type=search", "url2": "https://gifu-fukushi.jp/institution/hida/p3364/" }, "geometry": { "type": "Point", "coordinates": [ 137.199501899999973, 36.225218 ] } },
{ "type": "Feature", "properties": { "内容": "もとす広域連合老人福祉施設大和園和デイサービスセンター【認知症対応型通所介護】岐阜県本巣市曽井中島１１５６-４", "url": "https://www.kaigokensaku.mhlw.go.jp/21/index.php?action_kouhyou_detail_004_kani=true&JigyosyoCd=2170700427-00&ServiceCd=720&Type=search", "url2": "http://www.motosu-union.gifu.jp/welfare" }, "geometry": { "type": "Point", "coordinates": [ 136.666152900000043, 35.4826384 ] } },
{ "type": "Feature", "properties": { "内容": "グループホームうららびより金山【認知症対応型通所介護】岐阜県下呂市金山町金山９８８－１", "url": "https://www.kaigokensaku.mhlw.go.jp/21/index.php?action_kouhyou_detail_004_kani=true&JigyosyoCd=2172800548-00&ServiceCd=720&Type=search", "url2": "https://www.urarabiyori.com" }, "geometry": { "type": "Point", "coordinates": [ 137.145733867069168, 35.668768173597918 ] } },
{ "type": "Feature", "properties": { "内容": "共用型デイサービス天の花【認知症対応型通所介護】岐阜県海津市平田町仏師川461", "url": "https://www.kaigokensaku.mhlw.go.jp/21/index.php?action_kouhyou_detail_004_kani=true&JigyosyoCd=2192200117-00&ServiceCd=720&Type=search", "url2": "https://www.funacli.jp/" }, "geometry": { "type": "Point", "coordinates": [ 136.6352853, 35.257767 ] } },
{ "type": "Feature", "properties": { "内容": "パーソナルデイみんなのお家岐南【認知症対応型通所介護】岐阜県羽島郡岐南町伏屋8-45-1", "url": "https://www.kaigokensaku.mhlw.go.jp/21/index.php?action_kouhyou_detail_004_kani=true&JigyosyoCd=2190600052-00&ServiceCd=720&Type=search", "url2": "fukushi.touhoukai.or.jp" }, "geometry": { "type": "Point", "coordinates": [ 136.790786499999967, 35.3797819 ] } },
{ "type": "Feature", "properties": { "内容": "デイサービスくるみ【認知症対応型通所介護】岐阜県養老郡養老町飯田429-1", "url": "https://www.kaigokensaku.mhlw.go.jp/21/index.php?action_kouhyou_detail_004_kani=true&JigyosyoCd=2192300057-00&ServiceCd=720&Type=search", "url2": null }, "geometry": { "type": "Point", "coordinates": [ 136.568265099999962, 35.3249644 ] } },
{ "type": "Feature", "properties": { "内容": "グループホーム垂井だいわ福寿の杜【認知症対応型通所介護】岐阜県不破郡垂井町栗原372-1", "url": "https://www.kaigokensaku.mhlw.go.jp/21/index.php?action_kouhyou_detail_004_kani=true&JigyosyoCd=2172400273-00&ServiceCd=720&Type=search", "url2": "http://www.fukujunomori.jp/" }, "geometry": { "type": "Point", "coordinates": [ 136.5419789, 35.3394072 ] } },
{ "type": "Feature", "properties": { "内容": "認知症対応型デイサービスはつらついぶき【認知症対応型通所介護】岐阜県不破郡垂井町岩手4538はつらついぶき", "url": "https://www.kaigokensaku.mhlw.go.jp/21/index.php?action_kouhyou_detail_004_kani=true&JigyosyoCd=2192400055-00&ServiceCd=720&Type=search", "url2": "http://www.ibukien.jp/" }, "geometry": { "type": "Point", "coordinates": [ 136.519947499999944, 35.3763385 ] } },
{ "type": "Feature", "properties": { "内容": "グループホームうららびより関ケ原【認知症対応型通所介護】岐阜県不破郡関ヶ原町大字関ヶ原3384-3", "url": "https://www.kaigokensaku.mhlw.go.jp/21/index.php?action_kouhyou_detail_004_kani=true&JigyosyoCd=2172400257-00&ServiceCd=720&Type=search", "url2": "https://www.urarabiyori.com/facility/sekigahara/" }, "geometry": { "type": "Point", "coordinates": [ 136.4751196, 35.3627231 ] } },
{ "type": "Feature", "properties": { "内容": "グループホーム　ナンウェーブ【認知症対応型通所介護】岐阜県安八郡輪之内町南波380-1", "url": "https://www.kaigokensaku.mhlw.go.jp/21/index.php?action_kouhyou_detail_004_kani=true&JigyosyoCd=2172500205-00&ServiceCd=720&Type=search", "url2": "http://www.seiyou.co.jp/" }, "geometry": { "type": "Point", "coordinates": [ 136.6349547, 35.3048873 ] } },
{ "type": "Feature", "properties": { "内容": "デイサービス　さくら悠輪苑【認知症対応型通所介護】岐阜県安八郡輪之内町四郷２８８番地", "url": "https://www.kaigokensaku.mhlw.go.jp/21/index.php?action_kouhyou_detail_004_kani=true&JigyosyoCd=2192500086-00&ServiceCd=720&Type=search", "url2": null }, "geometry": { "type": "Point", "coordinates": [ 136.64968650000003, 35.2942674 ] } },
{ "type": "Feature", "properties": { "内容": "グループホーム　まき【認知症対応型通所介護】岐阜県安八郡安八町牧字一番割127番1", "url": "https://www.kaigokensaku.mhlw.go.jp/21/index.php?action_kouhyou_detail_004_kani=true&JigyosyoCd=2192500052-00&ServiceCd=720&Type=search", "url2": null }, "geometry": { "type": "Point", "coordinates": [ 136.649134911850098, 35.336796253200518 ] } },
{ "type": "Feature", "properties": { "内容": "デイサービス　揖斐川げんき村【認知症対応型通所介護】岐阜県揖斐郡揖斐川町志津山378", "url": "https://www.kaigokensaku.mhlw.go.jp/21/index.php?action_kouhyou_detail_004_kani=true&JigyosyoCd=2192600209-00&ServiceCd=720&Type=search", "url2": "http://www.i-coltd.co.jp/ibigawa/" }, "geometry": { "type": "Point", "coordinates": [ 136.588856399999941, 35.4828358 ] } },
{ "type": "Feature", "properties": { "内容": "共用型デイサービスセンター　セント・ケアおおの【認知症対応型通所介護】岐阜県揖斐郡大野町黒野１９０番地１", "url": "https://www.kaigokensaku.mhlw.go.jp/21/index.php?action_kouhyou_detail_004_kani=true&JigyosyoCd=2192600241-00&ServiceCd=720&Type=search", "url2": "https://www.plaza21oono.jp/koujinkai/" }, "geometry": { "type": "Point", "coordinates": [ 136.6307356, 35.4668786 ] } },
{ "type": "Feature", "properties": { "内容": "老人デイサービスセンターまほろば【認知症対応型通所介護】岐阜県揖斐郡大野町南方石ノ上356番地1", "url": "https://www.kaigokensaku.mhlw.go.jp/21/index.php?action_kouhyou_detail_004_kani=true&JigyosyoCd=2172600716-00&ServiceCd=720&Type=search", "url2": "http://www.plaza21oono.jp/koujinkai" }, "geometry": { "type": "Point", "coordinates": [ 136.618871199058503, 35.452523628237621 ] } },
{ "type": "Feature", "properties": { "内容": "デイサービスセンターサンビレッジ新生苑【認知症対応型通所介護】岐阜県揖斐郡池田町本郷１５０１番地", "url": "https://www.kaigokensaku.mhlw.go.jp/21/index.php?action_kouhyou_detail_004_kani=true&JigyosyoCd=2172600260-00&ServiceCd=720&Type=search", "url2": "https://www.sun-village.jp/" }, "geometry": { "type": "Point", "coordinates": [ 136.575547799999981, 35.4440335 ] } },
{ "type": "Feature", "properties": { "内容": "笑来北方【認知症対応型通所介護】岐阜県本巣郡北方町柱本3丁目90番地", "url": "https://www.kaigokensaku.mhlw.go.jp/21/index.php?action_kouhyou_detail_004_kani=true&JigyosyoCd=2190700027-00&ServiceCd=720&Type=search", "url2": "https://www.wakokai.or.jp/search/nursing/warakuru-kitagata/" }, "geometry": { "type": "Point", "coordinates": [ 136.693602200000015, 35.4280052 ] } }
]
}
