{
"type": "FeatureCollection",
"name": "geo_21_介護老人保健施設",
"crs": { "type": "name", "properties": { "name": "urn:ogc:def:crs:OGC:1.3:CRS84" } },
"features": [
{ "type": "Feature", "properties": { "内容": "介護老人保健施設岐阜リハビリテーションホーム【介護老人保健施設】岐阜県岐阜市黒野１８１番地", "url": "https://www.kaigokensaku.mhlw.go.jp/21/index.php?action_kouhyou_detail_004_kani=true&JigyosyoCd=2150180012-00&ServiceCd=520&Type=search", "url2": "http://www.gifurehahome.com" }, "geometry": { "type": "Point", "coordinates": [ 136.726454, 35.4593036 ] } },
{ "type": "Feature", "properties": { "内容": "三浦老人保健施設【介護老人保健施設】岐阜県岐阜市鏡島精華3丁目17-5", "url": "https://www.kaigokensaku.mhlw.go.jp/21/index.php?action_kouhyou_detail_004_kani=true&JigyosyoCd=2150180020-00&ServiceCd=520&Type=search", "url2": "http://kyuseikai.com" }, "geometry": { "type": "Point", "coordinates": [ 136.718751699999984, 35.4113328 ] } },
{ "type": "Feature", "properties": { "内容": "介護老人保健施設カワムラコート【介護老人保健施設】岐阜県岐阜市芥見大般若1丁目105番地", "url": "https://www.kaigokensaku.mhlw.go.jp/21/index.php?action_kouhyou_detail_004_kani=true&JigyosyoCd=2150180046-00&ServiceCd=520&Type=search", "url2": "http://www.kawamuramedical.or.jp/" }, "geometry": { "type": "Point", "coordinates": [ 136.844313474697032, 35.438401547587731 ] } },
{ "type": "Feature", "properties": { "内容": "介護老人保健施設長良川ビラ【介護老人保健施設】岐阜県岐阜市又丸６７番地７", "url": "https://www.kaigokensaku.mhlw.go.jp/21/index.php?action_kouhyou_detail_004_kani=true&JigyosyoCd=2150180061-00&ServiceCd=520&Type=search", "url2": "http://www.kyowakai.or.jp" }, "geometry": { "type": "Point", "coordinates": [ 136.704152900000054, 35.4411617 ] } },
{ "type": "Feature", "properties": { "内容": "寺田ガーデン【介護老人保健施設】岐阜県岐阜市寺田７丁目７７番地", "url": "https://www.kaigokensaku.mhlw.go.jp/21/index.php?action_kouhyou_detail_004_kani=true&JigyosyoCd=2150180079-00&ServiceCd=520&Type=search", "url2": "http://www.wakokai.or.jp" }, "geometry": { "type": "Point", "coordinates": [ 136.700314863229352, 35.419764738675831 ] } },
{ "type": "Feature", "properties": { "内容": "介護老人保健施設サワダケアセンター【介護老人保健施設】岐阜県岐阜市野一色７丁目１２番２号", "url": "https://www.kaigokensaku.mhlw.go.jp/21/index.php?action_kouhyou_detail_004_kani=true&JigyosyoCd=2150180087-00&ServiceCd=520&Type=search", "url2": "http://www.sawada-care.jp/" }, "geometry": { "type": "Point", "coordinates": [ 136.807271300000025, 35.4175718 ] } },
{ "type": "Feature", "properties": { "内容": "介護老人保健施設グリーンビラ安江【介護老人保健施設】岐阜県岐阜市鏡島南1丁目2番38号", "url": "https://www.kaigokensaku.mhlw.go.jp/21/index.php?action_kouhyou_detail_004_kani=true&JigyosyoCd=2150180095-00&ServiceCd=520&Type=search", "url2": "http://www.koukikai.gr.jp" }, "geometry": { "type": "Point", "coordinates": [ 136.7173464, 35.4084915 ] } },
{ "type": "Feature", "properties": { "内容": "介護老人保健施設喜の里【介護老人保健施設】岐阜県岐阜市中鶉２丁目９９番地", "url": "https://www.kaigokensaku.mhlw.go.jp/21/index.php?action_kouhyou_detail_004_kani=true&JigyosyoCd=2150180103-00&ServiceCd=520&Type=search", "url2": "http://www.seiyuukai.or.jp" }, "geometry": { "type": "Point", "coordinates": [ 136.7342837, 35.3840614 ] } },
{ "type": "Feature", "properties": { "内容": "介護老人保健施設いこいの里2号館【介護老人保健施設】岐阜県岐阜市岩滝東1丁目91番地", "url": "https://www.kaigokensaku.mhlw.go.jp/21/index.php?action_kouhyou_detail_004_kani=true&JigyosyoCd=2150180111-00&ServiceCd=520&Type=search", "url2": "https://kenseikai-iryou.com" }, "geometry": { "type": "Point", "coordinates": [ 136.850268699999987, 35.4268739 ] } },
{ "type": "Feature", "properties": { "内容": "介護老人保健施設　ハートケア松岡【介護老人保健施設】岐阜県岐阜市長旗町１丁目８番地", "url": "https://www.kaigokensaku.mhlw.go.jp/21/index.php?action_kouhyou_detail_004_kani=true&JigyosyoCd=2150180129-00&ServiceCd=520&Type=search", "url2": "http://www.zuihokai-group.jp" }, "geometry": { "type": "Point", "coordinates": [ 136.7607984, 35.4145716 ] } },
{ "type": "Feature", "properties": { "内容": "介護老人保健施設永寿【介護老人保健施設】岐阜県岐阜市栄新町２丁目５０番地", "url": "https://www.kaigokensaku.mhlw.go.jp/21/index.php?action_kouhyou_detail_004_kani=true&JigyosyoCd=2150180152-00&ServiceCd=520&Type=search", "url2": "http://www.eijyukai-ohhashi.or.jp/" }, "geometry": { "type": "Point", "coordinates": [ 136.759597799999938, 35.4378105 ] } },
{ "type": "Feature", "properties": { "内容": "仙寿なごみ野【介護老人保健施設】岐阜県岐阜市則武東4丁目2番6号", "url": "https://www.kaigokensaku.mhlw.go.jp/21/index.php?action_kouhyou_detail_004_kani=true&JigyosyoCd=2150180160-00&ServiceCd=520&Type=search", "url2": "http://kaigo.touhoukai.or.jp" }, "geometry": { "type": "Point", "coordinates": [ 136.751981414741522, 35.441996085342005 ] } },
{ "type": "Feature", "properties": { "内容": "山内ホスピタル介護老人保健施設【介護老人保健施設】岐阜県岐阜市薮田南４丁目１５番１６号", "url": "https://www.kaigokensaku.mhlw.go.jp/21/index.php?action_kouhyou_detail_004_kani=true&JigyosyoCd=2150180186-00&ServiceCd=520&Type=search", "url2": "http://www.kanamekai.com/care/wp" }, "geometry": { "type": "Point", "coordinates": [ 136.717928749073707, 35.389888348423788 ] } },
{ "type": "Feature", "properties": { "内容": "介護老人保健施設ロアジかねまつ【介護老人保健施設】岐阜県岐阜市柳津町下佐波西一丁目4番地", "url": "https://www.kaigokensaku.mhlw.go.jp/21/index.php?action_kouhyou_detail_004_kani=true&JigyosyoCd=2150680029-00&ServiceCd=520&Type=search", "url2": "http://www.roaji.or.jp" }, "geometry": { "type": "Point", "coordinates": [ 136.716108800000029, 35.3648635 ] } },
{ "type": "Feature", "properties": { "内容": "介護老人保健施設ケアコートみやこ【介護老人保健施設】岐阜県岐阜市都通３丁目１７－１", "url": "https://www.kaigokensaku.mhlw.go.jp/21/index.php?action_kouhyou_detail_004_kani=true&JigyosyoCd=2150180137-00&ServiceCd=520&Type=search", "url2": "http://www.tomoikikai.net" }, "geometry": { "type": "Point", "coordinates": [ 136.74671950000004, 35.4175045 ] } },
{ "type": "Feature", "properties": { "内容": "老人保健施設　西濃【介護老人保健施設】岐阜県大垣市藤江町６丁目３番地の１", "url": "https://www.kaigokensaku.mhlw.go.jp/21/index.php?action_kouhyou_detail_004_kani=true&JigyosyoCd=2152180010-00&ServiceCd=520&Type=search", "url2": "http://www.bijyoukai.dr-clinic.jp/rouken/" }, "geometry": { "type": "Point", "coordinates": [ 136.6239402, 35.3631064 ] } },
{ "type": "Feature", "properties": { "内容": "介護老人保健施設　サットヴァの園【介護老人保健施設】岐阜県大垣市多芸島１丁目127-1", "url": "https://www.kaigokensaku.mhlw.go.jp/21/index.php?action_kouhyou_detail_004_kani=true&JigyosyoCd=2152180036-00&ServiceCd=520&Type=search", "url2": "http://sattova.info/" }, "geometry": { "type": "Point", "coordinates": [ 136.596173, 35.3314365 ] } },
{ "type": "Feature", "properties": { "内容": "老人保健施設セイ・ウインド大垣【介護老人保健施設】岐阜県大垣市宿地町１００８－４", "url": "https://www.kaigokensaku.mhlw.go.jp/21/index.php?action_kouhyou_detail_004_kani=true&JigyosyoCd=2152180044-00&ServiceCd=520&Type=search", "url2": null }, "geometry": { "type": "Point", "coordinates": [ 136.607984, 35.3768292 ] } },
{ "type": "Feature", "properties": { "内容": "医療法人　大樹【介護老人保健施設】岐阜県大垣市築捨町1-14-1", "url": "https://www.kaigokensaku.mhlw.go.jp/21/index.php?action_kouhyou_detail_004_kani=true&JigyosyoCd=2152180051-00&ServiceCd=520&Type=search", "url2": "http://www.daiju.or.jp" }, "geometry": { "type": "Point", "coordinates": [ 136.625135199999932, 35.3419867 ] } },
{ "type": "Feature", "properties": { "内容": "介護老人保健施設それいゆ【介護老人保健施設】岐阜県高山市桐生町4丁目268番地", "url": "https://www.kaigokensaku.mhlw.go.jp/21/index.php?action_kouhyou_detail_004_kani=true&JigyosyoCd=2152780025-00&ServiceCd=520&Type=search", "url2": "http://www.ori-doujinkai.or.jp/soreiyu/" }, "geometry": { "type": "Point", "coordinates": [ 137.248486800000023, 36.1550058 ] } },
{ "type": "Feature", "properties": { "内容": "高山赤十字介護老人保健施設はなさと【介護老人保健施設】岐阜県高山市花里町２丁目67番地", "url": "https://www.kaigokensaku.mhlw.go.jp/21/index.php?action_kouhyou_detail_004_kani=true&JigyosyoCd=2152780033-00&ServiceCd=520&Type=search", "url2": "http://www.takayama.jrc.or.jp/patient/kaigo/hanasato/index.html" }, "geometry": { "type": "Point", "coordinates": [ 137.252339799999959, 36.1365081 ] } },
{ "type": "Feature", "properties": { "内容": "奥飛騨温泉老人保健施設　穂高の庭【介護老人保健施設】岐阜県高山市奥飛騨温泉郷一重ヶ根205", "url": "https://www.kaigokensaku.mhlw.go.jp/21/index.php?action_kouhyou_detail_004_kani=true&JigyosyoCd=2152780041-00&ServiceCd=520&Type=search", "url2": "http://tyojyu.jp/hotaka/" }, "geometry": { "type": "Point", "coordinates": [ 137.531408899999974, 36.2289793 ] } },
{ "type": "Feature", "properties": { "内容": "介護老人保健施設アルカディア【介護老人保健施設】岐阜県高山市国府町村山249番地1", "url": "https://www.kaigokensaku.mhlw.go.jp/21/index.php?action_kouhyou_detail_004_kani=true&JigyosyoCd=2153080011-00&ServiceCd=520&Type=search", "url2": "http://www.suda-hos.com/arcadia/" }, "geometry": { "type": "Point", "coordinates": [ 137.25063339999997, 36.1973145 ] } },
{ "type": "Feature", "properties": { "内容": "介護老人保健施設　香蘭荘【介護老人保健施設】岐阜県高山市国府町三川１２０２－５", "url": "https://www.kaigokensaku.mhlw.go.jp/21/index.php?action_kouhyou_detail_004_kani=true&JigyosyoCd=2153080029-00&ServiceCd=520&Type=search", "url2": "http://www.kouranso.com" }, "geometry": { "type": "Point", "coordinates": [ 137.260335299999952, 36.1922821 ] } },
{ "type": "Feature", "properties": { "内容": "介護老人保健施設　メモリアル光陽【介護老人保健施設】岐阜県多治見市大畑町大洞３９番地の１", "url": "https://www.kaigokensaku.mhlw.go.jp/21/index.php?action_kouhyou_detail_004_kani=true&JigyosyoCd=2151180011-00&ServiceCd=520&Type=search", "url2": "https://www.memokou.or.jp" }, "geometry": { "type": "Point", "coordinates": [ 137.124197200000026, 35.3146459 ] } },
{ "type": "Feature", "properties": { "内容": "医療法人仁寿会介護老人保健施設アルマ・マータ【介護老人保健施設】岐阜県多治見市小名田町西ヶ洞７１－１", "url": "https://www.kaigokensaku.mhlw.go.jp/21/index.php?action_kouhyou_detail_004_kani=true&JigyosyoCd=2151180029-00&ServiceCd=520&Type=search", "url2": "http://www.i-jinjukai.or.jp" }, "geometry": { "type": "Point", "coordinates": [ 137.12101830000006, 35.3636155 ] } },
{ "type": "Feature", "properties": { "内容": "介護老人保健施設なでしこ【介護老人保健施設】岐阜県多治見市旭ヶ丘7-12-1", "url": "https://www.kaigokensaku.mhlw.go.jp/21/index.php?action_kouhyou_detail_004_kani=true&JigyosyoCd=2151180037-00&ServiceCd=520&Type=search", "url2": "http://www.chishinkai-group.jp/" }, "geometry": { "type": "Point", "coordinates": [ 137.099151650702879, 35.366315784080207 ] } },
{ "type": "Feature", "properties": { "内容": "介護老人保健施設リバーサイド悠悠【介護老人保健施設】岐阜県関市倉知１７１２", "url": "https://www.kaigokensaku.mhlw.go.jp/21/index.php?action_kouhyou_detail_004_kani=true&JigyosyoCd=2150280036-00&ServiceCd=520&Type=search", "url2": "http;//riverside-uu.jp/" }, "geometry": { "type": "Point", "coordinates": [ 136.8803345, 35.4810051 ] } },
{ "type": "Feature", "properties": { "内容": "介護老人保健施設　花咲き庵【介護老人保健施設】岐阜県岐阜市関市稲口776-1介護老人保健施設　花咲き庵", "url": "https://www.kaigokensaku.mhlw.go.jp/21/index.php?action_kouhyou_detail_004_kani=true&JigyosyoCd=2150280044-00&ServiceCd=520&Type=search", "url2": "http://www.meihoukai.jp/" }, "geometry": { "type": "Point", "coordinates": [ 136.925837244844075, 35.470267351111886 ] } },
{ "type": "Feature", "properties": { "内容": "介護老人保健施設　福寿の里【介護老人保健施設】岐阜県関市下有知４７０６番地", "url": "https://www.kaigokensaku.mhlw.go.jp/21/index.php?action_kouhyou_detail_004_kani=true&JigyosyoCd=2150280051-00&ServiceCd=520&Type=search", "url2": "http://www.chitokukai.or.jp" }, "geometry": { "type": "Point", "coordinates": [ 136.911763922615052, 35.499120347708249 ] } },
{ "type": "Feature", "properties": { "内容": "介護老人保健施設　東山ハイツ【介護老人保健施設】岐阜県関市東山4丁目48番地", "url": "https://www.kaigokensaku.mhlw.go.jp/21/index.php?action_kouhyou_detail_004_kani=true&JigyosyoCd=2150280069-00&ServiceCd=520&Type=search", "url2": "https://www.higashiyama-h.com/" }, "geometry": { "type": "Point", "coordinates": [ 136.946834944319107, 35.491479463505925 ] } },
{ "type": "Feature", "properties": { "内容": "老人保健施設城山【介護老人保健施設】岐阜県中津川市苗木３７４７－１", "url": "https://www.kaigokensaku.mhlw.go.jp/21/index.php?action_kouhyou_detail_004_kani=true&JigyosyoCd=2151580012-00&ServiceCd=520&Type=search", "url2": "http://www.n-shiroyama.info/rouken/index.html" }, "geometry": { "type": "Point", "coordinates": [ 137.477096500000016, 35.5137515 ] } },
{ "type": "Feature", "properties": { "内容": "介護老人保健施設　中津川ナーシングピア【介護老人保健施設】岐阜県中津川市茄子川字中垣外１６８３－１２４７", "url": "https://www.kaigokensaku.mhlw.go.jp/21/index.php?action_kouhyou_detail_004_kani=true&JigyosyoCd=2151580020-00&ServiceCd=520&Type=search", "url2": "http://www.nursingpia.com/" }, "geometry": { "type": "Point", "coordinates": [ 137.476571748609899, 35.463848460767039 ] } },
{ "type": "Feature", "properties": { "内容": "坂下老人保健施設【介護老人保健施設】岐阜県中津川市坂下７２２番地１", "url": "https://www.kaigokensaku.mhlw.go.jp/21/index.php?action_kouhyou_detail_004_kani=true&JigyosyoCd=2151580038-00&ServiceCd=520&Type=search", "url2": "http://sakashita-shinryo.jp/roken/" }, "geometry": { "type": "Point", "coordinates": [ 137.532314608184038, 35.574939540110663 ] } },
{ "type": "Feature", "properties": { "内容": "介護老人保健施設ひざし【介護老人保健施設】岐阜県瑞浪市稲津町萩原１番地", "url": "https://www.kaigokensaku.mhlw.go.jp/21/index.php?action_kouhyou_detail_004_kani=true&JigyosyoCd=2151680010-00&ServiceCd=520&Type=search", "url2": "http://www.hizashi.jp" }, "geometry": { "type": "Point", "coordinates": [ 137.274412, 35.3539559 ] } },
{ "type": "Feature", "properties": { "内容": "介護老人保健施設　夕霧【介護老人保健施設】岐阜県羽島市竹鼻町梅ヶ枝町370番地の1", "url": "https://www.kaigokensaku.mhlw.go.jp/21/index.php?action_kouhyou_detail_004_kani=true&JigyosyoCd=2150480016-00&ServiceCd=520&Type=search", "url2": "http://www.nagaragawa.or.jp/" }, "geometry": { "type": "Point", "coordinates": [ 136.696760280642707, 35.321943375862091 ] } },
{ "type": "Feature", "properties": { "内容": "介護老人保健施設こころ【介護老人保健施設】岐阜県恵那市大井町1064-1", "url": "https://www.kaigokensaku.mhlw.go.jp/21/index.php?action_kouhyou_detail_004_kani=true&JigyosyoCd=2151780018-00&ServiceCd=520&Type=search", "url2": "http://www.keiyu-kai.com/" }, "geometry": { "type": "Point", "coordinates": [ 137.422432399999934, 35.4524446 ] } },
{ "type": "Feature", "properties": { "内容": "恵那市介護老人保健施設ひまわり【介護老人保健施設】岐阜県恵那市明智町1090番地", "url": "https://www.kaigokensaku.mhlw.go.jp/21/index.php?action_kouhyou_detail_004_kani=true&JigyosyoCd=2151780026-00&ServiceCd=520&Type=search", "url2": "https://himawari-ena.jp/" }, "geometry": { "type": "Point", "coordinates": [ 137.395395530163569, 35.295867415687844 ] } },
{ "type": "Feature", "properties": { "内容": "介護老人保健施設こころ【介護老人保健施設】岐阜県恵那市大井町1064-1", "url": "https://www.kaigokensaku.mhlw.go.jp/21/index.php?action_kouhyou_detail_004_kani=true&JigyosyoCd=2151780034-00&ServiceCd=520&Type=search", "url2": "http://www.keiyu-kai.com" }, "geometry": { "type": "Point", "coordinates": [ 137.422432399999934, 35.4524446 ] } },
{ "type": "Feature", "properties": { "内容": "介護老人保健施設　さわやかリバーサイドビラ【介護老人保健施設】岐阜県美濃加茂市下米田町東栃井81-3", "url": "https://www.kaigokensaku.mhlw.go.jp/21/index.php?action_kouhyou_detail_004_kani=true&JigyosyoCd=2151280019-00&ServiceCd=520&Type=search", "url2": "http://www.jikeikai-sawayaka.jp" }, "geometry": { "type": "Point", "coordinates": [ 137.065739300000018, 35.477438 ] } },
{ "type": "Feature", "properties": { "内容": "老人保健施設サントピアみのかも【介護老人保健施設】岐阜県美濃加茂市蜂屋町上蜂屋3555", "url": "https://www.kaigokensaku.mhlw.go.jp/21/index.php?action_kouhyou_detail_004_kani=true&JigyosyoCd=2151280027-00&ServiceCd=520&Type=search", "url2": "http://suntopia-minokamo.jp" }, "geometry": { "type": "Point", "coordinates": [ 137.012896749598639, 35.454192077491484 ] } },
{ "type": "Feature", "properties": { "内容": "介護老人保健施設中部台ケアセンター【介護老人保健施設】岐阜県美濃加茂市中部台6丁目13番地5", "url": "https://www.kaigokensaku.mhlw.go.jp/21/index.php?action_kouhyou_detail_004_kani=true&JigyosyoCd=2151280035-00&ServiceCd=520&Type=search", "url2": "https://rokusan.ohta-hospital.jp/" }, "geometry": { "type": "Point", "coordinates": [ 137.017410899999959, 35.4659572 ] } },
{ "type": "Feature", "properties": { "内容": "介護老人保健施設カサグランテ【介護老人保健施設】岐阜県土岐市駄知町1556-2", "url": "https://www.kaigokensaku.mhlw.go.jp/21/index.php?action_kouhyou_detail_004_kani=true&JigyosyoCd=2151880024-00&ServiceCd=520&Type=search", "url2": "https://www.chishinkai-group.jp/facilities/casa" }, "geometry": { "type": "Point", "coordinates": [ 137.232131, 35.3259327 ] } },
{ "type": "Feature", "properties": { "内容": "老人保健施設サンバレーかかみ野【介護老人保健施設】岐阜県各務原市須衛町3丁目136番地", "url": "https://www.kaigokensaku.mhlw.go.jp/21/index.php?action_kouhyou_detail_004_kani=true&JigyosyoCd=2150580013-00&ServiceCd=520&Type=search", "url2": "http://www.phoenix-g.jp" }, "geometry": { "type": "Point", "coordinates": [ 136.885287299999959, 35.4397373 ] } },
{ "type": "Feature", "properties": { "内容": "老人保健施設　コートレイ各務原【介護老人保健施設】岐阜県各務原市蘇原青雲町4-1-70", "url": "https://www.kaigokensaku.mhlw.go.jp/21/index.php?action_kouhyou_detail_004_kani=true&JigyosyoCd=2150580021-00&ServiceCd=520&Type=search", "url2": null }, "geometry": { "type": "Point", "coordinates": [ 136.859662599999979, 35.4103567 ] } },
{ "type": "Feature", "properties": { "内容": "老人保健施設リハトピア・フェニックス【介護老人保健施設】岐阜県各務原市鵜沼各務原町6丁目50番地メディカルセンター・フェニックス", "url": "https://www.kaigokensaku.mhlw.go.jp/21/index.php?action_kouhyou_detail_004_kani=true&JigyosyoCd=2150580054-00&ServiceCd=520&Type=search", "url2": "http://phoenix-g.jp" }, "geometry": { "type": "Point", "coordinates": [ 136.909409152392527, 35.399543110088395 ] } },
{ "type": "Feature", "properties": { "内容": "老人保健施設ハートピア・フェニックス【介護老人保健施設】岐阜県各務原市鵜沼各務原町6丁目50番地", "url": "https://www.kaigokensaku.mhlw.go.jp/21/index.php?action_kouhyou_detail_004_kani=true&JigyosyoCd=2150580062-00&ServiceCd=520&Type=search", "url2": "http://www.phoenix-g.jp" }, "geometry": { "type": "Point", "coordinates": [ 136.909439735272827, 35.399498947726805 ] } },
{ "type": "Feature", "properties": { "内容": "可児とうのう病院附属介護老人保健施設【介護老人保健施設】岐阜県可児市土田900番地", "url": "https://www.kaigokensaku.mhlw.go.jp/21/index.php?action_kouhyou_detail_004_kani=true&JigyosyoCd=2153180019-00&ServiceCd=520&Type=search", "url2": "http://kani.jcho.go.jp/rouken/" }, "geometry": { "type": "Point", "coordinates": [ 137.015812200000028, 35.4168671 ] } },
{ "type": "Feature", "properties": { "内容": "老人保健施設花トピア可児【介護老人保健施設】岐阜県可児市瀬田1646番地3", "url": "https://www.kaigokensaku.mhlw.go.jp/21/index.php?action_kouhyou_detail_004_kani=true&JigyosyoCd=2153180027-00&ServiceCd=520&Type=search", "url2": "http://www.fujikake-hospital.jp/" }, "geometry": { "type": "Point", "coordinates": [ 137.104218400000036, 35.4197178 ] } },
{ "type": "Feature", "properties": { "内容": "介護老人保健施設山県グリーンポート【介護老人保健施設】岐阜県山県市大門773番地", "url": "https://www.kaigokensaku.mhlw.go.jp/21/index.php?action_kouhyou_detail_004_kani=true&JigyosyoCd=2150880017-00&ServiceCd=520&Type=search", "url2": "https://yuuaikai-gifu.or.jp" }, "geometry": { "type": "Point", "coordinates": [ 136.725440299999946, 35.5399602 ] } },
{ "type": "Feature", "properties": { "内容": "巣南リハビリセンター【介護老人保健施設】岐阜県瑞穂市重里1996", "url": "https://www.kaigokensaku.mhlw.go.jp/21/index.php?action_kouhyou_detail_004_kani=true&JigyosyoCd=2150780019-00&ServiceCd=520&Type=search", "url2": "https://seikohkai.net/" }, "geometry": { "type": "Point", "coordinates": [ 136.65999469999997, 35.4157313 ] } },
{ "type": "Feature", "properties": { "内容": "介護老人保健施設　仙寿苑【介護老人保健施設】岐阜県本巣市仏生寺111-1", "url": "https://www.kaigokensaku.mhlw.go.jp/21/index.php?action_kouhyou_detail_004_kani=true&JigyosyoCd=2153480013-00&ServiceCd=520&Type=search", "url2": "http://senjuen.wixsite.com/senjuen" }, "geometry": { "type": "Point", "coordinates": [ 136.692204667627692, 35.447226052422216 ] } },
{ "type": "Feature", "properties": { "内容": "介護老人保健施設ヴィラふくべ【介護老人保健施設】岐阜県郡上市美並町大原７７番地", "url": "https://www.kaigokensaku.mhlw.go.jp/21/index.php?action_kouhyou_detail_004_kani=true&JigyosyoCd=2151080021-00&ServiceCd=520&Type=search", "url2": "http://www.jikeichuo.com" }, "geometry": { "type": "Point", "coordinates": [ 136.954678400000034, 35.6440372 ] } },
{ "type": "Feature", "properties": { "内容": "介護老人保健施設ケアポート白鳳【介護老人保健施設】岐阜県郡上市白鳥町白鳥2-6", "url": "https://www.kaigokensaku.mhlw.go.jp/21/index.php?action_kouhyou_detail_004_kani=true&JigyosyoCd=2151080039-00&ServiceCd=520&Type=search", "url2": "http://sumihosp.or.jp/" }, "geometry": { "type": "Point", "coordinates": [ 136.8575194, 35.8788691 ] } },
{ "type": "Feature", "properties": { "内容": "県北西部地域医療センター和良介護老人保健施設【介護老人保健施設】岐阜県郡上市和良町沢864番地1", "url": "https://www.kaigokensaku.mhlw.go.jp/21/index.php?action_kouhyou_detail_004_kani=true&JigyosyoCd=2151080047-00&ServiceCd=520&Type=search", "url2": "http://www.gujo-tv.ne.jp/~clinic-wara/" }, "geometry": { "type": "Point", "coordinates": [ 137.083446200000026, 35.7472024 ] } },
{ "type": "Feature", "properties": { "内容": "介護老人保健施設　共寿【介護老人保健施設】岐阜県下呂市萩原町古関８７３－１", "url": "https://www.kaigokensaku.mhlw.go.jp/21/index.php?action_kouhyou_detail_004_kani=true&JigyosyoCd=2152880015-00&ServiceCd=520&Type=search", "url2": "http://kyojukai.jp/" }, "geometry": { "type": "Point", "coordinates": [ 137.201808300000039, 35.8701276 ] } },
{ "type": "Feature", "properties": { "内容": "下呂市立小坂老人保健施設【介護老人保健施設】岐阜県下呂市小坂町大島１９６３番地", "url": "https://www.kaigokensaku.mhlw.go.jp/21/index.php?action_kouhyou_detail_004_kani=true&JigyosyoCd=2152880031-00&ServiceCd=520&Type=search", "url2": "https://www.city.gero.lg.jp/soshiki/43/" }, "geometry": { "type": "Point", "coordinates": [ 137.258966800000053, 35.9515935 ] } },
{ "type": "Feature", "properties": { "内容": "介護老人保健施設はつらつ海津【介護老人保健施設】岐阜県海津市海津町福江656番地２", "url": "https://www.kaigokensaku.mhlw.go.jp/21/index.php?action_kouhyou_detail_004_kani=true&JigyosyoCd=2152280034-00&ServiceCd=520&Type=search", "url2": "https://www.houjyukai.jp/" }, "geometry": { "type": "Point", "coordinates": [ 136.660312299999987, 35.1729095 ] } },
{ "type": "Feature", "properties": { "内容": "松波総合病院　介護老人保健施設【介護老人保健施設】岐阜県羽島郡笠松町田代１８５番地１松波総合病院　南館", "url": "https://www.kaigokensaku.mhlw.go.jp/21/index.php?action_kouhyou_detail_004_kani=true&JigyosyoCd=2150680003-00&ServiceCd=520&Type=search", "url2": "http://www.matsunami-hsp.or.jp/rouken_zaitaku/" }, "geometry": { "type": "Point", "coordinates": [ 136.757788450926228, 35.363227959105963 ] } },
{ "type": "Feature", "properties": { "内容": "老人保健施設養老の郷【介護老人保健施設】岐阜県養老郡養老町押越７００－１", "url": "https://www.kaigokensaku.mhlw.go.jp/21/index.php?action_kouhyou_detail_004_kani=true&JigyosyoCd=2152380016-00&ServiceCd=520&Type=search", "url2": "https://yoshidakai-hp.com/yoshidakai/" }, "geometry": { "type": "Point", "coordinates": [ 136.5567833, 35.3070269 ] } },
{ "type": "Feature", "properties": { "内容": "介護老人保健施設あいかわ【介護老人保健施設】岐阜県不破郡垂井町府中1933番地の1", "url": "https://www.kaigokensaku.mhlw.go.jp/21/index.php?action_kouhyou_detail_004_kani=true&JigyosyoCd=2152480014-00&ServiceCd=520&Type=search", "url2": "http://www.hakuaikai.jp" }, "geometry": { "type": "Point", "coordinates": [ 136.523782399999959, 35.3752279 ] } },
{ "type": "Feature", "properties": { "内容": "介護老人保健施設おうじゅ【介護老人保健施設】岐阜県不破郡垂井町府中1928番地の3", "url": "https://www.kaigokensaku.mhlw.go.jp/21/index.php?action_kouhyou_detail_004_kani=true&JigyosyoCd=2152480022-00&ServiceCd=520&Type=search", "url2": "http://www.hakuaikai.jp" }, "geometry": { "type": "Point", "coordinates": [ 136.524852945368963, 35.375029358018843 ] } },
{ "type": "Feature", "properties": { "内容": "介護老人保健施設　輪之内ビラ【介護老人保健施設】岐阜県安八郡輪之内町四郷1330", "url": "https://www.kaigokensaku.mhlw.go.jp/21/index.php?action_kouhyou_detail_004_kani=true&JigyosyoCd=2152580011-00&ServiceCd=520&Type=search", "url2": "http://www.wanouchivilla810.jp" }, "geometry": { "type": "Point", "coordinates": [ 136.639596100000063, 35.2877629 ] } },
{ "type": "Feature", "properties": { "内容": "老人保健施設山びこの郷【介護老人保健施設】岐阜県揖斐郡揖斐川町東津汲877-1", "url": "https://www.kaigokensaku.mhlw.go.jp/21/index.php?action_kouhyou_detail_004_kani=true&JigyosyoCd=2152680043-00&ServiceCd=520&Type=search", "url2": "http://ibigawa-jadecom.jp" }, "geometry": { "type": "Point", "coordinates": [ 136.507341799999949, 35.5570822 ] } },
{ "type": "Feature", "properties": { "内容": "介護老人保健施設　プラザ２１おおの【介護老人保健施設】岐阜県揖斐郡大野町南方二度桜191番地", "url": "https://www.kaigokensaku.mhlw.go.jp/21/index.php?action_kouhyou_detail_004_kani=true&JigyosyoCd=2152680027-00&ServiceCd=520&Type=search", "url2": "https://www.plaza21oono.jp" }, "geometry": { "type": "Point", "coordinates": [ 136.620872126983613, 35.452860104885069 ] } },
{ "type": "Feature", "properties": { "内容": "介護老人保健施設　ラポール【介護老人保健施設】岐阜県揖斐郡大野町大字大野９２４番地１", "url": "https://www.kaigokensaku.mhlw.go.jp/21/index.php?action_kouhyou_detail_004_kani=true&JigyosyoCd=2152680068-00&ServiceCd=520&Type=search", "url2": "http://www.rapport1051.jp" }, "geometry": { "type": "Point", "coordinates": [ 136.635433700000021, 35.4782465 ] } },
{ "type": "Feature", "properties": { "内容": "介護老人保健施設西美濃さくら苑【介護老人保健施設】岐阜県揖斐郡池田町田中５－１", "url": "https://www.kaigokensaku.mhlw.go.jp/21/index.php?action_kouhyou_detail_004_kani=true&JigyosyoCd=2152680076-00&ServiceCd=520&Type=search", "url2": "https://n-sakuraen.jp" }, "geometry": { "type": "Point", "coordinates": [ 136.559901500000024, 35.4612426 ] } },
{ "type": "Feature", "properties": { "内容": "介護老人保健施設センチュリー２１【介護老人保健施設】岐阜県加茂郡富加町夕田３８０番地", "url": "https://www.kaigokensaku.mhlw.go.jp/21/index.php?action_kouhyou_detail_004_kani=true&JigyosyoCd=2151380017-00&ServiceCd=520&Type=search", "url2": "https://meiseikai-century21.com/" }, "geometry": { "type": "Point", "coordinates": [ 136.989525599999979, 35.4848503 ] } },
{ "type": "Feature", "properties": { "内容": "介護老人保健施設　穂【介護老人保健施設】岐阜県加茂郡七宗町神渕10287番", "url": "https://www.kaigokensaku.mhlw.go.jp/21/index.php?action_kouhyou_detail_004_kani=true&JigyosyoCd=2151380058-00&ServiceCd=520&Type=search", "url2": "http://www.breakthrough-to-the-future.com/" }, "geometry": { "type": "Point", "coordinates": [ 137.085868909755362, 35.589590721927401 ] } },
{ "type": "Feature", "properties": { "内容": "介護老人保健施設　だいち【介護老人保健施設】岐阜県加茂郡八百津町錦織１５３０－３９", "url": "https://www.kaigokensaku.mhlw.go.jp/21/index.php?action_kouhyou_detail_004_kani=true&JigyosyoCd=2151380025-00&ServiceCd=520&Type=search", "url2": "http://www.isaji－daichikai.com/original10.html" }, "geometry": { "type": "Point", "coordinates": [ 137.1519872, 35.4735552 ] } },
{ "type": "Feature", "properties": { "内容": "東白川村国保診療所附属介護老人保健施設【介護老人保健施設】岐阜県加茂郡東白川村五加３２１０", "url": "https://www.kaigokensaku.mhlw.go.jp/21/index.php?action_kouhyou_detail_004_kani=true&JigyosyoCd=2151380033-00&ServiceCd=520&Type=search", "url2": "https://www.vill.higashishirakawa.gifu.jp/" }, "geometry": { "type": "Point", "coordinates": [ 137.287791950075274, 35.621139067977964 ] } }
]
}
