{
"type": "FeatureCollection",
"name": "geo_21_訪問リハビリテーション",
"crs": { "type": "name", "properties": { "name": "urn:ogc:def:crs:OGC:1.3:CRS84" } },
"features": [
{ "type": "Feature", "properties": { "内容": "医療法人社団双樹会　早徳病院【訪問リハビリテーション】宇佐南1-8-1", "url": "https://www.kaigokensaku.mhlw.go.jp/21/index.php?action_kouhyou_detail_004_kani=true&JigyosyoCd=2110104169-00&ServiceCd=140&Type=search", "url2": "https://www.hayatoku.jp/" }, "geometry": { "type": "Point", "coordinates": [ 136.7349332, 35.3967385 ] } },
{ "type": "Feature", "properties": { "内容": "近石病院　訪問リハビリテーション【訪問リハビリテーション】岐阜県岐阜市光町2丁目46番地", "url": "https://www.kaigokensaku.mhlw.go.jp/21/index.php?action_kouhyou_detail_004_kani=true&JigyosyoCd=2110103971-00&ServiceCd=140&Type=search", "url2": "http://touhoukai.or.jp/" }, "geometry": { "type": "Point", "coordinates": [ 136.748107548548887, 35.43512526061452 ] } },
{ "type": "Feature", "properties": { "内容": "平野総合病院【訪問リハビリテーション】岐阜県岐阜市黒野176番地5", "url": "https://www.kaigokensaku.mhlw.go.jp/21/index.php?action_kouhyou_detail_004_kani=true&JigyosyoCd=2110105174-00&ServiceCd=140&Type=search", "url2": "http://www.hiranogh.com/" }, "geometry": { "type": "Point", "coordinates": [ 136.727031799999963, 35.4584926 ] } },
{ "type": "Feature", "properties": { "内容": "山内ホスピタル　訪問ステーション【訪問リハビリテーション】岐阜県岐阜市市橋３丁目７番２２号", "url": "https://www.kaigokensaku.mhlw.go.jp/21/index.php?action_kouhyou_detail_004_kani=true&JigyosyoCd=2110106271-00&ServiceCd=140&Type=search", "url2": "https://www.kanamekai.com/" }, "geometry": { "type": "Point", "coordinates": [ 136.725412500000033, 35.399185899999978 ] } },
{ "type": "Feature", "properties": { "内容": "はしもと内科【訪問リハビリテーション】岐阜県岐阜市岩地1丁目2番8号", "url": "https://www.kaigokensaku.mhlw.go.jp/21/index.php?action_kouhyou_detail_004_kani=true&JigyosyoCd=2110106586-00&ServiceCd=140&Type=search", "url2": "https://gifu-hashimotonaika.com" }, "geometry": { "type": "Point", "coordinates": [ 136.807279900000026, 35.4106032 ] } },
{ "type": "Feature", "properties": { "内容": "操外科病院【訪問リハビリテーション】岐阜県岐阜市四屋町43番地", "url": "https://www.kaigokensaku.mhlw.go.jp/21/index.php?action_kouhyou_detail_004_kani=true&JigyosyoCd=2110107063-00&ServiceCd=140&Type=search", "url2": "https://www.misaogeka-hp.com/" }, "geometry": { "type": "Point", "coordinates": [ 136.760695100000021, 35.4300975 ] } },
{ "type": "Feature", "properties": { "内容": "小牧内科クリニック　訪問リハビリテーション【訪問リハビリテーション】岐阜県岐阜市昭和町2-11", "url": "https://www.kaigokensaku.mhlw.go.jp/21/index.php?action_kouhyou_detail_004_kani=true&JigyosyoCd=2110109200-00&ServiceCd=140&Type=search", "url2": "http://www.tomoikikai.net" }, "geometry": { "type": "Point", "coordinates": [ 136.750524166882087, 35.415287585928525 ] } },
{ "type": "Feature", "properties": { "内容": "みながわ内科・循環器科クリニック　訪問リハビリテーション【訪問リハビリテーション】岐阜県岐阜市折立895番地1", "url": "https://www.kaigokensaku.mhlw.go.jp/21/index.php?action_kouhyou_detail_004_kani=true&JigyosyoCd=2110110117-00&ServiceCd=140&Type=search", "url2": "http://www.minagawa-clinic.com/" }, "geometry": { "type": "Point", "coordinates": [ 136.7287427, 35.4573262 ] } },
{ "type": "Feature", "properties": { "内容": "松岡整形外科・内科リハビリテーション【訪問リハビリテーション】岐阜県岐阜市東金宝町2-12-6", "url": "https://www.kaigokensaku.mhlw.go.jp/21/index.php?action_kouhyou_detail_004_kani=true&JigyosyoCd=2110110133-00&ServiceCd=140&Type=search", "url2": "https://zuihokai-group.jp/" }, "geometry": { "type": "Point", "coordinates": [ 136.76223920000001, 35.4146708 ] } },
{ "type": "Feature", "properties": { "内容": "山田病院訪問リハビリテーション【訪問リハビリテーション】岐阜県岐阜市寺田7丁目110番地山田病院", "url": "https://www.kaigokensaku.mhlw.go.jp/21/index.php?action_kouhyou_detail_004_kani=true&JigyosyoCd=2110110927-00&ServiceCd=140&Type=search", "url2": null }, "geometry": { "type": "Point", "coordinates": [ 136.699998700000037, 35.4183426 ] } },
{ "type": "Feature", "properties": { "内容": "山田メディカルクリニック　訪問リハビリテーション【訪問リハビリテーション】岐阜県岐阜市東金宝町1丁目12番地", "url": "https://www.kaigokensaku.mhlw.go.jp/21/index.php?action_kouhyou_detail_004_kani=true&JigyosyoCd=2110110935-00&ServiceCd=140&Type=search", "url2": "https://www.yamada-medical.or.jp/" }, "geometry": { "type": "Point", "coordinates": [ 136.760381700000039, 35.4148383 ] } },
{ "type": "Feature", "properties": { "内容": "岩砂病院・岩砂マタニティ訪問リハビリテーション【訪問リハビリテーション】岐阜県岐阜市八代1丁目7番地1", "url": "https://www.kaigokensaku.mhlw.go.jp/21/index.php?action_kouhyou_detail_004_kani=true&JigyosyoCd=2110111602-00&ServiceCd=140&Type=search", "url2": "https://iwasa-gifu.or.jp/" }, "geometry": { "type": "Point", "coordinates": [ 136.774149200000011, 35.4582313 ] } },
{ "type": "Feature", "properties": { "内容": "ほそばたクリニック　訪問リハビリ【訪問リハビリテーション】岐阜県岐阜市細畑３－１５－１０", "url": "https://www.kaigokensaku.mhlw.go.jp/21/index.php?action_kouhyou_detail_004_kani=true&JigyosyoCd=2110112311-00&ServiceCd=140&Type=search", "url2": "https://www.hosobataclinic.com/" }, "geometry": { "type": "Point", "coordinates": [ 136.790273800000023, 35.4032536 ] } },
{ "type": "Feature", "properties": { "内容": "岐阜清流病院　訪問リハビリテーション【訪問リハビリテーション】岐阜県岐阜市川部3丁目25番地", "url": "https://www.kaigokensaku.mhlw.go.jp/21/index.php?action_kouhyou_detail_004_kani=true&JigyosyoCd=2110112410-00&ServiceCd=140&Type=search", "url2": "http://www.skhosp.or.jp/" }, "geometry": { "type": "Point", "coordinates": [ 136.7075562, 35.4354396 ] } },
{ "type": "Feature", "properties": { "内容": "千手堂病院訪問リハビリテーション【訪問リハビリテーション】岐阜市菅原町2丁目21番", "url": "https://www.kaigokensaku.mhlw.go.jp/21/index.php?action_kouhyou_detail_004_kani=true&JigyosyoCd=2110113053-00&ServiceCd=140&Type=search", "url2": "https://www.senjyudo.com/" }, "geometry": { "type": "Point", "coordinates": [ 136.754735969975258, 35.422070156609365 ] } },
{ "type": "Feature", "properties": { "内容": "みどり病院訪問リハビリ【訪問リハビリテーション】岐阜県岐阜市北山1丁目13番11号", "url": "https://www.kaigokensaku.mhlw.go.jp/21/index.php?action_kouhyou_detail_004_kani=true&JigyosyoCd=2110113269-00&ServiceCd=140&Type=search", "url2": "https://gifu-min.jp/midori/page_621.html" }, "geometry": { "type": "Point", "coordinates": [ 136.853378099999986, 35.4581813 ] } },
{ "type": "Feature", "properties": { "内容": "介護老人老人保健施設グリーンビラ安江【訪問リハビリテーション】岐阜県岐阜市鏡島南１丁目２番38号", "url": "https://www.kaigokensaku.mhlw.go.jp/21/index.php?action_kouhyou_detail_004_kani=true&JigyosyoCd=2150180095-00&ServiceCd=140&Type=search", "url2": "http://www.koukikai.gr.jp" }, "geometry": { "type": "Point", "coordinates": [ 136.7173464, 35.4084915 ] } },
{ "type": "Feature", "properties": { "内容": "寺田ガーデン訪問リハビリステーション【訪問リハビリテーション】岐阜県岐阜市寺田7丁目77", "url": "https://www.kaigokensaku.mhlw.go.jp/21/index.php?action_kouhyou_detail_004_kani=true&JigyosyoCd=2170112383-00&ServiceCd=140&Type=search", "url2": "http://www.wakokai.or.jp" }, "geometry": { "type": "Point", "coordinates": [ 136.700068099999982, 35.419231400000015 ] } },
{ "type": "Feature", "properties": { "内容": "訪問リハビリテーション　なごみ野【訪問リハビリテーション】岐阜県岐阜市則武東4丁目2番6号", "url": "https://www.kaigokensaku.mhlw.go.jp/21/index.php?action_kouhyou_detail_004_kani=true&JigyosyoCd=2150180160-00&ServiceCd=140&Type=search", "url2": "https://kaigo.touhoukai.or.jp/" }, "geometry": { "type": "Point", "coordinates": [ 136.7519503, 35.4419641 ] } },
{ "type": "Feature", "properties": { "内容": "介護老人保健施設カワムラコート【訪問リハビリテーション】岐阜県岐阜市芥見大般若1丁目105番地", "url": "https://www.kaigokensaku.mhlw.go.jp/21/index.php?action_kouhyou_detail_004_kani=true&JigyosyoCd=2150180046-00&ServiceCd=140&Type=search", "url2": "http://www.kawamuramedical.or.jp/" }, "geometry": { "type": "Point", "coordinates": [ 136.844357468289331, 35.438427570345155 ] } },
{ "type": "Feature", "properties": { "内容": "まぶち訪問リハビリステーション【訪問リハビリテーション】岐阜県大垣市美和町1831番地", "url": "https://www.kaigokensaku.mhlw.go.jp/21/index.php?action_kouhyou_detail_004_kani=true&JigyosyoCd=2112102138-00&ServiceCd=140&Type=search", "url2": null }, "geometry": { "type": "Point", "coordinates": [ 136.6176504, 35.3504417 ] } },
{ "type": "Feature", "properties": { "内容": "大垣中央病院【訪問リハビリテーション】岐阜県大垣市見取町４－２", "url": "https://www.kaigokensaku.mhlw.go.jp/21/index.php?action_kouhyou_detail_004_kani=true&JigyosyoCd=2112102161-00&ServiceCd=140&Type=search", "url2": "http://www.oogakichuou.com/" }, "geometry": { "type": "Point", "coordinates": [ 136.614966399999958, 35.3658975 ] } },
{ "type": "Feature", "properties": { "内容": "しずさと診療所　訪問リハビリテーション【訪問リハビリテーション】岐阜県大垣市久徳町153-1", "url": "https://www.kaigokensaku.mhlw.go.jp/21/index.php?action_kouhyou_detail_004_kani=true&JigyosyoCd=2112102989-00&ServiceCd=140&Type=search", "url2": "http://www.seinou.coop/shizusato/" }, "geometry": { "type": "Point", "coordinates": [ 136.591050600000017, 35.3643607 ] } },
{ "type": "Feature", "properties": { "内容": "城北整形外科クリニック【訪問リハビリテーション】岐阜県大垣市桐ヶ崎町８０番地", "url": "https://www.kaigokensaku.mhlw.go.jp/21/index.php?action_kouhyou_detail_004_kani=true&JigyosyoCd=2112103573-00&ServiceCd=140&Type=search", "url2": "https://www.oogaki-joholuseikeigeka-clinic.com" }, "geometry": { "type": "Point", "coordinates": [ 136.614897, 35.3643421 ] } },
{ "type": "Feature", "properties": { "内容": "大垣セントラルクリニック　訪問リハビリテーション【訪問リハビリテーション】岐阜県大垣市赤坂新田1丁目72番1センテナリアン2F", "url": "https://www.kaigokensaku.mhlw.go.jp/21/index.php?action_kouhyou_detail_004_kani=true&JigyosyoCd=2172102671-00&ServiceCd=140&Type=search", "url2": "http://www.og-centralcl.com/" }, "geometry": { "type": "Point", "coordinates": [ 136.586325100000067, 35.3825393 ] } },
{ "type": "Feature", "properties": { "内容": "医療法人徳洲会　大垣徳洲会病院　訪問リハビリテーション【訪問リハビリテーション】岐阜県大垣市林町６丁目85-1", "url": "https://www.kaigokensaku.mhlw.go.jp/21/index.php?action_kouhyou_detail_004_kani=true&JigyosyoCd=2112103391-00&ServiceCd=140&Type=search", "url2": "https://www.ogaki.tokushukai.or.jp/" }, "geometry": { "type": "Point", "coordinates": [ 136.6176752, 35.3724339 ] } },
{ "type": "Feature", "properties": { "内容": "ときわぎ診療所【訪問リハビリテーション】岐阜県多治見市喜多町５－３６", "url": "https://www.kaigokensaku.mhlw.go.jp/21/index.php?action_kouhyou_detail_004_kani=true&JigyosyoCd=2111101040-00&ServiceCd=140&Type=search", "url2": null }, "geometry": { "type": "Point", "coordinates": [ 137.105351400000018, 35.3413506 ] } },
{ "type": "Feature", "properties": { "内容": "医療法人慈生会浜田浅井医院【訪問リハビリテーション】岐阜県多治見市太平町１－５", "url": "https://www.kaigokensaku.mhlw.go.jp/21/index.php?action_kouhyou_detail_004_kani=true&JigyosyoCd=2111101131-00&ServiceCd=140&Type=search", "url2": null }, "geometry": { "type": "Point", "coordinates": [ 137.112692399999986, 35.333388 ] } },
{ "type": "Feature", "properties": { "内容": "医療法人仁寿会　タジミ第一病院　訪問リハビリテーション【訪問リハビリテーション】岐阜県多治見市小名田町西ヶ洞1-648", "url": "https://www.kaigokensaku.mhlw.go.jp/21/index.php?action_kouhyou_detail_004_kani=true&JigyosyoCd=2111101529-00&ServiceCd=140&Type=search", "url2": "http://www.i-jinjukai.or.jp/" }, "geometry": { "type": "Point", "coordinates": [ 137.118244636026247, 35.365552899291885 ] } },
{ "type": "Feature", "properties": { "内容": "医療法人社団日新会城山病院【訪問リハビリテーション】岐阜県中津川市苗木３７２５−２", "url": "https://www.kaigokensaku.mhlw.go.jp/21/index.php?action_kouhyou_detail_004_kani=true&JigyosyoCd=2111500696-00&ServiceCd=140&Type=search", "url2": "http://n-shiroyama.info" }, "geometry": { "type": "Point", "coordinates": [ 137.477538099999947, 35.5140376 ] } },
{ "type": "Feature", "properties": { "内容": "恵那医院リハビリケアセンター【訪問リハビリテーション】岐阜県中津川市本町4丁目4番10号", "url": "https://www.kaigokensaku.mhlw.go.jp/21/index.php?action_kouhyou_detail_004_kani=true&JigyosyoCd=2111501231-00&ServiceCd=140&Type=search", "url2": "http://www.enaiin.org/" }, "geometry": { "type": "Point", "coordinates": [ 137.499646221404987, 35.492816843237811 ] } },
{ "type": "Feature", "properties": { "内容": "リハビリテーションつばさ【訪問リハビリテーション】岐阜県中津川市駒場1493-21", "url": "https://www.kaigokensaku.mhlw.go.jp/21/index.php?action_kouhyou_detail_004_kani=true&JigyosyoCd=2111501330-00&ServiceCd=140&Type=search", "url2": null }, "geometry": { "type": "Point", "coordinates": [ 137.4841557, 35.4829299 ] } },
{ "type": "Feature", "properties": { "内容": "メディカルフィットネスfamiliar【訪問リハビリテーション】岐阜県恵那市長島町9番地9", "url": "https://www.kaigokensaku.mhlw.go.jp/21/index.php?action_kouhyou_detail_004_kani=true&JigyosyoCd=2111700700-00&ServiceCd=140&Type=search", "url2": "http://efc1800.jp/" }, "geometry": { "type": "Point", "coordinates": [ 137.4167468, 35.4472144 ] } },
{ "type": "Feature", "properties": { "内容": "医療法人恵雄会　介護老人保健施設こころ【訪問リハビリテーション】岐阜県恵那市大井町1064-1", "url": "https://www.kaigokensaku.mhlw.go.jp/21/index.php?action_kouhyou_detail_004_kani=true&JigyosyoCd=2111700726-00&ServiceCd=140&Type=search", "url2": "http://www.keiyu-kai.com/houzin.html" }, "geometry": { "type": "Point", "coordinates": [ 137.422432399999934, 35.4524446 ] } },
{ "type": "Feature", "properties": { "内容": "大井リハビリテーションクリニック【訪問リハビリテーション】岐阜県恵那市大井町1002-4", "url": "https://www.kaigokensaku.mhlw.go.jp/21/index.php?action_kouhyou_detail_004_kani=true&JigyosyoCd=2111701039-00&ServiceCd=140&Type=search", "url2": "http://keiaikai.co.jp" }, "geometry": { "type": "Point", "coordinates": [ 137.4182832, 35.4522912 ] } },
{ "type": "Feature", "properties": { "内容": "介護老人保健施設こころ【訪問リハビリテーション】大井町1064-1", "url": "https://www.kaigokensaku.mhlw.go.jp/21/index.php?action_kouhyou_detail_004_kani=true&JigyosyoCd=2151780018-00&ServiceCd=140&Type=search", "url2": "keiyu-kai.com" }, "geometry": { "type": "Point", "coordinates": [ 139.730715300000014, 35.5994698 ] } },
{ "type": "Feature", "properties": { "内容": "太田メディカルクリニック【訪問リハビリテーション】岐阜県美濃加茂市太田町2825", "url": "https://www.kaigokensaku.mhlw.go.jp/21/index.php?action_kouhyou_detail_004_kani=true&JigyosyoCd=2111200800-00&ServiceCd=140&Type=search", "url2": "https://www.ohta-hospital.jp/" }, "geometry": { "type": "Point", "coordinates": [ 137.0145675, 35.4402845 ] } },
{ "type": "Feature", "properties": { "内容": "岐阜県美濃加茂市中部台6丁目13番地5【訪問リハビリテーション】岐阜県美濃加茂市中部台6丁目13番地5中部台ケアセンター", "url": "https://www.kaigokensaku.mhlw.go.jp/21/index.php?action_kouhyou_detail_004_kani=true&JigyosyoCd=2151280035-00&ServiceCd=140&Type=search", "url2": "https://kaigo.ohta-hospital.jp/chubudai/" }, "geometry": { "type": "Point", "coordinates": [ 137.017340200000035, 35.465979199999985 ] } },
{ "type": "Feature", "properties": { "内容": "医療法人敬生会高井病院【訪問リハビリテーション】岐阜県土岐市妻木町1658", "url": "https://www.kaigokensaku.mhlw.go.jp/21/index.php?action_kouhyou_detail_004_kani=true&JigyosyoCd=2111801110-00&ServiceCd=140&Type=search", "url2": "https://takai-hp.jp/" }, "geometry": { "type": "Point", "coordinates": [ 137.1915846, 35.3159721 ] } },
{ "type": "Feature", "properties": { "内容": "各務原リハビリテーション病院【訪問リハビリテーション】岐阜県各務原市鵜沼山崎町6-8-2", "url": "https://www.kaigokensaku.mhlw.go.jp/21/index.php?action_kouhyou_detail_004_kani=true&JigyosyoCd=2110502289-00&ServiceCd=140&Type=search", "url2": "http://www.seidoukai.or.jp/" }, "geometry": { "type": "Point", "coordinates": [ 136.946736004893552, 35.399561181870943 ] } },
{ "type": "Feature", "properties": { "内容": "フェニックス総合クリニック【訪問リハビリテーション】岐阜県各務原市鵜沼各務原町6丁目50番地", "url": "https://www.kaigokensaku.mhlw.go.jp/21/index.php?action_kouhyou_detail_004_kani=true&JigyosyoCd=2110502412-00&ServiceCd=140&Type=search", "url2": "http://www.phoenix-g.jp" }, "geometry": { "type": "Point", "coordinates": [ 136.909372299999973, 35.3994845 ] } },
{ "type": "Feature", "properties": { "内容": "正翔会クリニック可児【訪問リハビリテーション】岐阜県可児市長坂8丁目198番地", "url": "https://www.kaigokensaku.mhlw.go.jp/21/index.php?action_kouhyou_detail_004_kani=true&JigyosyoCd=2113101162-00&ServiceCd=140&Type=search", "url2": "https://www.nagao-zaitaku.jp/" }, "geometry": { "type": "Point", "coordinates": [ 137.0042188, 35.386294 ] } },
{ "type": "Feature", "properties": { "内容": "東可児病院【訪問リハビリテーション】岐阜県可児市広見1520", "url": "https://www.kaigokensaku.mhlw.go.jp/21/index.php?action_kouhyou_detail_004_kani=true&JigyosyoCd=2113100438-00&ServiceCd=140&Type=search", "url2": "http://www.higashikani-hp.jp/" }, "geometry": { "type": "Point", "coordinates": [ 137.063233099999934, 35.4175662 ] } },
{ "type": "Feature", "properties": { "内容": "あんどうクリニック訪問リハビリテーション【訪問リハビリテーション】岐阜県可児市下恵土3440－678", "url": "https://www.kaigokensaku.mhlw.go.jp/21/index.php?action_kouhyou_detail_004_kani=true&JigyosyoCd=2113100743-00&ServiceCd=140&Type=search", "url2": "https://www.andoclinic.jp/" }, "geometry": { "type": "Point", "coordinates": [ 137.046939699999939, 35.4252536 ] } },
{ "type": "Feature", "properties": { "内容": "可児とうのう病院附属介護老人保健施設【訪問リハビリテーション】岐阜県可児市土田900", "url": "https://www.kaigokensaku.mhlw.go.jp/21/index.php?action_kouhyou_detail_004_kani=true&JigyosyoCd=2153180019-00&ServiceCd=140&Type=search", "url2": "http://kani.jcho.go.jp/rouken/" }, "geometry": { "type": "Point", "coordinates": [ 137.0161247, 35.4168427 ] } },
{ "type": "Feature", "properties": { "内容": "吉村内科【訪問リハビリテーション】岐阜県瑞穂市別府１２９７番地", "url": "https://www.kaigokensaku.mhlw.go.jp/21/index.php?action_kouhyou_detail_004_kani=true&JigyosyoCd=2113200063-00&ServiceCd=140&Type=search", "url2": null }, "geometry": { "type": "Point", "coordinates": [ 136.689789900000051, 35.3923011 ] } },
{ "type": "Feature", "properties": { "内容": "巣南リハビリセンター【訪問リハビリテーション】岐阜県瑞穂市重里1996", "url": "https://www.kaigokensaku.mhlw.go.jp/21/index.php?action_kouhyou_detail_004_kani=true&JigyosyoCd=2150780019-00&ServiceCd=140&Type=search", "url2": "https://seikohkai.net/" }, "geometry": { "type": "Point", "coordinates": [ 136.65999469999997, 35.4157313 ] } },
{ "type": "Feature", "properties": { "内容": "社団医療法人古川病院　訪問リハビリステーション【訪問リハビリテーション】岐阜県飛騨市古川町三之町8-20", "url": "https://www.kaigokensaku.mhlw.go.jp/21/index.php?action_kouhyou_detail_004_kani=true&JigyosyoCd=2113300012-00&ServiceCd=140&Type=search", "url2": null }, "geometry": { "type": "Point", "coordinates": [ 137.183414500000026, 36.2356803 ] } },
{ "type": "Feature", "properties": { "内容": "国民健康保険飛騨市民病院【訪問リハビリテーション】岐阜県飛騨市神岡町東町７２５番地", "url": "https://www.kaigokensaku.mhlw.go.jp/21/index.php?action_kouhyou_detail_004_kani=true&JigyosyoCd=2113300137-00&ServiceCd=140&Type=search", "url2": "https://hida-hp.jp" }, "geometry": { "type": "Point", "coordinates": [ 137.300701500000059, 36.3348666 ] } },
{ "type": "Feature", "properties": { "内容": "まくわクリニック【訪問リハビリテーション】岐阜県本巣市軽海495-7", "url": "https://www.kaigokensaku.mhlw.go.jp/21/index.php?action_kouhyou_detail_004_kani=true&JigyosyoCd=2113400093-00&ServiceCd=140&Type=search", "url2": "http://www.makuwa-clinic.jp" }, "geometry": { "type": "Point", "coordinates": [ 136.656514099999981, 35.4291015 ] } },
{ "type": "Feature", "properties": { "内容": "医療法人新生会八幡病院【訪問リハビリテーション】岐阜県郡上市八幡町桜町２７８番地", "url": "https://www.kaigokensaku.mhlw.go.jp/21/index.php?action_kouhyou_detail_004_kani=true&JigyosyoCd=2111000291-00&ServiceCd=140&Type=search", "url2": "http://www.hachiman-hosp.jp/" }, "geometry": { "type": "Point", "coordinates": [ 136.960773900000049, 35.7505962 ] } },
{ "type": "Feature", "properties": { "内容": "社会医療法人白鳳会鷲見病院【訪問リハビリテーション】岐阜県郡上市白鳥町白鳥２番地１", "url": "https://www.kaigokensaku.mhlw.go.jp/21/index.php?action_kouhyou_detail_004_kani=true&JigyosyoCd=2111000747-00&ServiceCd=140&Type=search", "url2": "http://sumihosp.or.jp" }, "geometry": { "type": "Point", "coordinates": [ 136.8577388, 35.8799718 ] } },
{ "type": "Feature", "properties": { "内容": "堀谷医院訪問リハビリテーション【訪問リハビリテーション】岐阜県郡上市八幡町中坪１－７", "url": "https://www.kaigokensaku.mhlw.go.jp/21/index.php?action_kouhyou_detail_004_kani=true&JigyosyoCd=2111000929-00&ServiceCd=140&Type=search", "url2": "http://www.horiyaiin.or.jp" }, "geometry": { "type": "Point", "coordinates": [ 136.954343699999981, 35.7570899 ] } },
{ "type": "Feature", "properties": { "内容": "郡上市民病院【訪問リハビリテーション】岐阜県郡上市八幡町島谷1261", "url": "https://www.kaigokensaku.mhlw.go.jp/21/index.php?action_kouhyou_detail_004_kani=true&JigyosyoCd=2111001091-00&ServiceCd=140&Type=search", "url2": "http://www.gujo-hospital.jp" }, "geometry": { "type": "Point", "coordinates": [ 136.951595210281283, 35.747392761295416 ] } },
{ "type": "Feature", "properties": { "内容": "萩原北醫院【訪問リハビリテーション】岐阜県下呂市萩原町羽根41", "url": "https://www.kaigokensaku.mhlw.go.jp/21/index.php?action_kouhyou_detail_004_kani=true&JigyosyoCd=2112801010-00&ServiceCd=140&Type=search", "url2": "https://hagiwarakita.com" }, "geometry": { "type": "Point", "coordinates": [ 137.20022419999998, 35.902332 ] } },
{ "type": "Feature", "properties": { "内容": "下呂市立金山病院【訪問リハビリテーション】岐阜県下呂市金山町金山973番地6", "url": "https://www.kaigokensaku.mhlw.go.jp/21/index.php?action_kouhyou_detail_004_kani=true&JigyosyoCd=2112801085-00&ServiceCd=140&Type=search", "url2": "http://www.city.gero.lg.jp/site/kanayama-hp/" }, "geometry": { "type": "Point", "coordinates": [ 137.14561219999996, 35.6678002 ] } },
{ "type": "Feature", "properties": { "内容": "下呂市立小坂介護医療院【訪問リハビリテーション】小坂町大島1965番地", "url": "https://www.kaigokensaku.mhlw.go.jp/21/index.php?action_kouhyou_detail_004_kani=true&JigyosyoCd=2172800910-00&ServiceCd=140&Type=search", "url2": "http:www.city.gero.lg.jp/gyousei/" }, "geometry": { "type": "Point", "coordinates": [ 137.258827, 35.951564799999986 ] } },
{ "type": "Feature", "properties": { "内容": "おおかわ整形外科【訪問リハビリテーション】岐阜県羽島郡笠松町門間853番地", "url": "https://www.kaigokensaku.mhlw.go.jp/21/index.php?action_kouhyou_detail_004_kani=true&JigyosyoCd=2110600992-00&ServiceCd=140&Type=search", "url2": null }, "geometry": { "type": "Point", "coordinates": [ 136.7343677, 35.3551215 ] } },
{ "type": "Feature", "properties": { "内容": "松波総合病院訪問リハビリテーション事業所【訪問リハビリテーション】岐阜県羽島郡笠松町田代185番地1", "url": "https://www.kaigokensaku.mhlw.go.jp/21/index.php?action_kouhyou_detail_004_kani=true&JigyosyoCd=2110600570-00&ServiceCd=140&Type=search", "url2": "http://www.matsunami-hsp.or.jp/" }, "geometry": { "type": "Point", "coordinates": [ 136.757091300000013, 35.3645323 ] } },
{ "type": "Feature", "properties": { "内容": "養老整形外科クリニック　訪問リハビリテーション【訪問リハビリテーション】岐阜県養老郡養老町大跡534番地", "url": "https://www.kaigokensaku.mhlw.go.jp/21/index.php?action_kouhyou_detail_004_kani=true&JigyosyoCd=2112300575-00&ServiceCd=140&Type=search", "url2": "http://www.yoro-seikei.or.jp" }, "geometry": { "type": "Point", "coordinates": [ 136.575215299999968, 35.2878142 ] } },
{ "type": "Feature", "properties": { "内容": "黒川胃腸科外科クリニック【訪問リハビリテーション】岐阜県安八郡神戸町北一色３番地の１", "url": "https://www.kaigokensaku.mhlw.go.jp/21/index.php?action_kouhyou_detail_004_kani=true&JigyosyoCd=2112500554-00&ServiceCd=140&Type=search", "url2": "https://www.eijinkai-md.jp" }, "geometry": { "type": "Point", "coordinates": [ 136.585947499999946, 35.4291242 ] } },
{ "type": "Feature", "properties": { "内容": "揖斐川町久瀬診療所【訪問リハビリテーション】岐阜県揖斐郡揖斐川町東津汲974-1", "url": "https://www.kaigokensaku.mhlw.go.jp/21/index.php?action_kouhyou_detail_004_kani=true&JigyosyoCd=2112601188-00&ServiceCd=140&Type=search", "url2": "http://ibigawa-jadecom.jp" }, "geometry": { "type": "Point", "coordinates": [ 136.507633400000032, 35.5567989 ] } },
{ "type": "Feature", "properties": { "内容": "ゆり形成内科整形おおの訪問リハビリテーション【訪問リハビリテーション】岐阜県揖斐郡大野町大野753番地141", "url": "https://www.kaigokensaku.mhlw.go.jp/21/index.php?action_kouhyou_detail_004_kani=true&JigyosyoCd=2112601279-00&ServiceCd=140&Type=search", "url2": "http://www.yuri-ohno.com/" }, "geometry": { "type": "Point", "coordinates": [ 136.639659305032353, 35.480601209004369 ] } },
{ "type": "Feature", "properties": { "内容": "小森内科クリニック【訪問リハビリテーション】岐阜県揖斐郡大野町黒野６４５－１", "url": "https://www.kaigokensaku.mhlw.go.jp/21/index.php?action_kouhyou_detail_004_kani=true&JigyosyoCd=2112600933-00&ServiceCd=140&Type=search", "url2": null }, "geometry": { "type": "Point", "coordinates": [ 136.635142772491463, 35.466539764263459 ] } },
{ "type": "Feature", "properties": { "内容": "おおのクリニック【訪問リハビリテーション】岐阜県揖斐郡大野町南方二度桜191番地", "url": "https://www.kaigokensaku.mhlw.go.jp/21/index.php?action_kouhyou_detail_004_kani=true&JigyosyoCd=2112601048-00&ServiceCd=140&Type=search", "url2": "http://www.plaza21oono.jp" }, "geometry": { "type": "Point", "coordinates": [ 136.620936499999971, 35.452803297237978 ] } },
{ "type": "Feature", "properties": { "内容": "今村医院指定訪問リハビリテーション事業所【訪問リハビリテーション】岐阜県揖斐郡池田町池野505-2", "url": "https://www.kaigokensaku.mhlw.go.jp/21/index.php?action_kouhyou_detail_004_kani=true&JigyosyoCd=2112601337-00&ServiceCd=140&Type=search", "url2": null }, "geometry": { "type": "Point", "coordinates": [ 136.574867399999988, 35.4369715 ] } },
{ "type": "Feature", "properties": { "内容": "新生病院【訪問リハビリテーション】岐阜県揖斐郡池田町本郷1551番地の1", "url": "https://www.kaigokensaku.mhlw.go.jp/21/index.php?action_kouhyou_detail_004_kani=true&JigyosyoCd=2112600727-00&ServiceCd=140&Type=search", "url2": "https://www.shinsei-hospital.jp/index.html" }, "geometry": { "type": "Point", "coordinates": [ 136.57529790000001, 35.4430003 ] } },
{ "type": "Feature", "properties": { "内容": "有本整形外科　リハビリ・ケアセンター【訪問リハビリテーション】岐阜県加茂郡川辺町石神字下迫間257-1", "url": "https://www.kaigokensaku.mhlw.go.jp/21/index.php?action_kouhyou_detail_004_kani=true&JigyosyoCd=2171300904-00&ServiceCd=140&Type=search", "url2": "http://arimoto-seikei.jp/" }, "geometry": { "type": "Point", "coordinates": [ 137.067935881861871, 35.495268332300022 ] } },
{ "type": "Feature", "properties": { "内容": "大矢クリニック【訪問リハビリテーション】岐阜県加茂郡七宗町上麻生２１７０", "url": "https://www.kaigokensaku.mhlw.go.jp/21/index.php?action_kouhyou_detail_004_kani=true&JigyosyoCd=2111300824-00&ServiceCd=140&Type=search", "url2": null }, "geometry": { "type": "Point", "coordinates": [ 137.120429699999931, 35.5401629 ] } },
{ "type": "Feature", "properties": { "内容": "医療法人白水会　白川病院【訪問リハビリテーション】岐阜県加茂郡白川町坂ノ東５７７０", "url": "https://www.kaigokensaku.mhlw.go.jp/21/index.php?action_kouhyou_detail_004_kani=true&JigyosyoCd=2111300626-00&ServiceCd=140&Type=search", "url2": "http://www.shirakawahp.com" }, "geometry": { "type": "Point", "coordinates": [ 137.164789225131273, 35.603576021249125 ] } },
{ "type": "Feature", "properties": { "内容": "桃井病院【訪問リハビリテーション】岐阜県可児郡御嵩町中2163", "url": "https://www.kaigokensaku.mhlw.go.jp/21/index.php?action_kouhyou_detail_004_kani=true&JigyosyoCd=2111400616-00&ServiceCd=140&Type=search", "url2": "http://www.momoi-hp.com/" }, "geometry": { "type": "Point", "coordinates": [ 137.124427, 35.4326897 ] } }
]
}
