{
"type": "FeatureCollection",
"name": "geo_21_介護医療院",
"crs": { "type": "name", "properties": { "name": "urn:ogc:def:crs:OGC:1.3:CRS84" } },
"features": [
{ "type": "Feature", "properties": { "内容": "介護医療院みよし【介護医療院】岐阜県岐阜市北一色５丁目２番１１号", "url": "https://www.kaigokensaku.mhlw.go.jp/21/index.php?action_kouhyou_detail_004_kani=true&JigyosyoCd=21B0100017-00&ServiceCd=550&Type=search", "url2": "https://www.keichoukai.com" }, "geometry": { "type": "Point", "coordinates": [ 136.792345299999965, 35.4130831 ] } },
{ "type": "Feature", "properties": { "内容": "介護医療院　大橋整形外科病院【介護医療院】岐阜県岐阜市栄新町2丁目50番地", "url": "https://www.kaigokensaku.mhlw.go.jp/21/index.php?action_kouhyou_detail_004_kani=true&JigyosyoCd=21B0100025-00&ServiceCd=550&Type=search", "url2": "http://www.eijyukai-ohhashi.or.jp/" }, "geometry": { "type": "Point", "coordinates": [ 136.7597998, 35.4376506 ] } },
{ "type": "Feature", "properties": { "内容": "しらゆり介護医療院【介護医療院】岐阜県岐阜市安食１丁目８７番地１", "url": "https://www.kaigokensaku.mhlw.go.jp/21/index.php?action_kouhyou_detail_004_kani=true&JigyosyoCd=21B0100033-00&ServiceCd=550&Type=search", "url2": "http://www.fukutomi-clinic.com/" }, "geometry": { "type": "Point", "coordinates": [ 136.721930944844047, 35.48994338306116 ] } },
{ "type": "Feature", "properties": { "内容": "各務原リハビリテーション介護医療院【介護医療院】岐阜県各務原市鵜沼山崎町6-8-2", "url": "https://www.kaigokensaku.mhlw.go.jp/21/index.php?action_kouhyou_detail_004_kani=true&JigyosyoCd=21B0500018-00&ServiceCd=550&Type=search", "url2": "https://www.seidoukai.or.jp/facility-detail/nursing-care/" }, "geometry": { "type": "Point", "coordinates": [ 136.9467414, 35.3995747 ] } },
{ "type": "Feature", "properties": { "内容": "医療法人秀幸会横山病院介護医療院【介護医療院】岐阜県各務原市那加元町8番地", "url": "https://www.kaigokensaku.mhlw.go.jp/21/index.php?action_kouhyou_detail_004_kani=true&JigyosyoCd=21B0500026-00&ServiceCd=550&Type=search", "url2": null }, "geometry": { "type": "Point", "coordinates": [ 136.8376833, 35.3989619 ] } },
{ "type": "Feature", "properties": { "内容": "藤掛病院介護医療院【介護医療院】岐阜県可児市広見876", "url": "https://www.kaigokensaku.mhlw.go.jp/21/index.php?action_kouhyou_detail_004_kani=true&JigyosyoCd=21B3100014-00&ServiceCd=550&Type=search", "url2": "http://www.fujikake-hospital.jp/" }, "geometry": { "type": "Point", "coordinates": [ 137.0623316, 35.4210507 ] } },
{ "type": "Feature", "properties": { "内容": "社団医療法人古川病院介護医療院【介護医療院】岐阜県飛騨市古川町三之町8-20", "url": "https://www.kaigokensaku.mhlw.go.jp/21/index.php?action_kouhyou_detail_004_kani=true&JigyosyoCd=21B3300028-00&ServiceCd=550&Type=search", "url2": null }, "geometry": { "type": "Point", "coordinates": [ 137.1834469, 36.2356129 ] } },
{ "type": "Feature", "properties": { "内容": "介護医療院たかはら【介護医療院】岐阜県飛騨市神岡町殿1081番地19", "url": "https://www.kaigokensaku.mhlw.go.jp/21/index.php?action_kouhyou_detail_004_kani=true&JigyosyoCd=21B3300010-00&ServiceCd=550&Type=search", "url2": "https://tanpopoen.or.jp/service/takahara/" }, "geometry": { "type": "Point", "coordinates": [ 137.307955600000014, 36.3243486 ] } },
{ "type": "Feature", "properties": { "内容": "下呂市立小坂介護医療院【介護医療院】岐阜県下呂市小坂町大島1965番地", "url": "https://www.kaigokensaku.mhlw.go.jp/21/index.php?action_kouhyou_detail_004_kani=true&JigyosyoCd=21B2800010-00&ServiceCd=550&Type=search", "url2": "https://www.city.gero.lg.jp/soshiki/43/" }, "geometry": { "type": "Point", "coordinates": [ 137.258827, 35.9515648 ] } },
{ "type": "Feature", "properties": { "内容": "愛生介護医療院【介護医療院】岐阜県羽島郡笠松町円城寺971番地", "url": "https://www.kaigokensaku.mhlw.go.jp/21/index.php?action_kouhyou_detail_004_kani=true&JigyosyoCd=21B0600016-00&ServiceCd=550&Type=search", "url2": "http://www.mutsumikai.or.jp/" }, "geometry": { "type": "Point", "coordinates": [ 136.789689899999985, 35.3754852 ] } },
{ "type": "Feature", "properties": { "内容": "ふれあい介護医療院【介護医療院】岐阜県羽島郡笠松町円城寺９３３番地", "url": "https://www.kaigokensaku.mhlw.go.jp/21/index.php?action_kouhyou_detail_004_kani=true&JigyosyoCd=21B0600024-00&ServiceCd=550&Type=search", "url2": "https://www.mutsumikai.or.jp/" }, "geometry": { "type": "Point", "coordinates": [ 136.7909756, 35.3730487 ] } },
{ "type": "Feature", "properties": { "内容": "岐阜・西濃医療センター　西美濃厚生病院介護医療院【介護医療院】岐阜県養老郡養老町押越986", "url": "https://www.kaigokensaku.mhlw.go.jp/21/index.php?action_kouhyou_detail_004_kani=true&JigyosyoCd=21B2300011-00&ServiceCd=550&Type=search", "url2": "http://www.nishimino.gfkosei.or.jp/" }, "geometry": { "type": "Point", "coordinates": [ 136.5580438, 35.3052201 ] } },
{ "type": "Feature", "properties": { "内容": "黒川クリニック付属介護医療院【介護医療院】岐阜県安八郡神戸町北一色３番地の1", "url": "https://www.kaigokensaku.mhlw.go.jp/21/index.php?action_kouhyou_detail_004_kani=true&JigyosyoCd=21B2500016-00&ServiceCd=550&Type=search", "url2": "https://www.eijinkai-md.jp" }, "geometry": { "type": "Point", "coordinates": [ 136.585989411253081, 35.429141556798257 ] } }
]
}
