{
"type": "FeatureCollection",
"name": "geo_21_幼保連携型認定こども園",
"crs": { "type": "name", "properties": { "name": "urn:ogc:def:crs:EPSG::6668" } },
"features": [
{ "type": "Feature", "properties": { "P29_001": "21206", "P29_002": "A221220600018", "P29_003": "16013", "P29_004": "中津川市立坂本こども園", "P29_005": "岐阜県中津川市茄子川841-1", "P29_006": "3", "P29_007": "0", "P29_008": "00", "P29_009": null }, "geometry": { "type": "Point", "coordinates": [ 137.444610997077291, 35.47229200262035 ] } },
{ "type": "Feature", "properties": { "P29_001": "21206", "P29_002": "A221220600027", "P29_003": "16013", "P29_004": "中津川市立山口こども園", "P29_005": "岐阜県中津川市山口1647-36", "P29_006": "3", "P29_007": "0", "P29_008": "00", "P29_009": null }, "geometry": { "type": "Point", "coordinates": [ 137.546405162559068, 35.556877569457676 ] } },
{ "type": "Feature", "properties": { "P29_001": "21206", "P29_002": "A221220600036", "P29_003": "16013", "P29_004": "加子母こども園", "P29_005": "岐阜県中津川市加子母3417-1", "P29_006": "3", "P29_007": "0", "P29_008": "00", "P29_009": null }, "geometry": { "type": "Point", "coordinates": [ 137.368052215679171, 35.716843022534391 ] } },
{ "type": "Feature", "properties": { "P29_001": "21206", "P29_002": "A221220600045", "P29_003": "16013", "P29_004": "蛭川こども園", "P29_005": "岐阜県中津川市蛭川4844-1", "P29_006": "3", "P29_007": "0", "P29_008": "00", "P29_009": null }, "geometry": { "type": "Point", "coordinates": [ 137.399424874416951, 35.515408901124637 ] } },
{ "type": "Feature", "properties": { "P29_001": "21206", "P29_002": "A221220600054", "P29_003": "16013", "P29_004": "阿木こども園", "P29_005": "岐阜県中津川市阿木107-1", "P29_006": "3", "P29_007": "0", "P29_008": "00", "P29_009": null }, "geometry": { "type": "Point", "coordinates": [ 137.465955721956107, 35.397409472614456 ] } },
{ "type": "Feature", "properties": { "P29_001": "21206", "P29_002": "A221220600063", "P29_003": "16013", "P29_004": "やさかこども園", "P29_005": "岐阜県中津川市坂下1578-1", "P29_006": "3", "P29_007": "0", "P29_008": "00", "P29_009": null }, "geometry": { "type": "Point", "coordinates": [ 137.525215767372998, 35.574402152143847 ] } },
{ "type": "Feature", "properties": { "P29_001": "21210", "P29_002": "A221221000012", "P29_003": "16013", "P29_004": "恵那市立大井こども園", "P29_005": "岐阜県恵那市大井町1248-3", "P29_006": "3", "P29_007": "0", "P29_008": "00", "P29_009": null }, "geometry": { "type": "Point", "coordinates": [ 137.416950125451336, 35.456138730792937 ] } },
{ "type": "Feature", "properties": { "P29_001": "21210", "P29_002": "A221221000021", "P29_003": "16013", "P29_004": "恵那市立やまびここども園", "P29_005": "岐阜県恵那市長島町久須見182", "P29_006": "3", "P29_007": "0", "P29_008": "00", "P29_009": null }, "geometry": { "type": "Point", "coordinates": [ 137.361557878715047, 35.474121529781335 ] } },
{ "type": "Feature", "properties": { "P29_001": "21210", "P29_002": "A221221000030", "P29_003": "16013", "P29_004": "恵那市立東野こども園", "P29_005": "岐阜県恵那市東野1346", "P29_006": "3", "P29_007": "0", "P29_008": "00", "P29_009": null }, "geometry": { "type": "Point", "coordinates": [ 137.428893794204072, 35.441153815832585 ] } },
{ "type": "Feature", "properties": { "P29_001": "21210", "P29_002": "A221221000049", "P29_003": "16013", "P29_004": "恵那市立みさとこども園", "P29_005": "岐阜県恵那市三郷町野井1969-1", "P29_006": "3", "P29_007": "0", "P29_008": "00", "P29_009": null }, "geometry": { "type": "Point", "coordinates": [ 137.383175261372656, 35.423611957379187 ] } },
{ "type": "Feature", "properties": { "P29_001": "21210", "P29_002": "A221221000058", "P29_003": "16013", "P29_004": "恵那市立武並こども園", "P29_005": "岐阜県恵那市武並町竹折1648-259", "P29_006": "3", "P29_007": "0", "P29_008": "00", "P29_009": null }, "geometry": { "type": "Point", "coordinates": [ 137.342839216247768, 35.43800262208309 ] } },
{ "type": "Feature", "properties": { "P29_001": "21210", "P29_002": "A221221000067", "P29_003": "16013", "P29_004": "恵那市立中野方こども園", "P29_005": "岐阜県恵那市中野方町1811-2", "P29_006": "3", "P29_007": "0", "P29_008": "00", "P29_009": null }, "geometry": { "type": "Point", "coordinates": [ 137.305007305122814, 35.52145585155462 ] } },
{ "type": "Feature", "properties": { "P29_001": "21210", "P29_002": "A221221000076", "P29_003": "16013", "P29_004": "恵那市立飯地こども園", "P29_005": "岐阜県恵那市飯地町26-5", "P29_006": "3", "P29_007": "0", "P29_008": "00", "P29_009": null }, "geometry": { "type": "Point", "coordinates": [ 137.291351892006929, 35.485879806789121 ] } },
{ "type": "Feature", "properties": { "P29_001": "21210", "P29_002": "A221221000085", "P29_003": "16013", "P29_004": "恵那市立山岡こども園", "P29_005": "岐阜県恵那市山岡町上手向1155", "P29_006": "3", "P29_007": "0", "P29_008": "00", "P29_009": null }, "geometry": { "type": "Point", "coordinates": [ 137.377492352757457, 35.355353226816689 ] } },
{ "type": "Feature", "properties": { "P29_001": "21210", "P29_002": "A221221000094", "P29_003": "16013", "P29_004": "恵那市立明智こども園", "P29_005": "岐阜県恵那市明智町332-3", "P29_006": "3", "P29_007": "0", "P29_008": "00", "P29_009": null }, "geometry": { "type": "Point", "coordinates": [ 137.388979115824156, 35.309690453258938 ] } },
{ "type": "Feature", "properties": { "P29_001": "21210", "P29_002": "A221221000101", "P29_003": "16013", "P29_004": "恵那市立串原こども園", "P29_005": "岐阜県恵那市串原3228-2", "P29_006": "3", "P29_007": "0", "P29_008": "00", "P29_009": null }, "geometry": { "type": "Point", "coordinates": [ 137.40500217012405, 35.259638560546144 ] } },
{ "type": "Feature", "properties": { "P29_001": "21210", "P29_002": "A221221000110", "P29_003": "16013", "P29_004": "恵那市立上矢作こども園", "P29_005": "岐阜県恵那市上矢作町下720-1", "P29_006": "3", "P29_007": "0", "P29_008": "00", "P29_009": null }, "geometry": { "type": "Point", "coordinates": [ 137.475338435980376, 35.27489391327201 ] } },
{ "type": "Feature", "properties": { "P29_001": "21212", "P29_002": "A221221200010", "P29_003": "16013", "P29_004": "土岐市立西部こども園", "P29_005": "岐阜県土岐市下石町1015-1", "P29_006": "3", "P29_007": "0", "P29_008": "00", "P29_009": null }, "geometry": { "type": "Point", "coordinates": [ 137.189316312577432, 35.320785778317898 ] } },
{ "type": "Feature", "properties": { "P29_001": "21212", "P29_002": "A221221200029", "P29_003": "16013", "P29_004": "土岐市立濃南こども園", "P29_005": "岐阜県土岐市鶴里町柿野1184-1", "P29_006": "3", "P29_007": "0", "P29_008": "00", "P29_009": null }, "geometry": { "type": "Point", "coordinates": [ 137.218421001483392, 35.270882998184561 ] } },
{ "type": "Feature", "properties": { "P29_001": "21212", "P29_002": "A221221200038", "P29_003": "16013", "P29_004": "泉こども園", "P29_005": "岐阜県土岐市泉町久尻12-1", "P29_006": "3", "P29_007": "0", "P29_008": "00", "P29_009": null }, "geometry": { "type": "Point", "coordinates": [ 137.181870593971297, 35.35741611637912 ] } },
{ "type": "Feature", "properties": { "P29_001": "21221", "P29_002": "A221222100019", "P29_003": "16013", "P29_004": "海津市立高須認定こども園", "P29_005": "岐阜県海津市海津町高須町374-1", "P29_006": "3", "P29_007": "0", "P29_008": "00", "P29_009": null }, "geometry": { "type": "Point", "coordinates": [ 136.62889599931998, 35.219460998558255 ] } },
{ "type": "Feature", "properties": { "P29_001": "21221", "P29_002": "A221222100037", "P29_003": "16013", "P29_004": "海津市立石津認定こども園", "P29_005": "岐阜県海津市南濃町太田854-1", "P29_006": "3", "P29_007": "0", "P29_008": "00", "P29_009": null }, "geometry": { "type": "Point", "coordinates": [ 136.624243627088674, 35.174554016727292 ] } },
{ "type": "Feature", "properties": { "P29_001": "21341", "P29_002": "A221234100014", "P29_003": "16013", "P29_004": "養老郡養老町立養老こども園", "P29_005": "岐阜県養老郡養老町高田231-1", "P29_006": "3", "P29_007": "0", "P29_008": "00", "P29_009": null }, "geometry": { "type": "Point", "coordinates": [ 136.556229723002161, 35.310707293228127 ] } },
{ "type": "Feature", "properties": { "P29_001": "21341", "P29_002": "A221234100023", "P29_003": "16013", "P29_004": "養老郡養老町立広幡こども園", "P29_005": "岐阜県養老郡養老町口ヶ島191-1", "P29_006": "3", "P29_007": "0", "P29_008": "00", "P29_009": null }, "geometry": { "type": "Point", "coordinates": [ 136.571712003293328, 35.295411996213005 ] } },
{ "type": "Feature", "properties": { "P29_001": "21341", "P29_002": "A221234100032", "P29_003": "16013", "P29_004": "養老郡養老町立船附こども園", "P29_005": "岐阜県養老郡養老町船附1149-4", "P29_006": "3", "P29_007": "0", "P29_008": "00", "P29_009": null }, "geometry": { "type": "Point", "coordinates": [ 136.59547161942163, 35.288247666262748 ] } },
{ "type": "Feature", "properties": { "P29_001": "21341", "P29_002": "A221234100041", "P29_003": "16013", "P29_004": "養老郡養老町立養北こども園", "P29_005": "岐阜県養老郡養老町飯田219", "P29_006": "3", "P29_007": "0", "P29_008": "00", "P29_009": null }, "geometry": { "type": "Point", "coordinates": [ 136.571636379782518, 35.322829855360673 ] } },
{ "type": "Feature", "properties": { "P29_001": "21341", "P29_002": "A221234100050", "P29_003": "16013", "P29_004": "養老郡養老町立日吉こども園", "P29_005": "岐阜県養老郡養老町宇田66", "P29_006": "3", "P29_007": "0", "P29_008": "00", "P29_009": null }, "geometry": { "type": "Point", "coordinates": [ 136.552756654751846, 35.325328492495188 ] } },
{ "type": "Feature", "properties": { "P29_001": "21382", "P29_002": "A221238200014", "P29_003": "16013", "P29_004": "安八郡輪之内町立仁木こども園", "P29_005": "岐阜県安八郡輪之内町下大榑新田261-2", "P29_006": "3", "P29_007": "0", "P29_008": "00", "P29_009": null }, "geometry": { "type": "Point", "coordinates": [ 136.632558004157545, 35.273088998318499 ] } },
{ "type": "Feature", "properties": { "P29_001": "21382", "P29_002": "A221238200023", "P29_003": "16013", "P29_004": "安八郡輪之内町立福束こども園", "P29_005": "岐阜県安八郡輪之内町里983-1", "P29_006": "3", "P29_007": "0", "P29_008": "00", "P29_009": null }, "geometry": { "type": "Point", "coordinates": [ 136.632711977980193, 35.303913075326498 ] } },
{ "type": "Feature", "properties": { "P29_001": "21382", "P29_002": "A221238200032", "P29_003": "16013", "P29_004": "安八郡輪之内町立大藪こども園", "P29_005": "岐阜県安八郡輪之内町大藪1117", "P29_006": "3", "P29_007": "0", "P29_008": "00", "P29_009": null }, "geometry": { "type": "Point", "coordinates": [ 136.655183466738748, 35.294727299990448 ] } },
{ "type": "Feature", "properties": { "P29_001": "21421", "P29_002": "A221242100017", "P29_003": "16013", "P29_004": "北方町立こども園", "P29_005": "岐阜県本巣郡北方町北方1367-1", "P29_006": "3", "P29_007": "0", "P29_008": "00", "P29_009": null }, "geometry": { "type": "Point", "coordinates": [ 136.686482911784339, 35.435165390197668 ] } },
{ "type": "Feature", "properties": { "P29_001": "21503", "P29_002": "A221250300018", "P29_003": "16013", "P29_004": "加茂郡川辺町立川辺町第１こども園", "P29_005": "岐阜県加茂郡川辺町中川辺176", "P29_006": "3", "P29_007": "0", "P29_008": "00", "P29_009": null }, "geometry": { "type": "Point", "coordinates": [ 137.066080000642813, 35.485380997414779 ] } },
{ "type": "Feature", "properties": { "P29_001": "21503", "P29_002": "A221250300027", "P29_003": "16013", "P29_004": "加茂郡川辺町立川辺町第２こども園", "P29_005": "岐阜県加茂郡川辺町上川辺930-4", "P29_006": "3", "P29_007": "0", "P29_008": "00", "P29_009": null }, "geometry": { "type": "Point", "coordinates": [ 137.08063699956665, 35.513042002396887 ] } },
{ "type": "Feature", "properties": { "P29_001": "21201", "P29_002": "A221320100011", "P29_003": "16013", "P29_004": "黒野こども園", "P29_005": "岐阜県岐阜市古市場111-28", "P29_006": "4", "P29_007": "0", "P29_008": "00", "P29_009": null }, "geometry": { "type": "Point", "coordinates": [ 136.718341879494687, 35.467185006476562 ] } },
{ "type": "Feature", "properties": { "P29_001": "21201", "P29_002": "A221320100020", "P29_003": "16013", "P29_004": "ながらこどもの森", "P29_005": "岐阜県岐阜市福田町2-12", "P29_006": "4", "P29_007": "0", "P29_008": "00", "P29_009": null }, "geometry": { "type": "Point", "coordinates": [ 136.770083618718957, 35.448937856847778 ] } },
{ "type": "Feature", "properties": { "P29_001": "21201", "P29_002": "A221320100039", "P29_003": "16013", "P29_004": "沖ノ橋認定こども園", "P29_005": "岐阜県岐阜市沖ノ橋町2-15", "P29_006": "4", "P29_007": "0", "P29_008": "00", "P29_009": null }, "geometry": { "type": "Point", "coordinates": [ 136.751069170278271, 35.418714503595524 ] } },
{ "type": "Feature", "properties": { "P29_001": "21201", "P29_002": "A221320100048", "P29_003": "16013", "P29_004": "加納西認定こども園", "P29_005": "岐阜県岐阜市加納神明町4-12", "P29_006": "4", "P29_007": "0", "P29_008": "00", "P29_009": null }, "geometry": { "type": "Point", "coordinates": [ 136.750130764540444, 35.403146204479697 ] } },
{ "type": "Feature", "properties": { "P29_001": "21201", "P29_002": "A221320100057", "P29_003": "16013", "P29_004": "ひきえ子ども園", "P29_005": "岐阜県岐阜市日置江5-27", "P29_006": "4", "P29_007": "0", "P29_008": "00", "P29_009": null }, "geometry": { "type": "Point", "coordinates": [ 136.704807650199939, 35.371472469645852 ] } },
{ "type": "Feature", "properties": { "P29_001": "21201", "P29_002": "A221320100066", "P29_003": "16013", "P29_004": "幼保連携型認定こども園カトレヤこども園", "P29_005": "岐阜県岐阜市門屋字野崎55-1", "P29_006": "4", "P29_007": "0", "P29_008": "00", "P29_009": null }, "geometry": { "type": "Point", "coordinates": [ 136.834064996319938, 35.495556000252293 ] } },
{ "type": "Feature", "properties": { "P29_001": "21201", "P29_002": "A221320100075", "P29_003": "16013", "P29_004": "ハートンこまづめ認定こども園", "P29_005": "岐阜県岐阜市東駒爪町17", "P29_006": "4", "P29_007": "0", "P29_008": "00", "P29_009": null }, "geometry": { "type": "Point", "coordinates": [ 136.763876000051596, 35.416482003778647 ] } },
{ "type": "Feature", "properties": { "P29_001": "21201", "P29_002": "A221320100084", "P29_003": "16013", "P29_004": "清流認定こども園", "P29_005": "岐阜県岐阜市岩滝西1-332", "P29_006": "4", "P29_007": "0", "P29_008": "00", "P29_009": null }, "geometry": { "type": "Point", "coordinates": [ 136.844080536766086, 35.43415057260318 ] } },
{ "type": "Feature", "properties": { "P29_001": "21201", "P29_002": "A221320100093", "P29_003": "16013", "P29_004": "梅林こども園", "P29_005": "岐阜県岐阜市中道北238-1", "P29_006": "4", "P29_007": "0", "P29_008": "00", "P29_009": null }, "geometry": { "type": "Point", "coordinates": [ 136.774162998005124, 35.417585002295851 ] } },
{ "type": "Feature", "properties": { "P29_001": "21201", "P29_002": "A221320100100", "P29_003": "16013", "P29_004": "みさとこども園", "P29_005": "岐阜県岐阜市六条東1-13-12", "P29_006": "4", "P29_007": "0", "P29_008": "00", "P29_009": null }, "geometry": { "type": "Point", "coordinates": [ 136.743503999341357, 35.403059002539592 ] } },
{ "type": "Feature", "properties": { "P29_001": "21201", "P29_002": "A221320100119", "P29_003": "16013", "P29_004": "かぐや第二こども園", "P29_005": "岐阜県岐阜市鷺山1768-32", "P29_006": "4", "P29_007": "0", "P29_008": "00", "P29_009": null }, "geometry": { "type": "Point", "coordinates": [ 136.759370366708367, 35.444119528589617 ] } },
{ "type": "Feature", "properties": { "P29_001": "21201", "P29_002": "A221320100128", "P29_003": "16013", "P29_004": "かぐや第一こども園", "P29_005": "岐阜県岐阜市入舟町1-1", "P29_006": "4", "P29_007": "0", "P29_008": "00", "P29_009": null }, "geometry": { "type": "Point", "coordinates": [ 136.77178522719592, 35.41183055126583 ] } },
{ "type": "Feature", "properties": { "P29_001": "21201", "P29_002": "A221320100137", "P29_003": "16013", "P29_004": "かがしまこども園", "P29_005": "岐阜県岐阜市鏡島西1-3-82", "P29_006": "4", "P29_007": "0", "P29_008": "00", "P29_009": null }, "geometry": { "type": "Point", "coordinates": [ 136.715080432569295, 35.412872259212563 ] } },
{ "type": "Feature", "properties": { "P29_001": "21201", "P29_002": "A221320100146", "P29_003": "16013", "P29_004": "かようこども園", "P29_005": "岐阜県岐阜市五坪1-14-1", "P29_006": "4", "P29_007": "0", "P29_008": "00", "P29_009": null }, "geometry": { "type": "Point", "coordinates": [ 136.770676976501704, 35.408125145588123 ] } },
{ "type": "Feature", "properties": { "P29_001": "21202", "P29_002": "A221320200010", "P29_003": "16013", "P29_004": "みつづかこども園", "P29_005": "岐阜県大垣市三塚町411-1", "P29_006": "4", "P29_007": "0", "P29_008": "00", "P29_009": null }, "geometry": { "type": "Point", "coordinates": [ 136.631591471175113, 35.36675010406298 ] } },
{ "type": "Feature", "properties": { "P29_001": "21202", "P29_002": "A221320200029", "P29_003": "16013", "P29_004": "ながさわこども園", "P29_005": "岐阜県大垣市長沢町3-63", "P29_006": "4", "P29_007": "0", "P29_008": "00", "P29_009": null }, "geometry": { "type": "Point", "coordinates": [ 136.641329936555223, 35.355325853386418 ] } },
{ "type": "Feature", "properties": { "P29_001": "21202", "P29_002": "A221320200038", "P29_003": "16013", "P29_004": "むつみこども園", "P29_005": "岐阜県大垣市荒尾町1019", "P29_006": "4", "P29_007": "0", "P29_008": "00", "P29_009": null }, "geometry": { "type": "Point", "coordinates": [ 136.57686599553432, 35.377650001034823 ] } },
{ "type": "Feature", "properties": { "P29_001": "21202", "P29_002": "A221320200047", "P29_003": "16013", "P29_004": "あおいこども園", "P29_005": "岐阜県大垣市中曽根町685", "P29_006": "4", "P29_007": "0", "P29_008": "00", "P29_009": null }, "geometry": { "type": "Point", "coordinates": [ 136.584957817620847, 35.35745613016784 ] } },
{ "type": "Feature", "properties": { "P29_001": "21202", "P29_002": "A221320200056", "P29_003": "16013", "P29_004": "幼保連携型認定こども園浅草ひかりにこにこ園", "P29_005": "岐阜県大垣市浅草3-48", "P29_006": "4", "P29_007": "0", "P29_008": "00", "P29_009": null }, "geometry": { "type": "Point", "coordinates": [ 136.612891785128852, 35.310623304844604 ] } },
{ "type": "Feature", "properties": { "P29_001": "21202", "P29_002": "A221320200065", "P29_003": "16013", "P29_004": "幼保連携型認定こども園かみいしづこどもの森", "P29_005": "岐阜県大垣市上石津町下多良694-2", "P29_006": "4", "P29_007": "0", "P29_008": "00", "P29_009": null }, "geometry": { "type": "Point", "coordinates": [ 136.470804976352071, 35.291977080638034 ] } },
{ "type": "Feature", "properties": { "P29_001": "21204", "P29_002": "A221320400018", "P29_003": "16013", "P29_004": "幼保連携型認定こども園ジョイフル多治見こども園", "P29_005": "岐阜県多治見市音羽町1-35-1", "P29_006": "4", "P29_007": "0", "P29_008": "00", "P29_009": null }, "geometry": { "type": "Point", "coordinates": [ 137.119168376483827, 35.336469465024429 ] } },
{ "type": "Feature", "properties": { "P29_001": "21204", "P29_002": "A221320400027", "P29_003": "16013", "P29_004": "前畑保育園", "P29_005": "岐阜県多治見市幸町7-2-2", "P29_006": "4", "P29_007": "0", "P29_008": "00", "P29_009": null }, "geometry": { "type": "Point", "coordinates": [ 137.089298362293249, 35.354075449039939 ] } },
{ "type": "Feature", "properties": { "P29_001": "21205", "P29_002": "A221320500017", "P29_003": "16013", "P29_004": "関幼稚園", "P29_005": "岐阜県関市日ノ出町1-9", "P29_006": "4", "P29_007": "0", "P29_008": "00", "P29_009": null }, "geometry": { "type": "Point", "coordinates": [ 136.914160819481395, 35.484362118040785 ] } },
{ "type": "Feature", "properties": { "P29_001": "21206", "P29_002": "A221320600016", "P29_003": "16013", "P29_004": "にし　こまの森", "P29_005": "岐阜県中津川市駒場2416-1", "P29_006": "4", "P29_007": "0", "P29_008": "00", "P29_009": null }, "geometry": { "type": "Point", "coordinates": [ 137.473489868999792, 35.493820537986295 ] } },
{ "type": "Feature", "properties": { "P29_001": "21206", "P29_002": "A221320600025", "P29_003": "16013", "P29_004": "南さくら幼稚園", "P29_005": "岐阜県中津川市中津川2358-1", "P29_006": "4", "P29_007": "0", "P29_008": "00", "P29_009": null }, "geometry": { "type": "Point", "coordinates": [ 137.509938215325406, 35.487975083863354 ] } },
{ "type": "Feature", "properties": { "P29_001": "21207", "P29_002": "A221320700015", "P29_003": "16013", "P29_004": "美濃保育園", "P29_005": "岐阜県美濃市1765-4", "P29_006": "4", "P29_007": "0", "P29_008": "00", "P29_009": null }, "geometry": { "type": "Point", "coordinates": [ 136.917503270029016, 35.546294301634276 ] } },
{ "type": "Feature", "properties": { "P29_001": "21207", "P29_002": "A221320700024", "P29_003": "16013", "P29_004": "下牧こども園", "P29_005": "岐阜県美濃市長瀬545", "P29_006": "4", "P29_007": "0", "P29_008": "00", "P29_009": null }, "geometry": { "type": "Point", "coordinates": [ 136.900475345825669, 35.572577336097481 ] } },
{ "type": "Feature", "properties": { "P29_001": "21207", "P29_002": "A221320700033", "P29_003": "16013", "P29_004": "幼保連携型認定こども園牧谷保育園", "P29_005": "岐阜県美濃市上野2-2", "P29_006": "4", "P29_007": "0", "P29_008": "00", "P29_009": null }, "geometry": { "type": "Point", "coordinates": [ 136.861133239043028, 35.585737357892995 ] } },
{ "type": "Feature", "properties": { "P29_001": "21207", "P29_002": "A221320700042", "P29_003": "16013", "P29_004": "美濃ふたばこども園", "P29_005": "岐阜県美濃市東市場町2625-1", "P29_006": "4", "P29_007": "0", "P29_008": "00", "P29_009": null }, "geometry": { "type": "Point", "coordinates": [ 136.913305707468623, 35.544210669904039 ] } },
{ "type": "Feature", "properties": { "P29_001": "21208", "P29_002": "A221320800014", "P29_003": "16013", "P29_004": "幼保連携型認定こども園中京こども園", "P29_005": "岐阜県瑞浪市土岐町2197-1", "P29_006": "4", "P29_007": "0", "P29_008": "00", "P29_009": null }, "geometry": { "type": "Point", "coordinates": [ 137.263710571788721, 35.385143044239165 ] } },
{ "type": "Feature", "properties": { "P29_001": "21209", "P29_002": "A221320900013", "P29_003": "16013", "P29_004": "まさきこども園", "P29_005": "岐阜県羽島市正木町坂丸2-30", "P29_006": "4", "P29_007": "0", "P29_008": "00", "P29_009": null }, "geometry": { "type": "Point", "coordinates": [ 136.732439041233249, 35.332806239839755 ] } },
{ "type": "Feature", "properties": { "P29_001": "21209", "P29_002": "A221320900022", "P29_003": "16013", "P29_004": "ひかり泉こども園", "P29_005": "岐阜県羽島市正木町新井348", "P29_006": "4", "P29_007": "0", "P29_008": "00", "P29_009": null }, "geometry": { "type": "Point", "coordinates": [ 136.726926474706431, 35.318834714588654 ] } },
{ "type": "Feature", "properties": { "P29_001": "21209", "P29_002": "A221320900031", "P29_003": "16013", "P29_004": "くわばらこども園", "P29_005": "岐阜県羽島市桑原町八神2253-2", "P29_006": "4", "P29_007": "0", "P29_008": "00", "P29_009": null }, "geometry": { "type": "Point", "coordinates": [ 136.689652994695365, 35.26674399897302 ] } },
{ "type": "Feature", "properties": { "P29_001": "21211", "P29_002": "A221321100019", "P29_003": "16013", "P29_004": "幼保連携型認定こども園たから幼稚園", "P29_005": "岐阜県美濃加茂市太田町1735", "P29_006": "4", "P29_007": "0", "P29_008": "00", "P29_009": null }, "geometry": { "type": "Point", "coordinates": [ 137.014541159278025, 35.446955641520582 ] } },
{ "type": "Feature", "properties": { "P29_001": "21212", "P29_002": "A221321200018", "P29_003": "16013", "P29_004": "ときつこども園", "P29_005": "岐阜県土岐市土岐津町高山427-3", "P29_006": "4", "P29_007": "0", "P29_008": "00", "P29_009": null }, "geometry": { "type": "Point", "coordinates": [ 137.191509139835347, 35.35424645556617 ] } },
{ "type": "Feature", "properties": { "P29_001": "21213", "P29_002": "A221321300017", "P29_003": "16013", "P29_004": "認定こども園各務保育園", "P29_005": "岐阜県各務原市各務おがせ町4-128-1", "P29_006": "4", "P29_007": "0", "P29_008": "00", "P29_009": null }, "geometry": { "type": "Point", "coordinates": [ 136.900195000477339, 35.416959995323367 ] } },
{ "type": "Feature", "properties": { "P29_001": "21213", "P29_002": "A221321300026", "P29_003": "16013", "P29_004": "かわしま学びの庭", "P29_005": "岐阜県各務原市川島松原町274", "P29_006": "4", "P29_007": "0", "P29_008": "00", "P29_009": null }, "geometry": { "type": "Point", "coordinates": [ 136.823547945275521, 35.365290232556475 ] } },
{ "type": "Feature", "properties": { "P29_001": "21213", "P29_002": "A221321300035", "P29_003": "16013", "P29_004": "かわしま育ちの庭", "P29_005": "岐阜県各務原市川島松原町234-2", "P29_006": "4", "P29_007": "0", "P29_008": "00", "P29_009": null }, "geometry": { "type": "Point", "coordinates": [ 136.823883998182367, 35.365558996959912 ] } },
{ "type": "Feature", "properties": { "P29_001": "21213", "P29_002": "A221321300044", "P29_003": "16013", "P29_004": "さらき遊びの庭", "P29_005": "岐阜県各務原市小佐野町3-201", "P29_006": "4", "P29_007": "0", "P29_008": "00", "P29_009": null }, "geometry": { "type": "Point", "coordinates": [ 136.832046402368832, 35.388543526333216 ] } },
{ "type": "Feature", "properties": { "P29_001": "21215", "P29_002": "A221321500015", "P29_003": "16013", "P29_004": "高富保育園", "P29_005": "岐阜県山県市高富1048", "P29_006": "4", "P29_007": "0", "P29_008": "00", "P29_009": null }, "geometry": { "type": "Point", "coordinates": [ 136.789078900876746, 35.495219851821233 ] } },
{ "type": "Feature", "properties": { "P29_001": "21216", "P29_002": "A221321600014", "P29_003": "16013", "P29_004": "清流みずほ認定こども園", "P29_005": "岐阜県瑞穂市森557", "P29_006": "4", "P29_007": "0", "P29_008": "00", "P29_009": null }, "geometry": { "type": "Point", "coordinates": [ 136.655223072868694, 35.417274806170674 ] } },
{ "type": "Feature", "properties": { "P29_001": "21219", "P29_002": "A221321900011", "P29_003": "16013", "P29_004": "白鳥こども園", "P29_005": "岐阜県郡上市白鳥町白鳥75-1", "P29_006": "4", "P29_007": "0", "P29_008": "00", "P29_009": null }, "geometry": { "type": "Point", "coordinates": [ 136.861409996243566, 35.88231299837792 ] } },
{ "type": "Feature", "properties": { "P29_001": "21302", "P29_002": "A221330200019", "P29_003": "16013", "P29_004": "岐南さくら認定こども園けやきの杜", "P29_005": "岐阜県羽島郡岐南町八剣1-105", "P29_006": "4", "P29_007": "0", "P29_008": "00", "P29_009": null }, "geometry": { "type": "Point", "coordinates": [ 136.782747729019974, 35.392777664763855 ] } },
{ "type": "Feature", "properties": { "P29_001": "21302", "P29_002": "A221330200028", "P29_003": "16013", "P29_004": "岐南さくら南認定こども園", "P29_005": "岐阜県羽島郡岐南町徳田6-15", "P29_006": "4", "P29_007": "0", "P29_008": "00", "P29_009": null }, "geometry": { "type": "Point", "coordinates": [ 136.773367767139945, 35.380065330625612 ] } },
{ "type": "Feature", "properties": { "P29_001": "21361", "P29_002": "A221336100017", "P29_003": "16013", "P29_004": "ハチスチルドレンズセンター", "P29_005": "岐阜県不破郡垂井町栗原1892-1", "P29_006": "4", "P29_007": "0", "P29_008": "00", "P29_009": null }, "geometry": { "type": "Point", "coordinates": [ 136.543102237363769, 35.33703620560636 ] } },
{ "type": "Feature", "properties": { "P29_001": "21403", "P29_002": "A221340300017", "P29_003": "16013", "P29_004": "大野こども園", "P29_005": "岐阜県揖斐郡大野町大字大野240-1", "P29_006": "4", "P29_007": "0", "P29_008": "00", "P29_009": null }, "geometry": { "type": "Point", "coordinates": [ 136.636721269014174, 35.472350491728783 ] } },
{ "type": "Feature", "properties": { "P29_001": "21403", "P29_002": "A221340300026", "P29_003": "16013", "P29_004": "認定こども園うぐいす", "P29_005": "岐阜県揖斐郡大野町公郷313", "P29_006": "4", "P29_007": "0", "P29_008": "00", "P29_009": null }, "geometry": { "type": "Point", "coordinates": [ 136.611364382708103, 35.460785064541206 ] } },
{ "type": "Feature", "properties": { "P29_001": "21403", "P29_002": "A221340300035", "P29_003": "16013", "P29_004": "豊木認定こども園", "P29_005": "岐阜県揖斐郡大野町桜大門538", "P29_006": "4", "P29_007": "0", "P29_008": "00", "P29_009": null }, "geometry": { "type": "Point", "coordinates": [ 136.634466351425374, 35.479374264829161 ] } },
{ "type": "Feature", "properties": { "P29_001": "21403", "P29_002": "A221340300044", "P29_003": "16013", "P29_004": "幼保連携型認定こども園東さくらこども園", "P29_005": "岐阜県揖斐郡大野町大字相羽763-8", "P29_006": "4", "P29_007": "0", "P29_008": "00", "P29_009": null }, "geometry": { "type": "Point", "coordinates": [ 136.63866317913164, 35.459739126066786 ] } },
{ "type": "Feature", "properties": { "P29_001": "21404", "P29_002": "A221340400016", "P29_003": "16013", "P29_004": "池田こども園", "P29_005": "岐阜県揖斐郡池田町白鳥115", "P29_006": "4", "P29_007": "0", "P29_008": "00", "P29_009": null }, "geometry": { "type": "Point", "coordinates": [ 136.59361400446744, 35.446335997295058 ] } },
{ "type": "Feature", "properties": { "P29_001": "21404", "P29_002": "A221340400025", "P29_003": "16013", "P29_004": "みどりの森八幡こども園", "P29_005": "岐阜県揖斐郡池田町八幡1277-1", "P29_006": "4", "P29_007": "0", "P29_008": "00", "P29_009": null }, "geometry": { "type": "Point", "coordinates": [ 136.577229175847577, 35.427948779939619 ] } },
{ "type": "Feature", "properties": { "P29_001": "21404", "P29_002": "A221340400034", "P29_003": "16013", "P29_004": "市橋保育園", "P29_005": "岐阜県揖斐郡池田町市橋1588-1", "P29_006": "4", "P29_007": "0", "P29_008": "00", "P29_009": null }, "geometry": { "type": "Point", "coordinates": [ 136.574408529146353, 35.412106255863762 ] } },
{ "type": "Feature", "properties": { "P29_001": "21404", "P29_002": "A221340400043", "P29_003": "16013", "P29_004": "片山保育園", "P29_005": "岐阜県揖斐郡池田町片山2938-1", "P29_006": "4", "P29_007": "0", "P29_008": "00", "P29_009": null }, "geometry": { "type": "Point", "coordinates": [ 136.568353653085637, 35.422257393883939 ] } },
{ "type": "Feature", "properties": { "P29_001": "21501", "P29_002": "A221350100018", "P29_003": "16013", "P29_004": "遊々こども園", "P29_005": "岐阜県加茂郡坂祝町黒岩583-2", "P29_006": "4", "P29_007": "0", "P29_008": "00", "P29_009": null }, "geometry": { "type": "Point", "coordinates": [ 136.972707004918334, 35.445288997612394 ] } }
]
}
