{
"type": "FeatureCollection",
"name": "geo_21_特定施設入居者生活介護（有料老人ホーム）",
"crs": { "type": "name", "properties": { "name": "urn:ogc:def:crs:OGC:1.3:CRS84" } },
"features": [
{ "type": "Feature", "properties": { "内容": "介護付有料老人ホーム　ほんじょうの憩【特定施設入居者生活介護（有料老人ホーム）】岐阜県岐阜市本荘1941番24", "url": "https://www.kaigokensaku.mhlw.go.jp/21/index.php?action_kouhyou_detail_004_kani=true&JigyosyoCd=2170105395-00&ServiceCd=331&Type=search", "url2": "https://www.frontier-gp.jp/nursing-home-search/detail/honjou" }, "geometry": { "type": "Point", "coordinates": [ 136.732285398811285, 35.417106497865682 ] } },
{ "type": "Feature", "properties": { "内容": "ニチイケアセンター茜部　ニチイのきらめき【特定施設入居者生活介護（有料老人ホーム）】岐阜県岐阜市茜部野瀬1-41-2", "url": "https://www.kaigokensaku.mhlw.go.jp/21/index.php?action_kouhyou_detail_004_kani=true&JigyosyoCd=2170105072-00&ServiceCd=331&Type=search", "url2": "http://www.nichiigakkan.co.jp/" }, "geometry": { "type": "Point", "coordinates": [ 136.744949200000065, 35.3798563 ] } },
{ "type": "Feature", "properties": { "内容": "介護付有料老人ホーム　ジョイフル岐阜駅【特定施設入居者生活介護（有料老人ホーム）】岐阜県岐阜市高砂町一丁目17番地岐阜イーストライジング24", "url": "https://www.kaigokensaku.mhlw.go.jp/21/index.php?action_kouhyou_detail_004_kani=true&JigyosyoCd=2170114058-00&ServiceCd=331&Type=search", "url2": "http://www.sun-vision.or.jp" }, "geometry": { "type": "Point", "coordinates": [ 136.759411499999942, 35.4101011 ] } },
{ "type": "Feature", "properties": { "内容": "介護付有料老人ホーム　ジョイフル岐阜駅Ⅱ【特定施設入居者生活介護（有料老人ホーム）】岐阜県岐阜市高砂町一丁目17番地岐阜イーストライジング24", "url": "https://www.kaigokensaku.mhlw.go.jp/21/index.php?action_kouhyou_detail_004_kani=true&JigyosyoCd=2170114066-00&ServiceCd=331&Type=search", "url2": "http://www.sun-vision.or.jp" }, "geometry": { "type": "Point", "coordinates": [ 136.759411499999942, 35.4101011 ] } },
{ "type": "Feature", "properties": { "内容": "介護付有料老人ホーム　ジョイフル岐阜駅Ⅲ【特定施設入居者生活介護（有料老人ホーム）】岐阜県岐阜市高砂町1丁目17番地岐阜イーストライジング24", "url": "https://www.kaigokensaku.mhlw.go.jp/21/index.php?action_kouhyou_detail_004_kani=true&JigyosyoCd=2170114173-00&ServiceCd=331&Type=search", "url2": "http://www.sun-vision.or.jp" }, "geometry": { "type": "Point", "coordinates": [ 136.759411499999942, 35.4101011 ] } },
{ "type": "Feature", "properties": { "内容": "ベルデ岐阜長良【特定施設入居者生活介護（有料老人ホーム）】岐阜県岐阜市松風町二丁目１６番", "url": "https://www.kaigokensaku.mhlw.go.jp/21/index.php?action_kouhyou_detail_004_kani=true&JigyosyoCd=2170101931-00&ServiceCd=331&Type=search", "url2": "http://www.careverde.com/" }, "geometry": { "type": "Point", "coordinates": [ 136.767744099999959, 35.4448011 ] } },
{ "type": "Feature", "properties": { "内容": "介護付　有料老人ホーム　憩いの里・大垣【特定施設入居者生活介護（有料老人ホーム）】岐阜県大垣市林町7丁目982番地1", "url": "https://www.kaigokensaku.mhlw.go.jp/21/index.php?action_kouhyou_detail_004_kani=true&JigyosyoCd=2172101517-00&ServiceCd=331&Type=search", "url2": "https://ikoinosato-ogaki.com" }, "geometry": { "type": "Point", "coordinates": [ 136.62479, 35.3758104 ] } },
{ "type": "Feature", "properties": { "内容": "ロイヤルステージ大垣【特定施設入居者生活介護（有料老人ホーム）】岐阜県大垣市外渕２丁目８２番地", "url": "https://www.kaigokensaku.mhlw.go.jp/21/index.php?action_kouhyou_detail_004_kani=true&JigyosyoCd=2172102705-00&ServiceCd=331&Type=search", "url2": "http://royal-ogaki.n-denken.co.jp/" }, "geometry": { "type": "Point", "coordinates": [ 136.611468967953442, 35.329014327840646 ] } },
{ "type": "Feature", "properties": { "内容": "ベストライフ岐阜【特定施設入居者生活介護（有料老人ホーム）】岐阜県大垣市宝和町20", "url": "https://www.kaigokensaku.mhlw.go.jp/21/index.php?action_kouhyou_detail_004_kani=true&JigyosyoCd=2172102804-00&ServiceCd=331&Type=search", "url2": null }, "geometry": { "type": "Point", "coordinates": [ 136.5984231, 35.3687631 ] } },
{ "type": "Feature", "properties": { "内容": "シニアホーム高山【特定施設入居者生活介護（有料老人ホーム）】岐阜県高山市山田町781-58", "url": "https://www.kaigokensaku.mhlw.go.jp/21/index.php?action_kouhyou_detail_004_kani=true&JigyosyoCd=2172700375-00&ServiceCd=331&Type=search", "url2": "http://www.sh-takayama.com" }, "geometry": { "type": "Point", "coordinates": [ 137.227250199999958, 36.1414685 ] } },
{ "type": "Feature", "properties": { "内容": "介護付有料老人ホーム旭ヶ丘生楽館【特定施設入居者生活介護（有料老人ホーム）】岐阜県多治見市旭ヶ丘7-18-3", "url": "https://www.kaigokensaku.mhlw.go.jp/21/index.php?action_kouhyou_detail_004_kani=true&JigyosyoCd=2171101328-00&ServiceCd=331&Type=search", "url2": "https://chishinkai.or.jp/archives/post_home/280" }, "geometry": { "type": "Point", "coordinates": [ 137.099581899999947, 35.366595 ] } },
{ "type": "Feature", "properties": { "内容": "介護付有料老人ホーム　慶城【特定施設入居者生活介護（有料老人ホーム）】岐阜県多治見市旭ヶ丘1丁目８６番地７", "url": "https://www.kaigokensaku.mhlw.go.jp/21/index.php?action_kouhyou_detail_004_kani=true&JigyosyoCd=2171101427-00&ServiceCd=331&Type=search", "url2": "https://dreamfield.info" }, "geometry": { "type": "Point", "coordinates": [ 137.096362799999952, 35.3661727 ] } },
{ "type": "Feature", "properties": { "内容": "介護付有料老人ホーム多治見生楽館【特定施設入居者生活介護（有料老人ホーム）】岐阜県多治見市滝呂町1-79-1", "url": "https://www.kaigokensaku.mhlw.go.jp/21/index.php?action_kouhyou_detail_004_kani=true&JigyosyoCd=2171102490-00&ServiceCd=331&Type=search", "url2": "www.chishinkai.or.jp" }, "geometry": { "type": "Point", "coordinates": [ 137.135222700000014, 35.3137116 ] } },
{ "type": "Feature", "properties": { "内容": "特定施設入居者生活介護　あすか【特定施設入居者生活介護（有料老人ホーム）】岐阜県関市小瀬1109-1", "url": "https://www.kaigokensaku.mhlw.go.jp/21/index.php?action_kouhyou_detail_004_kani=true&JigyosyoCd=2170201228-00&ServiceCd=331&Type=search", "url2": "http://askaseki.net/seki.html" }, "geometry": { "type": "Point", "coordinates": [ 136.883002017196674, 35.491066045172751 ] } },
{ "type": "Feature", "properties": { "内容": "小瀬の杜あかね【特定施設入居者生活介護（有料老人ホーム）】岐阜県関市小瀬1505-1", "url": "https://www.kaigokensaku.mhlw.go.jp/21/index.php?action_kouhyou_detail_004_kani=true&JigyosyoCd=2170201319-00&ServiceCd=331&Type=search", "url2": "http://akane-care.jp/" }, "geometry": { "type": "Point", "coordinates": [ 136.889764099999979, 35.4892074 ] } },
{ "type": "Feature", "properties": { "内容": "サン太陽ホーム中津川【特定施設入居者生活介護（有料老人ホーム）】岐阜県中津川市中津川１２３４-２６", "url": "https://www.kaigokensaku.mhlw.go.jp/21/index.php?action_kouhyou_detail_004_kani=true&JigyosyoCd=2171501014-00&ServiceCd=331&Type=search", "url2": "http://santaiyou.com" }, "geometry": { "type": "Point", "coordinates": [ 137.513458905123883, 35.500120011172065 ] } },
{ "type": "Feature", "properties": { "内容": "ベストライフ中津川【特定施設入居者生活介護（有料老人ホーム）】岐阜県中津川市北野町4番20号ベストライフ中津川", "url": "https://www.kaigokensaku.mhlw.go.jp/21/index.php?action_kouhyou_detail_004_kani=true&JigyosyoCd=2171501311-00&ServiceCd=331&Type=search", "url2": null }, "geometry": { "type": "Point", "coordinates": [ 137.4999685, 35.5055524 ] } },
{ "type": "Feature", "properties": { "内容": "サロン・ド・フレール羽島【特定施設入居者生活介護（有料老人ホーム）】岐阜県羽島市竹鼻町丸の内９丁目５３番地", "url": "https://www.kaigokensaku.mhlw.go.jp/21/index.php?action_kouhyou_detail_004_kani=true&JigyosyoCd=2170400689-00&ServiceCd=331&Type=search", "url2": "http://estate15.com" }, "geometry": { "type": "Point", "coordinates": [ 136.695005900000069, 35.327434 ] } },
{ "type": "Feature", "properties": { "内容": "有料老人ホーム更紗【特定施設入居者生活介護（有料老人ホーム）】岐阜県美濃加茂市中部台6丁目1番地8有料老人ホーム　更紗", "url": "https://www.kaigokensaku.mhlw.go.jp/21/index.php?action_kouhyou_detail_004_kani=true&JigyosyoCd=2171200534-00&ServiceCd=331&Type=search", "url2": "https://www.ohta-hospital.jp" }, "geometry": { "type": "Point", "coordinates": [ 137.017474799999974, 35.4625519 ] } },
{ "type": "Feature", "properties": { "内容": "介護付有料老人ホームかがみはらの憩【特定施設入居者生活介護（有料老人ホーム）】岐阜県各務原市大野町２－２２５－１かがみはらの憩", "url": "https://www.kaigokensaku.mhlw.go.jp/21/index.php?action_kouhyou_detail_004_kani=true&JigyosyoCd=2170501437-00&ServiceCd=331&Type=search", "url2": "https://www.frontier-gp.jp/nursing-home-search/detail/kagamihara" }, "geometry": { "type": "Point", "coordinates": [ 136.818931900000052, 35.3877984 ] } },
{ "type": "Feature", "properties": { "内容": "介護付き有料老人ホーム　いずみ野【特定施設入居者生活介護（有料老人ホーム）】岐阜県各務原市川島緑町一丁目138番1", "url": "https://www.kaigokensaku.mhlw.go.jp/21/index.php?action_kouhyou_detail_004_kani=true&JigyosyoCd=2170501494-00&ServiceCd=331&Type=search", "url2": "http://www.izumi-no.com" }, "geometry": { "type": "Point", "coordinates": [ 136.818387520762599, 35.365320424218851 ] } },
{ "type": "Feature", "properties": { "内容": "はぴね可児【特定施設入居者生活介護（有料老人ホーム）】岐阜県可児市川合北三丁目１３０", "url": "https://www.kaigokensaku.mhlw.go.jp/21/index.php?action_kouhyou_detail_004_kani=true&JigyosyoCd=2173101011-00&ServiceCd=331&Type=search", "url2": "http://www.greenlife-inc.co.jp" }, "geometry": { "type": "Point", "coordinates": [ 137.048364200000037, 35.4408411 ] } },
{ "type": "Feature", "properties": { "内容": "コスモス苑「仲良し」【特定施設入居者生活介護（有料老人ホーム）】岐阜県郡上市白鳥町白鳥412番地１", "url": "https://www.kaigokensaku.mhlw.go.jp/21/index.php?action_kouhyou_detail_004_kani=true&JigyosyoCd=2171000751-00&ServiceCd=331&Type=search", "url2": "https://fukuju-kai.com" }, "geometry": { "type": "Point", "coordinates": [ 136.858986068706997, 35.887380924971922 ] } },
{ "type": "Feature", "properties": { "内容": "サーラ郡上【特定施設入居者生活介護（有料老人ホーム）】岐阜県郡上市八幡町相生2304-1サーラ郡上", "url": "https://www.kaigokensaku.mhlw.go.jp/21/index.php?action_kouhyou_detail_004_kani=true&JigyosyoCd=2171000827-00&ServiceCd=331&Type=search", "url2": "http://sara-gujyo.com" }, "geometry": { "type": "Point", "coordinates": [ 136.950269, 35.7340255 ] } },
{ "type": "Feature", "properties": { "内容": "有料老人ホームさんさんハート岐南【特定施設入居者生活介護（有料老人ホーム）】岐阜県羽島郡岐南町上印食８丁目９２番地有料老人ホームさんさんハート岐南", "url": "https://www.kaigokensaku.mhlw.go.jp/21/index.php?action_kouhyou_detail_004_kani=true&JigyosyoCd=2170600742-00&ServiceCd=331&Type=search", "url2": "http://sunsunheart.jp/" }, "geometry": { "type": "Point", "coordinates": [ 136.788371699999971, 35.3895028 ] } },
{ "type": "Feature", "properties": { "内容": "介護付有料老人ホーム　ビ・アバンス門間【特定施設入居者生活介護（有料老人ホーム）】岐阜県羽島郡笠松町門間５８２", "url": "https://www.kaigokensaku.mhlw.go.jp/21/index.php?action_kouhyou_detail_004_kani=true&JigyosyoCd=2170600965-00&ServiceCd=331&Type=search", "url2": "http://www.toujinkai.sakuraweb.com" }, "geometry": { "type": "Point", "coordinates": [ 136.732492928697212, 35.35793117128155 ] } },
{ "type": "Feature", "properties": { "内容": "介護付有料老人ホ－ム坂祝生楽館【特定施設入居者生活介護（有料老人ホーム）】岐阜県加茂郡坂祝町黒岩386番1坂祝生楽館", "url": "https://www.kaigokensaku.mhlw.go.jp/21/index.php?action_kouhyou_detail_004_kani=true&JigyosyoCd=2171300888-00&ServiceCd=331&Type=search", "url2": "http://www.kirakukan.co.jp" }, "geometry": { "type": "Point", "coordinates": [ 136.9732954214264, 35.440734837354803 ] } }
]
}
