{
"type": "FeatureCollection",
"name": "geo_21_特定福祉用具販売",
"crs": { "type": "name", "properties": { "name": "urn:ogc:def:crs:OGC:1.3:CRS84" } },
"features": [
{ "type": "Feature", "properties": { "内容": "株式会社　三和サービス【特定福祉用具販売】岐阜県岐阜市西鶉1丁目52番地", "url": "https://www.kaigokensaku.mhlw.go.jp/21/index.php?action_kouhyou_detail_004_kani=true&JigyosyoCd=2170110312-00&ServiceCd=410&Type=search", "url2": "http://www.group-sanwa.co.jp/index.html" }, "geometry": { "type": "Point", "coordinates": [ 136.726501399999961, 35.383975300000024 ] } },
{ "type": "Feature", "properties": { "内容": "株式会社マルエイ【特定福祉用具販売】岐阜県岐阜市入舟町4丁目8番地の1", "url": "https://www.kaigokensaku.mhlw.go.jp/21/index.php?action_kouhyou_detail_004_kani=true&JigyosyoCd=2170113258-00&ServiceCd=410&Type=search", "url2": "http://www.maruei-gas.co.jp/" }, "geometry": { "type": "Point", "coordinates": [ 136.780977200000052, 35.4115053 ] } },
{ "type": "Feature", "properties": { "内容": "福祉サポート夢咲【特定福祉用具販売】岐阜県関市平賀町4-52-1", "url": "https://www.kaigokensaku.mhlw.go.jp/21/index.php?action_kouhyou_detail_004_kani=true&JigyosyoCd=2170201509-00&ServiceCd=410&Type=search", "url2": "https://tenma0404.com/" }, "geometry": { "type": "Point", "coordinates": [ 136.9314264, 35.4838485 ] } },
{ "type": "Feature", "properties": { "内容": "Liv【特定福祉用具販売】岐阜県岐阜市柳津町梅松4丁目19-2", "url": "https://www.kaigokensaku.mhlw.go.jp/21/index.php?action_kouhyou_detail_004_kani=true&JigyosyoCd=2170114363-00&ServiceCd=410&Type=search", "url2": null }, "geometry": { "type": "Point", "coordinates": [ 136.741335284566958, 35.362728159618115 ] } },
{ "type": "Feature", "properties": { "内容": "中部化成薬品株式会社【特定福祉用具販売】岐阜県岐阜市秋津町５番地", "url": "https://www.kaigokensaku.mhlw.go.jp/21/index.php?action_kouhyou_detail_004_kani=true&JigyosyoCd=2170100446-00&ServiceCd=410&Type=search", "url2": "https://www.chubukasei.jp/" }, "geometry": { "type": "Point", "coordinates": [ 136.762470200000053, 35.4239205 ] } },
{ "type": "Feature", "properties": { "内容": "合資会社イング【特定福祉用具販売】岐阜県岐阜市下土居３丁目１番１２号", "url": "https://www.kaigokensaku.mhlw.go.jp/21/index.php?action_kouhyou_detail_004_kani=true&JigyosyoCd=2170100222-00&ServiceCd=410&Type=search", "url2": "https://g-ing.co.jp" }, "geometry": { "type": "Point", "coordinates": [ 136.7578502, 35.4544635 ] } },
{ "type": "Feature", "properties": { "内容": "株式会社美濃庄【特定福祉用具販売】岐阜県岐阜市六条北２丁目１２番８号", "url": "https://www.kaigokensaku.mhlw.go.jp/21/index.php?action_kouhyou_detail_004_kani=true&JigyosyoCd=2170100339-00&ServiceCd=410&Type=search", "url2": "https://www.minosho.com" }, "geometry": { "type": "Point", "coordinates": [ 136.741712399999983, 35.4013815 ] } },
{ "type": "Feature", "properties": { "内容": "ヤガミホームヘルスセンター岐阜【特定福祉用具販売】岐阜県岐阜市平和通一丁目6番地1", "url": "https://www.kaigokensaku.mhlw.go.jp/21/index.php?action_kouhyou_detail_004_kani=true&JigyosyoCd=2170100545-00&ServiceCd=410&Type=search", "url2": "https://www.yagami.co.jp/yhhc/" }, "geometry": { "type": "Point", "coordinates": [ 136.773037258303106, 35.446277917705714 ] } },
{ "type": "Feature", "properties": { "内容": "株式会社ナイスワーク【特定福祉用具販売】岐阜県岐阜市東鶉三丁目76番地2", "url": "https://www.kaigokensaku.mhlw.go.jp/21/index.php?action_kouhyou_detail_004_kani=true&JigyosyoCd=2170100560-00&ServiceCd=410&Type=search", "url2": "http://www.nicework.co.jp" }, "geometry": { "type": "Point", "coordinates": [ 136.740624600000046, 35.3823255 ] } },
{ "type": "Feature", "properties": { "内容": "株式会社アイボリー医療住設【特定福祉用具販売】岐阜県岐阜市薮田南３丁目７番１７号", "url": "https://www.kaigokensaku.mhlw.go.jp/21/index.php?action_kouhyou_detail_004_kani=true&JigyosyoCd=2170100701-00&ServiceCd=410&Type=search", "url2": null }, "geometry": { "type": "Point", "coordinates": [ 136.7230462, 35.3889053 ] } },
{ "type": "Feature", "properties": { "内容": "株式会社ヒューマンサポートサービス優【特定福祉用具販売】岐阜県岐阜市三田洞８５８番地７", "url": "https://www.kaigokensaku.mhlw.go.jp/21/index.php?action_kouhyou_detail_004_kani=true&JigyosyoCd=2170102103-00&ServiceCd=410&Type=search", "url2": null }, "geometry": { "type": "Point", "coordinates": [ 136.788182900000038, 35.4793406 ] } },
{ "type": "Feature", "properties": { "内容": "凰バリアフリーラボ【特定福祉用具販売】岐阜県岐阜市芥見南山３丁目５番３１号", "url": "https://www.kaigokensaku.mhlw.go.jp/21/index.php?action_kouhyou_detail_004_kani=true&JigyosyoCd=2170102400-00&ServiceCd=410&Type=search", "url2": "https://www.ohtori.net/" }, "geometry": { "type": "Point", "coordinates": [ 136.861111284655777, 35.456534674673705 ] } },
{ "type": "Feature", "properties": { "内容": "けやきサポート【特定福祉用具販売】岐阜県岐阜市加野6丁目37-25", "url": "https://www.kaigokensaku.mhlw.go.jp/21/index.php?action_kouhyou_detail_004_kani=true&JigyosyoCd=2170103127-00&ServiceCd=410&Type=search", "url2": "http://keyakisp.com/" }, "geometry": { "type": "Point", "coordinates": [ 136.825437, 35.4696346 ] } },
{ "type": "Feature", "properties": { "内容": "株式会社愛安住　岐阜営業所【特定福祉用具販売】岐阜県岐阜市宇佐南2-9-6", "url": "https://www.kaigokensaku.mhlw.go.jp/21/index.php?action_kouhyou_detail_004_kani=true&JigyosyoCd=2170103358-00&ServiceCd=410&Type=search", "url2": "http://www.aianju.co.jp" }, "geometry": { "type": "Point", "coordinates": [ 136.735185900000033, 35.3948712 ] } },
{ "type": "Feature", "properties": { "内容": "パナソニックエイジフリー介護チェーン長良(株)五月商店【特定福祉用具販売】岐阜県岐阜市福光東3-1-11", "url": "https://www.kaigokensaku.mhlw.go.jp/21/index.php?action_kouhyou_detail_004_kani=true&JigyosyoCd=2170103465-00&ServiceCd=410&Type=search", "url2": "http://www.satsuki-5.co.jp" }, "geometry": { "type": "Point", "coordinates": [ 136.775241389181161, 35.45497003910247 ] } },
{ "type": "Feature", "properties": { "内容": "介護レンタルの山田屋【特定福祉用具販売】岐阜県岐阜市島栄町１丁目３３番地シャトーシャルマン３D", "url": "https://www.kaigokensaku.mhlw.go.jp/21/index.php?action_kouhyou_detail_004_kani=true&JigyosyoCd=2170103770-00&ServiceCd=410&Type=search", "url2": "https://www.kaigo-yamadaya.jp/" }, "geometry": { "type": "Point", "coordinates": [ 136.745844820346065, 35.432581485858954 ] } },
{ "type": "Feature", "properties": { "内容": "ケアサービス【特定福祉用具販売】岐阜県岐阜市鏡島南1丁目6番5号", "url": "https://www.kaigokensaku.mhlw.go.jp/21/index.php?action_kouhyou_detail_004_kani=true&JigyosyoCd=2170103887-00&ServiceCd=410&Type=search", "url2": "http://www.koukikai.gr.jp/tomii_top/guide/careservice/" }, "geometry": { "type": "Point", "coordinates": [ 136.716593800000027, 35.4083721 ] } },
{ "type": "Feature", "properties": { "内容": "めぃぷる【特定福祉用具販売】岐阜県岐阜市粟野西6丁目535-1", "url": "https://www.kaigokensaku.mhlw.go.jp/21/index.php?action_kouhyou_detail_004_kani=true&JigyosyoCd=2170104042-00&ServiceCd=410&Type=search", "url2": null }, "geometry": { "type": "Point", "coordinates": [ 136.7721785, 35.4863007 ] } },
{ "type": "Feature", "properties": { "内容": "ダスキンヘルスレント岐阜ステーション【特定福祉用具販売】岐阜県岐阜市市橋4丁目7番6号", "url": "https://www.kaigokensaku.mhlw.go.jp/21/index.php?action_kouhyou_detail_004_kani=true&JigyosyoCd=2170104752-00&ServiceCd=410&Type=search", "url2": "http://healthrent.duskin.jp/" }, "geometry": { "type": "Point", "coordinates": [ 136.72462570352593, 35.402416517190609 ] } },
{ "type": "Feature", "properties": { "内容": "ペンギン介護用品【特定福祉用具販売】岐阜県岐阜市敷島町3-6", "url": "https://www.kaigokensaku.mhlw.go.jp/21/index.php?action_kouhyou_detail_004_kani=true&JigyosyoCd=2170111245-00&ServiceCd=410&Type=search", "url2": "http://www.ansenior.com" }, "geometry": { "type": "Point", "coordinates": [ 136.743353599999978, 35.411456200000011 ] } },
{ "type": "Feature", "properties": { "内容": "ユナイテッドケアサービス　福祉用具課【特定福祉用具販売】岐阜県岐阜市加納栄町通二丁目7番地", "url": "https://www.kaigokensaku.mhlw.go.jp/21/index.php?action_kouhyou_detail_004_kani=true&JigyosyoCd=2170111815-00&ServiceCd=410&Type=search", "url2": null }, "geometry": { "type": "Point", "coordinates": [ 136.756099, 35.4072253 ] } },
{ "type": "Feature", "properties": { "内容": "日建ヘルスメディカル　岐阜【特定福祉用具販売】岐阜県岐阜市今町4-22日建ビル　3階", "url": "https://www.kaigokensaku.mhlw.go.jp/21/index.php?action_kouhyou_detail_004_kani=true&JigyosyoCd=2170112870-00&ServiceCd=410&Type=search", "url2": "http://www.gifu-healthmedical.jp/" }, "geometry": { "type": "Point", "coordinates": [ 136.769585900000038, 35.4324834 ] } },
{ "type": "Feature", "properties": { "内容": "株式会社アーネスト【特定福祉用具販売】岐阜県岐阜市茜部菱野4丁目104-3", "url": "https://www.kaigokensaku.mhlw.go.jp/21/index.php?action_kouhyou_detail_004_kani=true&JigyosyoCd=2170113241-00&ServiceCd=410&Type=search", "url2": "http://earnest-gifu.jp" }, "geometry": { "type": "Point", "coordinates": [ 136.748395786117698, 35.381499127621169 ] } },
{ "type": "Feature", "properties": { "内容": "ＹＭＳライフサポート【特定福祉用具販売】岐阜県岐阜市元宮町2丁目19ハイウッドビル2階", "url": "https://www.kaigokensaku.mhlw.go.jp/21/index.php?action_kouhyou_detail_004_kani=true&JigyosyoCd=2170113720-00&ServiceCd=410&Type=search", "url2": "https://yutaka-ms.jp/" }, "geometry": { "type": "Point", "coordinates": [ 136.748312300000038, 35.4162781 ] } },
{ "type": "Feature", "properties": { "内容": "ウェルサス　岐阜営業所【特定福祉用具販売】岐阜県岐阜市西島町2番10号", "url": "https://www.kaigokensaku.mhlw.go.jp/21/index.php?action_kouhyou_detail_004_kani=true&JigyosyoCd=2170113894-00&ServiceCd=410&Type=search", "url2": null }, "geometry": { "type": "Point", "coordinates": [ 136.73128509999998, 35.4261906 ] } },
{ "type": "Feature", "properties": { "内容": "株式会社アクティブワン【特定福祉用具販売】岐阜県岐阜市福富天神前344番地", "url": "https://www.kaigokensaku.mhlw.go.jp/21/index.php?action_kouhyou_detail_004_kani=true&JigyosyoCd=2170114496-00&ServiceCd=410&Type=search", "url2": "https://activeone-smile.com/" }, "geometry": { "type": "Point", "coordinates": [ 136.812138299999958, 35.4825232 ] } },
{ "type": "Feature", "properties": { "内容": "株式会社ヤマシタ岐阜営業所【特定福祉用具販売】岐阜県岐阜市領下1569", "url": "https://www.kaigokensaku.mhlw.go.jp/21/index.php?action_kouhyou_detail_004_kani=true&JigyosyoCd=2170115261-00&ServiceCd=410&Type=search", "url2": "https://www.yco.co.jp/" }, "geometry": { "type": "Point", "coordinates": [ 136.7791374, 35.3998682 ] } },
{ "type": "Feature", "properties": { "内容": "株式会社そらと【特定福祉用具販売】岐阜県岐阜市河渡4丁目156番地1101号", "url": "https://www.kaigokensaku.mhlw.go.jp/21/index.php?action_kouhyou_detail_004_kani=true&JigyosyoCd=2170115378-00&ServiceCd=410&Type=search", "url2": null }, "geometry": { "type": "Point", "coordinates": [ 136.699335600000012, 35.4129983 ] } },
{ "type": "Feature", "properties": { "内容": "株式会社ケア【特定福祉用具販売】岐阜県岐阜市早田本町1丁目9番地", "url": "https://www.kaigokensaku.mhlw.go.jp/21/index.php?action_kouhyou_detail_004_kani=true&JigyosyoCd=2170100453-00&ServiceCd=410&Type=search", "url2": "https://www.care-kaigo.co.jp" }, "geometry": { "type": "Point", "coordinates": [ 136.7549649, 35.4362551 ] } },
{ "type": "Feature", "properties": { "内容": "株式会社トーカイ　岐大前営業所【特定福祉用具販売】岐阜県岐阜市大学西一丁目91番地3", "url": "https://www.kaigokensaku.mhlw.go.jp/21/index.php?action_kouhyou_detail_004_kani=true&JigyosyoCd=2170116061-00&ServiceCd=410&Type=search", "url2": "https://www.tokai-corp.com/" }, "geometry": { "type": "Point", "coordinates": [ 136.731839932364039, 35.468038568414087 ] } },
{ "type": "Feature", "properties": { "内容": "有限会社郡上開発【特定福祉用具販売】岐阜県岐阜市加納朝日町三丁目41番", "url": "https://www.kaigokensaku.mhlw.go.jp/21/index.php?action_kouhyou_detail_004_kani=true&JigyosyoCd=2170101964-00&ServiceCd=410&Type=search", "url2": null }, "geometry": { "type": "Point", "coordinates": [ 136.757665226983562, 35.401609049382344 ] } },
{ "type": "Feature", "properties": { "内容": "株式会社スマイリープ【特定福祉用具販売】岐阜県岐阜市鏡島精華1丁目6番12号", "url": "https://www.kaigokensaku.mhlw.go.jp/21/index.php?action_kouhyou_detail_004_kani=true&JigyosyoCd=2170105569-00&ServiceCd=410&Type=search", "url2": "http://www.smileap.care" }, "geometry": { "type": "Point", "coordinates": [ 136.724328657885479, 35.41199199951572 ] } },
{ "type": "Feature", "properties": { "内容": "ライフまごのて【特定福祉用具販売】岐阜県岐阜市福光南町12-15", "url": "https://www.kaigokensaku.mhlw.go.jp/21/index.php?action_kouhyou_detail_004_kani=true&JigyosyoCd=2170116210-00&ServiceCd=410&Type=search", "url2": null }, "geometry": { "type": "Point", "coordinates": [ 136.7659009, 35.4485738 ] } },
{ "type": "Feature", "properties": { "内容": "亀屋株式会社【特定福祉用具販売】岐阜県岐阜市長住町７丁目２番地", "url": "https://www.kaigokensaku.mhlw.go.jp/21/index.php?action_kouhyou_detail_004_kani=true&JigyosyoCd=2170115139-00&ServiceCd=410&Type=search", "url2": "https://kameya-gifu.com/" }, "geometry": { "type": "Point", "coordinates": [ 136.7525733, 35.4128363 ] } },
{ "type": "Feature", "properties": { "内容": "福祉用具のSMILION【特定福祉用具販売】岐阜県岐阜市東中島1-2-3", "url": "https://www.kaigokensaku.mhlw.go.jp/21/index.php?action_kouhyou_detail_004_kani=true&JigyosyoCd=2170115063-00&ServiceCd=410&Type=search", "url2": "https://smilion.jp/index.html" }, "geometry": { "type": "Point", "coordinates": [ 136.803626, 35.390372800000016 ] } },
{ "type": "Feature", "properties": { "内容": "ケア・ケア【特定福祉用具販売】岐阜県大垣市上面4-77-2", "url": "https://www.kaigokensaku.mhlw.go.jp/21/index.php?action_kouhyou_detail_004_kani=true&JigyosyoCd=2172100535-00&ServiceCd=410&Type=search", "url2": null }, "geometry": { "type": "Point", "coordinates": [ 136.645038500000027, 35.3572904 ] } },
{ "type": "Feature", "properties": { "内容": "株式会社大石電気商会パナソニックエイジフリーショップ大垣【特定福祉用具販売】岐阜県大垣市藤江町２丁目97", "url": "https://www.kaigokensaku.mhlw.go.jp/21/index.php?action_kouhyou_detail_004_kani=true&JigyosyoCd=2172100618-00&ServiceCd=410&Type=search", "url2": "http://www.ooishidenki.com" }, "geometry": { "type": "Point", "coordinates": [ 136.623666231746739, 35.364298819207647 ] } },
{ "type": "Feature", "properties": { "内容": "株式会社ナイスワーク　大垣営業所【特定福祉用具販売】岐阜県大垣市本今5丁目128番地", "url": "https://www.kaigokensaku.mhlw.go.jp/21/index.php?action_kouhyou_detail_004_kani=true&JigyosyoCd=2172102515-00&ServiceCd=410&Type=search", "url2": "http://www.nicework.co.jp" }, "geometry": { "type": "Point", "coordinates": [ 136.613298825874779, 35.346908583587954 ] } },
{ "type": "Feature", "properties": { "内容": "福祉用具いずみ【特定福祉用具販売】岐阜県大垣市西崎町２丁目７０番地", "url": "https://www.kaigokensaku.mhlw.go.jp/21/index.php?action_kouhyou_detail_004_kani=true&JigyosyoCd=2172100709-00&ServiceCd=410&Type=search", "url2": null }, "geometry": { "type": "Point", "coordinates": [ 136.607934120769841, 35.360927325732455 ] } },
{ "type": "Feature", "properties": { "内容": "株式会社　ハートサービス【特定福祉用具販売】岐阜県大垣市矢道町1丁目23番地", "url": "https://www.kaigokensaku.mhlw.go.jp/21/index.php?action_kouhyou_detail_004_kani=true&JigyosyoCd=2172100196-00&ServiceCd=410&Type=search", "url2": "https://heart-gp.org/sv-top/" }, "geometry": { "type": "Point", "coordinates": [ 136.5568101, 35.3726199 ] } },
{ "type": "Feature", "properties": { "内容": "アシストケアワカミヤ【特定福祉用具販売】岐阜県大垣市本今4丁目26-1", "url": "https://www.kaigokensaku.mhlw.go.jp/21/index.php?action_kouhyou_detail_004_kani=true&JigyosyoCd=2172100352-00&ServiceCd=410&Type=search", "url2": null }, "geometry": { "type": "Point", "coordinates": [ 136.606046099999958, 35.3474047 ] } },
{ "type": "Feature", "properties": { "内容": "株式会社友悠【特定福祉用具販売】岐阜県大垣市西長町31番地", "url": "https://www.kaigokensaku.mhlw.go.jp/21/index.php?action_kouhyou_detail_004_kani=true&JigyosyoCd=2172102143-00&ServiceCd=410&Type=search", "url2": null }, "geometry": { "type": "Point", "coordinates": [ 136.610661700000037, 35.359473 ] } },
{ "type": "Feature", "properties": { "内容": "Hi-Road　Medical　福祉用具貸与事業所【特定福祉用具販売】岐阜県大垣市平町243番地2", "url": "https://www.kaigokensaku.mhlw.go.jp/21/index.php?action_kouhyou_detail_004_kani=true&JigyosyoCd=2172102523-00&ServiceCd=410&Type=search", "url2": "http://www.hi-road-medical.com" }, "geometry": { "type": "Point", "coordinates": [ 136.645102899999983, 35.3415367 ] } },
{ "type": "Feature", "properties": { "内容": "ＯＫＢケアサービス明星【特定福祉用具販売】岐阜県大垣市郭町2丁目25番地Kix中央ビル2F", "url": "https://www.kaigokensaku.mhlw.go.jp/21/index.php?action_kouhyou_detail_004_kani=true&JigyosyoCd=2172102549-00&ServiceCd=410&Type=search", "url2": "http://www.myojo.jp/" }, "geometry": { "type": "Point", "coordinates": [ 136.61664410000003, 35.3604676 ] } },
{ "type": "Feature", "properties": { "内容": "株式会社トーカイ　大垣営業所【特定福祉用具販売】岐阜県大垣市新田町3丁目7番地", "url": "https://www.kaigokensaku.mhlw.go.jp/21/index.php?action_kouhyou_detail_004_kani=true&JigyosyoCd=2172102879-00&ServiceCd=410&Type=search", "url2": "https://www.tokai-corp.com/" }, "geometry": { "type": "Point", "coordinates": [ 136.622232, 35.346083 ] } },
{ "type": "Feature", "properties": { "内容": "福祉用具えがお【特定福祉用具販売】岡本町2丁目67-9", "url": "https://www.kaigokensaku.mhlw.go.jp/21/index.php?action_kouhyou_detail_004_kani=true&JigyosyoCd=2172701522-00&ServiceCd=410&Type=search", "url2": "http://hp.kaipoke.biz/ng3/" }, "geometry": { "type": "Point", "coordinates": [ 137.2468428, 36.1460425 ] } },
{ "type": "Feature", "properties": { "内容": "すまいる訪問看護リハビリステーション【特定福祉用具販売】岐阜県高山市下林町８３１－１", "url": "https://www.kaigokensaku.mhlw.go.jp/21/index.php?action_kouhyou_detail_004_kani=true&JigyosyoCd=2162790105-00&ServiceCd=410&Type=search", "url2": null }, "geometry": { "type": "Point", "coordinates": [ 137.227841291661463, 36.155301135326809 ] } },
{ "type": "Feature", "properties": { "内容": "株式会社ケア高山【特定福祉用具販売】岐阜県高山市岡本町4丁目311-14", "url": "https://www.kaigokensaku.mhlw.go.jp/21/index.php?action_kouhyou_detail_004_kani=true&JigyosyoCd=2172700102-00&ServiceCd=410&Type=search", "url2": "https://www.caretakayama.com" }, "geometry": { "type": "Point", "coordinates": [ 137.247340752217042, 36.152515421851561 ] } },
{ "type": "Feature", "properties": { "内容": "高山市福祉サービス公社【特定福祉用具販売】岐阜県高山市森下町１丁目２０８番地", "url": "https://www.kaigokensaku.mhlw.go.jp/21/index.php?action_kouhyou_detail_004_kani=true&JigyosyoCd=2172700250-00&ServiceCd=410&Type=search", "url2": "http://www.takayamakousya.jp/" }, "geometry": { "type": "Point", "coordinates": [ 137.259186499999942, 36.1319422 ] } },
{ "type": "Feature", "properties": { "内容": "有限会社アドバンス飛騨【特定福祉用具販売】一宮町1566－1", "url": "https://www.kaigokensaku.mhlw.go.jp/21/index.php?action_kouhyou_detail_004_kani=true&JigyosyoCd=2172700953-00&ServiceCd=410&Type=search", "url2": null }, "geometry": { "type": "Point", "coordinates": [ 137.219944308197142, 36.077268898962132 ] } },
{ "type": "Feature", "properties": { "内容": "福祉用具貸与販売事業所ラルゴ【特定福祉用具販売】岐阜県高山市新宮町677番地ヒルサイド露越　E-5", "url": "https://www.kaigokensaku.mhlw.go.jp/21/index.php?action_kouhyou_detail_004_kani=true&JigyosyoCd=2172701357-00&ServiceCd=410&Type=search", "url2": "http://living-largo.com/" }, "geometry": { "type": "Point", "coordinates": [ 137.209246558197094, 36.131441334679685 ] } },
{ "type": "Feature", "properties": { "内容": "株式会社　ケアサポート洞口【特定福祉用具販売】岐阜県高山市桐生町4-372-3", "url": "https://www.kaigokensaku.mhlw.go.jp/21/index.php?action_kouhyou_detail_004_kani=true&JigyosyoCd=2173300159-00&ServiceCd=410&Type=search", "url2": null }, "geometry": { "type": "Point", "coordinates": [ 137.248575699999947, 36.1563945 ] } },
{ "type": "Feature", "properties": { "内容": "株式会社トーカイ高山営業所【特定福祉用具販売】岐阜県高山市昭和町３丁目５５番地１９", "url": "https://www.kaigokensaku.mhlw.go.jp/21/index.php?action_kouhyou_detail_004_kani=true&JigyosyoCd=2172700748-00&ServiceCd=410&Type=search", "url2": "http://www.tokai-corp.com/" }, "geometry": { "type": "Point", "coordinates": [ 137.24910639999996, 36.1492121 ] } },
{ "type": "Feature", "properties": { "内容": "Liv’’E【特定福祉用具販売】岐阜県多治見市住吉町7丁目29-6ファインビル住吉Ⅱ　105号", "url": "https://www.kaigokensaku.mhlw.go.jp/21/index.php?action_kouhyou_detail_004_kani=true&JigyosyoCd=2171102508-00&ServiceCd=410&Type=search", "url2": null }, "geometry": { "type": "Point", "coordinates": [ 137.120415400000013, 35.3460799 ] } },
{ "type": "Feature", "properties": { "内容": "カム・オン有限会社【特定福祉用具販売】岐阜県多治見市上野町３丁目15番地", "url": "https://www.kaigokensaku.mhlw.go.jp/21/index.php?action_kouhyou_detail_004_kani=true&JigyosyoCd=2171100346-00&ServiceCd=410&Type=search", "url2": "http://www.comeon2000.com/" }, "geometry": { "type": "Point", "coordinates": [ 137.126215699999989, 35.3401324 ] } },
{ "type": "Feature", "properties": { "内容": "株式会社ナイスワーク　多治見支店【特定福祉用具販売】岐阜県多治見市新富町2丁目4番地1", "url": "https://www.kaigokensaku.mhlw.go.jp/21/index.php?action_kouhyou_detail_004_kani=true&JigyosyoCd=2171101534-00&ServiceCd=410&Type=search", "url2": "http://nicework.co.jp" }, "geometry": { "type": "Point", "coordinates": [ 137.134651199999979, 35.337396799999958 ] } },
{ "type": "Feature", "properties": { "内容": "株式会社美濃庄　多治見営業所【特定福祉用具販売】岐阜県多治見市太平町１丁目１２", "url": "https://www.kaigokensaku.mhlw.go.jp/21/index.php?action_kouhyou_detail_004_kani=true&JigyosyoCd=2171102300-00&ServiceCd=410&Type=search", "url2": "https://minosho.com/" }, "geometry": { "type": "Point", "coordinates": [ 137.1132036, 35.3334278 ] } },
{ "type": "Feature", "properties": { "内容": "株式会社トーカイ　多治見営業所【特定福祉用具販売】岐阜県多治見市若松町4丁目37番3", "url": "https://www.kaigokensaku.mhlw.go.jp/21/index.php?action_kouhyou_detail_004_kani=true&JigyosyoCd=2171102367-00&ServiceCd=410&Type=search", "url2": "http://www.tokai-corp.com/" }, "geometry": { "type": "Point", "coordinates": [ 137.1145736, 35.3432568 ] } },
{ "type": "Feature", "properties": { "内容": "合同会社ハートフルlife福祉用具貸与事業所【特定福祉用具販売】岐阜県多治見市下沢町四丁目78番地の5", "url": "https://www.kaigokensaku.mhlw.go.jp/21/index.php?action_kouhyou_detail_004_kani=true&JigyosyoCd=2171102375-00&ServiceCd=410&Type=search", "url2": null }, "geometry": { "type": "Point", "coordinates": [ 137.15199476279065, 35.321131430898888 ] } },
{ "type": "Feature", "properties": { "内容": "介護福祉サービス　いろは【特定福祉用具販売】岐阜県関市山田880－3丹羽ビル２B", "url": "https://www.kaigokensaku.mhlw.go.jp/21/index.php?action_kouhyou_detail_004_kani=true&JigyosyoCd=2170201541-00&ServiceCd=410&Type=search", "url2": null }, "geometry": { "type": "Point", "coordinates": [ 136.8621507, 35.4739661 ] } },
{ "type": "Feature", "properties": { "内容": "福祉サポート　夢咲【特定福祉用具販売】岐阜県関市平賀町4丁目52-1", "url": "https://www.kaigokensaku.mhlw.go.jp/21/index.php?action_kouhyou_detail_004_kani=true&JigyosyoCd=2170201715-00&ServiceCd=410&Type=search", "url2": "https://tenma0404.com/" }, "geometry": { "type": "Point", "coordinates": [ 136.938588283018078, 35.486269244554514 ] } },
{ "type": "Feature", "properties": { "内容": "平成会福祉用具事業所【特定福祉用具販売】岐阜県関市市平賀大知洞566番地１", "url": "https://www.kaigokensaku.mhlw.go.jp/21/index.php?action_kouhyou_detail_004_kani=true&JigyosyoCd=2170200436-00&ServiceCd=410&Type=search", "url2": "https://swct.or.jp/swch.html" }, "geometry": { "type": "Point", "coordinates": [ 136.937476599999968, 35.4842619 ] } },
{ "type": "Feature", "properties": { "内容": "ＪＡめぐみの介護サービス中濃営業所【特定福祉用具販売】岐阜県関市若草通１丁目１番地", "url": "https://www.kaigokensaku.mhlw.go.jp/21/index.php?action_kouhyou_detail_004_kani=true&JigyosyoCd=2170200519-00&ServiceCd=410&Type=search", "url2": "http://www.ja-megumino.or.jp" }, "geometry": { "type": "Point", "coordinates": [ 136.91397, 35.4967988 ] } },
{ "type": "Feature", "properties": { "内容": "ラクア　アイテム【特定福祉用具販売】岐阜県関市小瀬1431-1", "url": "https://www.kaigokensaku.mhlw.go.jp/21/index.php?action_kouhyou_detail_004_kani=true&JigyosyoCd=2170201467-00&ServiceCd=410&Type=search", "url2": "http://frontique.com" }, "geometry": { "type": "Point", "coordinates": [ 136.890423447885155, 35.488332550486433 ] } },
{ "type": "Feature", "properties": { "内容": "アシスト関【特定福祉用具販売】岐阜県関市天徳町２丁目２－４３レジデンスさくらヶ丘101", "url": "https://www.kaigokensaku.mhlw.go.jp/21/index.php?action_kouhyou_detail_004_kani=true&JigyosyoCd=2170200774-00&ServiceCd=410&Type=search", "url2": null }, "geometry": { "type": "Point", "coordinates": [ 136.932030667984009, 35.475908155027142 ] } },
{ "type": "Feature", "properties": { "内容": "株式会社トーカイ中津川営業所【特定福祉用具販売】岐阜県中津川市北野町１番３６号", "url": "https://www.kaigokensaku.mhlw.go.jp/21/index.php?action_kouhyou_detail_004_kani=true&JigyosyoCd=2171500594-00&ServiceCd=410&Type=search", "url2": "http://www.tokai-corp.com/" }, "geometry": { "type": "Point", "coordinates": [ 137.50320502764734, 35.503041762809495 ] } },
{ "type": "Feature", "properties": { "内容": "有限会社ライフサポートぎふ【特定福祉用具販売】岐阜県中津川市駒場７３１－４", "url": "https://www.kaigokensaku.mhlw.go.jp/21/index.php?action_kouhyou_detail_004_kani=true&JigyosyoCd=2171500776-00&ServiceCd=410&Type=search", "url2": "http://www.rakuten.co.jp/lsg/" }, "geometry": { "type": "Point", "coordinates": [ 137.495073300000058, 35.4972657 ] } },
{ "type": "Feature", "properties": { "内容": "ケアサポートはやかわ【特定福祉用具販売】岐阜県中津川市付知町10169番地1", "url": "https://www.kaigokensaku.mhlw.go.jp/21/index.php?action_kouhyou_detail_004_kani=true&JigyosyoCd=2171501105-00&ServiceCd=410&Type=search", "url2": null }, "geometry": { "type": "Point", "coordinates": [ 137.43760235830112, 35.648122653021666 ] } },
{ "type": "Feature", "properties": { "内容": "株式会社ユーワン介護用品専門店【特定福祉用具販売】岐阜県中津川市福岡978－97", "url": "https://www.kaigokensaku.mhlw.go.jp/21/index.php?action_kouhyou_detail_004_kani=true&JigyosyoCd=2172000420-00&ServiceCd=410&Type=search", "url2": "http://www.yuwan.jp" }, "geometry": { "type": "Point", "coordinates": [ 137.4520824, 35.5630025 ] } },
{ "type": "Feature", "properties": { "内容": "保母興産株式会社【特定福祉用具販売】岐阜県中津川市阿木8-1", "url": "https://www.kaigokensaku.mhlw.go.jp/21/index.php?action_kouhyou_detail_004_kani=true&JigyosyoCd=2171500628-00&ServiceCd=410&Type=search", "url2": "https://hobo-kosan.com" }, "geometry": { "type": "Point", "coordinates": [ 137.4654138, 35.3963971 ] } },
{ "type": "Feature", "properties": { "内容": "株式会社福祉の里　美濃営業所【特定福祉用具販売】岐阜県美濃市松森595番地マツモリビル", "url": "https://www.kaigokensaku.mhlw.go.jp/21/index.php?action_kouhyou_detail_004_kani=true&JigyosyoCd=2170300228-00&ServiceCd=410&Type=search", "url2": "https://www.fukushinosato.co.jp/facility/mino.html" }, "geometry": { "type": "Point", "coordinates": [ 136.9085675, 35.5305799 ] } },
{ "type": "Feature", "properties": { "内容": "ナガヤ　福祉用具【特定福祉用具販売】岐阜県瑞浪市寺河戸町1184番地の２", "url": "https://www.kaigokensaku.mhlw.go.jp/21/index.php?action_kouhyou_detail_004_kani=true&JigyosyoCd=2171600261-00&ServiceCd=410&Type=search", "url2": "https://yugengaisha-nagaya.com/" }, "geometry": { "type": "Point", "coordinates": [ 137.252739600000041, 35.3684671 ] } },
{ "type": "Feature", "properties": { "内容": "SKU【特定福祉用具販売】岐阜県瑞浪市陶町水上３４６－１", "url": "https://www.kaigokensaku.mhlw.go.jp/21/index.php?action_kouhyou_detail_004_kani=true&JigyosyoCd=2171600469-00&ServiceCd=410&Type=search", "url2": null }, "geometry": { "type": "Point", "coordinates": [ 137.310060900000053, 35.3145974 ] } },
{ "type": "Feature", "properties": { "内容": "有限会社つちや家具【特定福祉用具販売】岐阜県瑞浪市北小田町２丁目１５１番地", "url": "https://www.kaigokensaku.mhlw.go.jp/21/index.php?action_kouhyou_detail_004_kani=true&JigyosyoCd=2171600709-00&ServiceCd=410&Type=search", "url2": null }, "geometry": { "type": "Point", "coordinates": [ 137.243435, 35.3586513 ] } },
{ "type": "Feature", "properties": { "内容": "特定非営利活動法人コンフォートケア【特定福祉用具販売】岐阜県羽島市竹鼻町狐穴字下土手1597番地1", "url": "https://www.kaigokensaku.mhlw.go.jp/21/index.php?action_kouhyou_detail_004_kani=true&JigyosyoCd=2170400820-00&ServiceCd=410&Type=search", "url2": null }, "geometry": { "type": "Point", "coordinates": [ 136.70629499472048, 35.320300259740208 ] } },
{ "type": "Feature", "properties": { "内容": "株式会社トーカイ　岐阜営業課【特定福祉用具販売】岐阜県羽島市正木町須賀赤松2627番地", "url": "https://www.kaigokensaku.mhlw.go.jp/21/index.php?action_kouhyou_detail_004_kani=true&JigyosyoCd=2170400846-00&ServiceCd=410&Type=search", "url2": "http://www.tokai-corp.com/" }, "geometry": { "type": "Point", "coordinates": [ 136.739558641278109, 35.342570613506197 ] } },
{ "type": "Feature", "properties": { "内容": "ファミリア福祉用具サービス【特定福祉用具販売】岐阜県羽島市竹鼻町丸の内10丁目72番地5", "url": "https://www.kaigokensaku.mhlw.go.jp/21/index.php?action_kouhyou_detail_004_kani=true&JigyosyoCd=2170401471-00&ServiceCd=410&Type=search", "url2": "https://kurashitokaigo.jp/" }, "geometry": { "type": "Point", "coordinates": [ 136.6949841, 35.3285728 ] } },
{ "type": "Feature", "properties": { "内容": "Kanekuコーポレーション　ライフケア事業部【特定福祉用具販売】岐阜県恵那市大井町1122-4", "url": "https://www.kaigokensaku.mhlw.go.jp/21/index.php?action_kouhyou_detail_004_kani=true&JigyosyoCd=2171700566-00&ServiceCd=410&Type=search", "url2": "https://www.kaneku.com" }, "geometry": { "type": "Point", "coordinates": [ 137.421354929591303, 35.453852670590543 ] } },
{ "type": "Feature", "properties": { "内容": "中部ケアサービス【特定福祉用具販売】岐阜県恵那市長島町中野1216-8", "url": "https://www.kaigokensaku.mhlw.go.jp/21/index.php?action_kouhyou_detail_004_kani=true&JigyosyoCd=2171700681-00&ServiceCd=410&Type=search", "url2": "https://chubu-gpf.or.jp/nursingcare/" }, "geometry": { "type": "Point", "coordinates": [ 137.394825606151585, 35.455795612936726 ] } },
{ "type": "Feature", "properties": { "内容": "株式会社オア・シス　恵那営業所【特定福祉用具販売】岐阜県恵那市大井町667-27", "url": "https://www.kaigokensaku.mhlw.go.jp/21/index.php?action_kouhyou_detail_004_kani=true&JigyosyoCd=2171701093-00&ServiceCd=410&Type=search", "url2": null }, "geometry": { "type": "Point", "coordinates": [ 137.412148014440589, 35.453861416375176 ] } },
{ "type": "Feature", "properties": { "内容": "有限会社エムエスサービス【特定福祉用具販売】岐阜県美濃加茂市太田町174", "url": "https://www.kaigokensaku.mhlw.go.jp/21/index.php?action_kouhyou_detail_004_kani=true&JigyosyoCd=2171200237-00&ServiceCd=410&Type=search", "url2": "http://meet-smile.com/" }, "geometry": { "type": "Point", "coordinates": [ 137.0132572, 35.4496 ] } },
{ "type": "Feature", "properties": { "内容": "たちばなや【特定福祉用具販売】岐阜県土岐市泉町久尻44番地の19", "url": "https://www.kaigokensaku.mhlw.go.jp/21/index.php?action_kouhyou_detail_004_kani=true&JigyosyoCd=2171800127-00&ServiceCd=410&Type=search", "url2": null }, "geometry": { "type": "Point", "coordinates": [ 137.183740700000044, 35.3569275 ] } },
{ "type": "Feature", "properties": { "内容": "有限会社棉好【特定福祉用具販売】岐阜県土岐市泉町久尻50-19", "url": "https://www.kaigokensaku.mhlw.go.jp/21/index.php?action_kouhyou_detail_004_kani=true&JigyosyoCd=2171800200-00&ServiceCd=410&Type=search", "url2": null }, "geometry": { "type": "Point", "coordinates": [ 137.181266, 35.356488499999983 ] } },
{ "type": "Feature", "properties": { "内容": "有限会社　ミノタ家具【特定福祉用具販売】岐阜県土岐市肥田浅野元町1-6-1", "url": "https://www.kaigokensaku.mhlw.go.jp/21/index.php?action_kouhyou_detail_004_kani=true&JigyosyoCd=2171800762-00&ServiceCd=410&Type=search", "url2": null }, "geometry": { "type": "Point", "coordinates": [ 137.200695412303162, 35.360031950886878 ] } },
{ "type": "Feature", "properties": { "内容": "株式会社福祉の里　土岐【特定福祉用具販売】岐阜県土岐市土岐口中町三丁目96", "url": "https://www.kaigokensaku.mhlw.go.jp/21/index.php?action_kouhyou_detail_004_kani=true&JigyosyoCd=2171800804-00&ServiceCd=410&Type=search", "url2": "https://www.fukushinosato.co.jp/facility/toki.html" }, "geometry": { "type": "Point", "coordinates": [ 137.175487112303159, 35.346836123497553 ] } },
{ "type": "Feature", "properties": { "内容": "美善　岐阜店【特定福祉用具販売】岐阜県土岐市泉東窯町３丁目２０番地", "url": "https://www.kaigokensaku.mhlw.go.jp/21/index.php?action_kouhyou_detail_004_kani=true&JigyosyoCd=2171800978-00&ServiceCd=410&Type=search", "url2": null }, "geometry": { "type": "Point", "coordinates": [ 137.190420200000062, 35.3698428 ] } },
{ "type": "Feature", "properties": { "内容": "福祉サポート　東濃営業所【特定福祉用具販売】岐阜県土岐市泉が丘町４丁目１３５", "url": "https://www.kaigokensaku.mhlw.go.jp/21/index.php?action_kouhyou_detail_004_kani=true&JigyosyoCd=2171801257-00&ServiceCd=410&Type=search", "url2": "https://www.fukushi-support.co.jp/" }, "geometry": { "type": "Point", "coordinates": [ 137.171859500000011, 35.3741853 ] } },
{ "type": "Feature", "properties": { "内容": "住ま居るレンタルサービス【特定福祉用具販売】岐阜県土岐市下石町304-136", "url": "https://www.kaigokensaku.mhlw.go.jp/21/index.php?action_kouhyou_detail_004_kani=true&JigyosyoCd=2171801075-00&ServiceCd=410&Type=search", "url2": "http://www.smile-tajimi.com" }, "geometry": { "type": "Point", "coordinates": [ 137.172417200000041, 35.3140648 ] } },
{ "type": "Feature", "properties": { "内容": "株式会社五月商店【特定福祉用具販売】岐阜県各務原市鵜沼古市場町2-56-3", "url": "https://www.kaigokensaku.mhlw.go.jp/21/index.php?action_kouhyou_detail_004_kani=true&JigyosyoCd=2170500017-00&ServiceCd=410&Type=search", "url2": "https://www.satsuki-5.co.jp/" }, "geometry": { "type": "Point", "coordinates": [ 136.936511600000017, 35.3966186 ] } },
{ "type": "Feature", "properties": { "内容": "有限会社メディックス【特定福祉用具販売】岐阜県各務原市鵜沼小伊木町1-70-1", "url": "https://www.kaigokensaku.mhlw.go.jp/21/index.php?action_kouhyou_detail_004_kani=true&JigyosyoCd=2170500140-00&ServiceCd=410&Type=search", "url2": "https://medix-gifu.com" }, "geometry": { "type": "Point", "coordinates": [ 136.930013682803292, 35.392735378863364 ] } },
{ "type": "Feature", "properties": { "内容": "コープぎふ福祉サポートセンター【特定福祉用具販売】岐阜県各務原市蘇原六軒町３丁目38-2", "url": "https://www.kaigokensaku.mhlw.go.jp/21/index.php?action_kouhyou_detail_004_kani=true&JigyosyoCd=2170500272-00&ServiceCd=410&Type=search", "url2": "https://www.coop-gifu.jp/" }, "geometry": { "type": "Point", "coordinates": [ 136.8623304, 35.4008031 ] } },
{ "type": "Feature", "properties": { "内容": "福祉サポート　岐阜営業所【特定福祉用具販売】岐阜県各務原市那加桐野外二ヶ所大字入会地6-4エステイタスKN-6　102号", "url": "https://www.kaigokensaku.mhlw.go.jp/21/index.php?action_kouhyou_detail_004_kani=true&JigyosyoCd=2170502237-00&ServiceCd=410&Type=search", "url2": "http://www.fukushi-support.co.jp" }, "geometry": { "type": "Point", "coordinates": [ 136.8570398, 35.3985247 ] } },
{ "type": "Feature", "properties": { "内容": "ＪＡめぐみの介護サービス可児営業所【特定福祉用具販売】岐阜県可児市川合２２２８-４", "url": "https://www.kaigokensaku.mhlw.go.jp/21/index.php?action_kouhyou_detail_004_kani=true&JigyosyoCd=2173100781-00&ServiceCd=410&Type=search", "url2": "http://www.ja-megumino.or.jp" }, "geometry": { "type": "Point", "coordinates": [ 137.054776587635814, 35.441148881487877 ] } },
{ "type": "Feature", "properties": { "内容": "やまもと企画株式会社【特定福祉用具販売】岐阜県可児市塩河1054番地の1", "url": "https://www.kaigokensaku.mhlw.go.jp/21/index.php?action_kouhyou_detail_004_kani=true&JigyosyoCd=2173100062-00&ServiceCd=410&Type=search", "url2": "https://yamamotokikaku.co.jp/" }, "geometry": { "type": "Point", "coordinates": [ 137.035742199999959, 35.3772419 ] } },
{ "type": "Feature", "properties": { "内容": "えにし　ぎふ【特定福祉用具販売】岐阜県可児市土田2546番地246", "url": "https://www.kaigokensaku.mhlw.go.jp/21/index.php?action_kouhyou_detail_004_kani=true&JigyosyoCd=2173100757-00&ServiceCd=410&Type=search", "url2": null }, "geometry": { "type": "Point", "coordinates": [ 137.026272, 35.4318185 ] } },
{ "type": "Feature", "properties": { "内容": "ハートリフト【特定福祉用具販売】岐阜県可児市下恵土5131", "url": "https://www.kaigokensaku.mhlw.go.jp/21/index.php?action_kouhyou_detail_004_kani=true&JigyosyoCd=2173101524-00&ServiceCd=410&Type=search", "url2": null }, "geometry": { "type": "Point", "coordinates": [ 137.052922294581606, 35.424016214396524 ] } },
{ "type": "Feature", "properties": { "内容": "スズキアートホーム株式会社【特定福祉用具販売】岐阜県可児市土田２２１３番地の１３", "url": "https://www.kaigokensaku.mhlw.go.jp/21/index.php?action_kouhyou_detail_004_kani=true&JigyosyoCd=2173100211-00&ServiceCd=410&Type=search", "url2": "https://www.suzuki-ah.com" }, "geometry": { "type": "Point", "coordinates": [ 137.0138178, 35.4224465 ] } },
{ "type": "Feature", "properties": { "内容": "ふくしようぐくおりてぃ【特定福祉用具販売】岐阜県山県市東深瀬505-1", "url": "https://www.kaigokensaku.mhlw.go.jp/21/index.php?action_kouhyou_detail_004_kani=true&JigyosyoCd=2170800557-00&ServiceCd=410&Type=search", "url2": null }, "geometry": { "type": "Point", "coordinates": [ 136.7909756, 35.5199745 ] } },
{ "type": "Feature", "properties": { "内容": "介護ショップ　優結【特定福祉用具販売】岐阜県飛騨市神岡町坂富町19-5", "url": "https://www.kaigokensaku.mhlw.go.jp/21/index.php?action_kouhyou_detail_004_kani=true&JigyosyoCd=2173300092-00&ServiceCd=410&Type=search", "url2": null }, "geometry": { "type": "Point", "coordinates": [ 137.303373299999947, 36.3264259 ] } },
{ "type": "Feature", "properties": { "内容": "有限会社古川住設管工事【特定福祉用具販売】岐阜県飛騨市古川町上町954-1", "url": "https://www.kaigokensaku.mhlw.go.jp/21/index.php?action_kouhyou_detail_004_kani=true&JigyosyoCd=2173300126-00&ServiceCd=410&Type=search", "url2": null }, "geometry": { "type": "Point", "coordinates": [ 137.190528, 36.2258204 ] } },
{ "type": "Feature", "properties": { "内容": "合同会社みんなの羽【特定福祉用具販売】岐阜県本巣市下真桑465-6", "url": "https://www.kaigokensaku.mhlw.go.jp/21/index.php?action_kouhyou_detail_004_kani=true&JigyosyoCd=2173400538-00&ServiceCd=410&Type=search", "url2": null }, "geometry": { "type": "Point", "coordinates": [ 136.6584643, 35.4377303 ] } },
{ "type": "Feature", "properties": { "内容": "株式会社ファースト介護福祉事業部【特定福祉用具販売】岐阜県郡上市八幡町中坪1-8-3", "url": "https://www.kaigokensaku.mhlw.go.jp/21/index.php?action_kouhyou_detail_004_kani=true&JigyosyoCd=2171000249-00&ServiceCd=410&Type=search", "url2": "http://www.first1.jp" }, "geometry": { "type": "Point", "coordinates": [ 136.953616, 35.7573649 ] } },
{ "type": "Feature", "properties": { "内容": "カネコ株式会社郡上営業所【特定福祉用具販売】岐阜県郡上市白鳥町白鳥1063番地の14", "url": "https://www.kaigokensaku.mhlw.go.jp/21/index.php?action_kouhyou_detail_004_kani=true&JigyosyoCd=2171000165-00&ServiceCd=410&Type=search", "url2": "http://www.kanekolinen.jp" }, "geometry": { "type": "Point", "coordinates": [ 136.857092342327888, 35.883279867100498 ] } },
{ "type": "Feature", "properties": { "内容": "ケアショップそよかぜ【特定福祉用具販売】岐阜県郡上市白鳥町越佐１６９番地", "url": "https://www.kaigokensaku.mhlw.go.jp/21/index.php?action_kouhyou_detail_004_kani=true&JigyosyoCd=2171000702-00&ServiceCd=410&Type=search", "url2": null }, "geometry": { "type": "Point", "coordinates": [ 136.853042400000049, 35.8661233 ] } },
{ "type": "Feature", "properties": { "内容": "株式会社　畑中水道【特定福祉用具販売】岐阜県郡上市大和町剣1601-8", "url": "https://www.kaigokensaku.mhlw.go.jp/21/index.php?action_kouhyou_detail_004_kani=true&JigyosyoCd=2171000710-00&ServiceCd=410&Type=search", "url2": "http://hata-sd.com/" }, "geometry": { "type": "Point", "coordinates": [ 136.889036300000043, 35.8245784 ] } },
{ "type": "Feature", "properties": { "内容": "マイハンズゴトウ【特定福祉用具販売】岐阜県下呂市小坂町小坂町827-5", "url": "https://www.kaigokensaku.mhlw.go.jp/21/index.php?action_kouhyou_detail_004_kani=true&JigyosyoCd=2172800936-00&ServiceCd=410&Type=search", "url2": "https://myhandsgoto.jimdofree.com" }, "geometry": { "type": "Point", "coordinates": [ 137.261019177909844, 35.951863368096298 ] } },
{ "type": "Feature", "properties": { "内容": "有限会社みどりの店【特定福祉用具販売】岐阜県下呂市森２４３０－１", "url": "https://www.kaigokensaku.mhlw.go.jp/21/index.php?action_kouhyou_detail_004_kani=true&JigyosyoCd=2172800076-00&ServiceCd=410&Type=search", "url2": "https://midorinomise.jp" }, "geometry": { "type": "Point", "coordinates": [ 137.247236, 35.8070401 ] } },
{ "type": "Feature", "properties": { "内容": "福祉用具のつみき【特定福祉用具販売】岐阜県下呂市萩原町中呂１９７－１", "url": "https://www.kaigokensaku.mhlw.go.jp/21/index.php?action_kouhyou_detail_004_kani=true&JigyosyoCd=2172800274-00&ServiceCd=410&Type=search", "url2": "http://www.imamurashokai.co.jp/tsumik_topi.php" }, "geometry": { "type": "Point", "coordinates": [ 137.2230174, 35.853364 ] } },
{ "type": "Feature", "properties": { "内容": "正直屋介護支援サービス【特定福祉用具販売】岐阜県下呂市森８７２－１８", "url": "https://www.kaigokensaku.mhlw.go.jp/21/index.php?action_kouhyou_detail_004_kani=true&JigyosyoCd=2172800696-00&ServiceCd=410&Type=search", "url2": null }, "geometry": { "type": "Point", "coordinates": [ 137.245189100000061, 35.8034431 ] } },
{ "type": "Feature", "properties": { "内容": "SBライフ【特定福祉用具販売】岐阜県羽島郡岐南町三宅2丁目58番地", "url": "https://www.kaigokensaku.mhlw.go.jp/21/index.php?action_kouhyou_detail_004_kani=true&JigyosyoCd=2170601260-00&ServiceCd=410&Type=search", "url2": null }, "geometry": { "type": "Point", "coordinates": [ 136.794057400000014, 35.393939 ] } },
{ "type": "Feature", "properties": { "内容": "ケアレンタルうぃんぐ【特定福祉用具販売】岐阜県羽島郡岐南町伏屋９丁目１５３-１", "url": "https://www.kaigokensaku.mhlw.go.jp/21/index.php?action_kouhyou_detail_004_kani=true&JigyosyoCd=2170601401-00&ServiceCd=410&Type=search", "url2": null }, "geometry": { "type": "Point", "coordinates": [ 136.7854807, 35.3805754 ] } },
{ "type": "Feature", "properties": { "内容": "株式会社笹屋サラダ館養老高田店【特定福祉用具販売】岐阜県養老郡養老町押越655番地", "url": "https://www.kaigokensaku.mhlw.go.jp/21/index.php?action_kouhyou_detail_004_kani=true&JigyosyoCd=2172300226-00&ServiceCd=410&Type=search", "url2": "https://sasaya-yoro.co.jp/" }, "geometry": { "type": "Point", "coordinates": [ 136.55414540000001, 35.3076727 ] } },
{ "type": "Feature", "properties": { "内容": "株式会社　松永製作所【特定福祉用具販売】岐阜県養老郡養老町大場484", "url": "https://www.kaigokensaku.mhlw.go.jp/21/index.php?action_kouhyou_detail_004_kani=true&JigyosyoCd=2172300051-00&ServiceCd=410&Type=search", "url2": "http://www.matsunaga-w.co.jp/" }, "geometry": { "type": "Point", "coordinates": [ 136.586947400000014, 35.2711229 ] } },
{ "type": "Feature", "properties": { "内容": "株式会社K-support岐阜【特定福祉用具販売】岐阜県養老郡養老町有尾２０番地５", "url": "https://www.kaigokensaku.mhlw.go.jp/21/index.php?action_kouhyou_detail_004_kani=true&JigyosyoCd=2172300531-00&ServiceCd=410&Type=search", "url2": "https://k-support-gifu.co.jp" }, "geometry": { "type": "Point", "coordinates": [ 136.5725708, 35.2734313 ] } },
{ "type": "Feature", "properties": { "内容": "弁慶せいのう【特定福祉用具販売】岐阜県不破郡垂井町垂井１５６１－２", "url": "https://www.kaigokensaku.mhlw.go.jp/21/index.php?action_kouhyou_detail_004_kani=true&JigyosyoCd=2172400281-00&ServiceCd=410&Type=search", "url2": null }, "geometry": { "type": "Point", "coordinates": [ 136.529852052761242, 35.370710299508445 ] } },
{ "type": "Feature", "properties": { "内容": "福祉用具waはびリース【特定福祉用具販売】岐阜県揖斐郡大野町公郷79", "url": "https://www.kaigokensaku.mhlw.go.jp/21/index.php?action_kouhyou_detail_004_kani=true&JigyosyoCd=2172601326-00&ServiceCd=410&Type=search", "url2": "https://nagomi-wa.com" }, "geometry": { "type": "Point", "coordinates": [ 136.603740900000048, 35.4612649 ] } },
{ "type": "Feature", "properties": { "内容": "株式会社　新生メディカル【特定福祉用具販売】岐阜県揖斐郡池田町本郷1531-1", "url": "https://www.kaigokensaku.mhlw.go.jp/21/index.php?action_kouhyou_detail_004_kani=true&JigyosyoCd=2172600948-00&ServiceCd=410&Type=search", "url2": "http://www.shinsei-md.jp/" }, "geometry": { "type": "Point", "coordinates": [ 136.574906300000066, 35.4428948 ] } }
]
}
