{
"type": "FeatureCollection",
"name": "geo_21_定期巡回・随時対応型訪問介護看護",
"crs": { "type": "name", "properties": { "name": "urn:ogc:def:crs:OGC:1.3:CRS84" } },
"features": [
{ "type": "Feature", "properties": { "内容": "株式会社新生メディカル岐阜営業所【定期巡回・随時対応型訪問介護看護】岐阜県岐阜市橋本町２丁目５２番地", "url": "https://www.kaigokensaku.mhlw.go.jp/21/index.php?action_kouhyou_detail_004_kani=true&JigyosyoCd=2190102711-00&ServiceCd=760&Type=search", "url2": "https://shinsei-md.jp/" }, "geometry": { "type": "Point", "coordinates": [ 136.7542724, 35.410753 ] } },
{ "type": "Feature", "properties": { "内容": "ケアサポート岐阜２５【定期巡回・随時対応型訪問介護看護】岐阜県岐阜市徹明通４丁目４番地", "url": "https://www.kaigokensaku.mhlw.go.jp/21/index.php?action_kouhyou_detail_004_kani=true&JigyosyoCd=2190102703-00&ServiceCd=760&Type=search", "url2": "https://www.wakokai.or.jp" }, "geometry": { "type": "Point", "coordinates": [ 136.754590538499343, 35.417607341365795 ] } },
{ "type": "Feature", "properties": { "内容": "定期巡回・随時対応型訪問介護看護すこやかヘルパーステーション【定期巡回・随時対応型訪問介護看護】岐阜県岐阜市北山1丁目13番地27有料老人ホームすこやか内", "url": "https://www.kaigokensaku.mhlw.go.jp/21/index.php?action_kouhyou_detail_004_kani=true&JigyosyoCd=2190103990-00&ServiceCd=760&Type=search", "url2": "https://gifu-min.jp/midori/page_145.html" }, "geometry": { "type": "Point", "coordinates": [ 136.852326239286839, 35.458126917192764 ] } },
{ "type": "Feature", "properties": { "内容": "ケアステーションやすえ【定期巡回・随時対応型訪問介護看護】岐阜県岐阜市鏡島南１丁目２番３８号", "url": "https://www.kaigokensaku.mhlw.go.jp/21/index.php?action_kouhyou_detail_004_kani=true&JigyosyoCd=2190104113-00&ServiceCd=760&Type=search", "url2": "http://www.koukikai.gr.jp" }, "geometry": { "type": "Point", "coordinates": [ 136.717239685597178, 35.40851241706622 ] } },
{ "type": "Feature", "properties": { "内容": "ケアサポート島２５【定期巡回・随時対応型訪問介護看護】岐阜県岐阜市北島１丁目４番４", "url": "https://www.kaigokensaku.mhlw.go.jp/21/index.php?action_kouhyou_detail_004_kani=true&JigyosyoCd=2190104220-00&ServiceCd=760&Type=search", "url2": "https://www.wakokai.or.jp" }, "geometry": { "type": "Point", "coordinates": [ 136.7296423, 35.4274679 ] } },
{ "type": "Feature", "properties": { "内容": "ケアサポート長良25【定期巡回・随時対応型訪問介護看護】岐阜県岐阜市長良３丁目９３", "url": "https://www.kaigokensaku.mhlw.go.jp/21/index.php?action_kouhyou_detail_004_kani=true&JigyosyoCd=2190104477-00&ServiceCd=760&Type=search", "url2": "http://www.wakokai.or.jp" }, "geometry": { "type": "Point", "coordinates": [ 136.7823171, 35.453177 ] } },
{ "type": "Feature", "properties": { "内容": "ひまわりステーションこまき【定期巡回・随時対応型訪問介護看護】岐阜県岐阜市千手堂南町３丁目３番地２すこやかホームこまき内　２F", "url": "https://www.kaigokensaku.mhlw.go.jp/21/index.php?action_kouhyou_detail_004_kani=true&JigyosyoCd=2190102729-00&ServiceCd=760&Type=search", "url2": "https://www.tomoikikai.net" }, "geometry": { "type": "Point", "coordinates": [ 136.750217519118507, 35.415882920669098 ] } },
{ "type": "Feature", "properties": { "内容": "ケアサポート大垣２５【定期巡回・随時対応型訪問介護看護】岐阜県大垣市大井2丁目38番地3", "url": "https://www.kaigokensaku.mhlw.go.jp/21/index.php?action_kouhyou_detail_004_kani=true&JigyosyoCd=2192100515-00&ServiceCd=760&Type=search", "url2": "https://www.wakokai.or.jp/" }, "geometry": { "type": "Point", "coordinates": [ 136.632969984621838, 35.348825657263284 ] } },
{ "type": "Feature", "properties": { "内容": "グレースヘルパーステーション【定期巡回・随時対応型訪問介護看護】岐阜県高山市江名子町2980-1", "url": "https://www.kaigokensaku.mhlw.go.jp/21/index.php?action_kouhyou_detail_004_kani=true&JigyosyoCd=2192700264-00&ServiceCd=760&Type=search", "url2": "https://www.gracesenior-ena.com/" }, "geometry": { "type": "Point", "coordinates": [ 137.277906699999988, 36.1343225 ] } },
{ "type": "Feature", "properties": { "内容": "陶の里定期巡回ステーション【定期巡回・随時対応型訪問介護看護】岐阜県多治見市大畑町西仲根3-6", "url": "https://www.kaigokensaku.mhlw.go.jp/21/index.php?action_kouhyou_detail_004_kani=true&JigyosyoCd=2191100219-00&ServiceCd=760&Type=search", "url2": "http://www.athome-tounosato.com/" }, "geometry": { "type": "Point", "coordinates": [ 137.128446, 35.3135323 ] } },
{ "type": "Feature", "properties": { "内容": "定期巡回ステーションなでしこ【定期巡回・随時対応型訪問介護看護】岐阜県中津川市手賀野228-1", "url": "https://www.kaigokensaku.mhlw.go.jp/21/index.php?action_kouhyou_detail_004_kani=true&JigyosyoCd=2191500228-00&ServiceCd=760&Type=search", "url2": "https://kuwanomi-ena.co.jp/" }, "geometry": { "type": "Point", "coordinates": [ 137.494945306996669, 35.480562694577031 ] } },
{ "type": "Feature", "properties": { "内容": "ケアハート【定期巡回・随時対応型訪問介護看護】岐阜県羽島市小熊町島2丁目102-1", "url": "https://www.kaigokensaku.mhlw.go.jp/21/index.php?action_kouhyou_detail_004_kani=true&JigyosyoCd=2190400099-00&ServiceCd=760&Type=search", "url2": "http://hashimakikaku.com" }, "geometry": { "type": "Point", "coordinates": [ 136.705426699999947, 35.3341085 ] } },
{ "type": "Feature", "properties": { "内容": "定期巡回ステーションくわのみ【定期巡回・随時対応型訪問介護看護】岐阜県恵那市岩村町飯羽間1616", "url": "https://www.kaigokensaku.mhlw.go.jp/21/index.php?action_kouhyou_detail_004_kani=true&JigyosyoCd=2191700232-00&ServiceCd=760&Type=search", "url2": "http://kuwanomi-ena.co.jp/" }, "geometry": { "type": "Point", "coordinates": [ 137.428962883320111, 35.379328728608954 ] } },
{ "type": "Feature", "properties": { "内容": "24時間訪問介護看護あすか【定期巡回・随時対応型訪問介護看護】岐阜県各務原市鵜沼山崎町6-8-2各務原リハビリテーション病院", "url": "https://www.kaigokensaku.mhlw.go.jp/21/index.php?action_kouhyou_detail_004_kani=true&JigyosyoCd=2190500294-00&ServiceCd=760&Type=search", "url2": "http://www.seidoukai.or.jp" }, "geometry": { "type": "Point", "coordinates": [ 136.946870115344296, 35.399556809161005 ] } },
{ "type": "Feature", "properties": { "内容": "ケアサポート瑞穂25【定期巡回・随時対応型訪問介護看護】岐阜県瑞穂市別府1494番地1　岐阜県本巣郡北方町柱本3丁目90番地", "url": "https://www.kaigokensaku.mhlw.go.jp/21/index.php?action_kouhyou_detail_004_kani=true&JigyosyoCd=2190700043-00&ServiceCd=760&Type=search", "url2": "https://www.wakokai.or.jp/search/nursing/caresupport-mizuho/" }, "geometry": { "type": "Point", "coordinates": [ 136.684882569720259, 35.395210820085161 ] } },
{ "type": "Feature", "properties": { "内容": "定期巡回・随時対応型訪問介護看護事業所アライブ【定期巡回・随時対応型訪問介護看護】岐阜県羽島郡笠松町長池字宮代352-1笠松いきいき倶楽部", "url": "https://www.kaigokensaku.mhlw.go.jp/21/index.php?action_kouhyou_detail_004_kani=true&JigyosyoCd=2190600110-00&ServiceCd=760&Type=search", "url2": "https://koukeikai.jp/" }, "geometry": { "type": "Point", "coordinates": [ 136.75168302680828, 35.353776384704688 ] } }
]
}
