{
"type": "FeatureCollection",
"name": "geo_21_特別支援学校",
"crs": { "type": "name", "properties": { "name": "urn:ogc:def:crs:EPSG::6668" } },
"features": [
{ "type": "Feature", "properties": { "P29_001": "21201", "P29_002": "E121220100015", "P29_003": "16012", "P29_004": "岐阜県立岐阜盲学校", "P29_005": "岐阜県岐阜市北野町70-1", "P29_006": "2", "P29_007": "0", "P29_008": "00", "P29_009": null }, "geometry": { "type": "Point", "coordinates": [ 136.752969232415239, 35.427270798591209 ] } },
{ "type": "Feature", "properties": { "P29_001": "21201", "P29_002": "E121220100024", "P29_003": "16012", "P29_004": "岐阜県立岐阜聾学校", "P29_005": "岐阜県岐阜市加納西丸町1-74", "P29_006": "2", "P29_007": "0", "P29_008": "00", "P29_009": null }, "geometry": { "type": "Point", "coordinates": [ 136.760919435127278, 35.402584234039409 ] } },
{ "type": "Feature", "properties": { "P29_001": "21201", "P29_002": "E121220100033", "P29_003": "16012", "P29_004": "岐阜県立長良特別支援学校", "P29_005": "岐阜県岐阜市長良1237-1", "P29_006": "2", "P29_007": "0", "P29_008": "00", "P29_009": null }, "geometry": { "type": "Point", "coordinates": [ 136.789818770537408, 35.451070194378623 ] } },
{ "type": "Feature", "properties": { "P29_001": "21201", "P29_002": "E121220100042", "P29_003": "16012", "P29_004": "岐阜県立岐阜希望が丘特別支援学校", "P29_005": "岐阜県岐阜市則武1816-1", "P29_006": "2", "P29_007": "0", "P29_008": "00", "P29_009": null }, "geometry": { "type": "Point", "coordinates": [ 136.754205846195021, 35.440596923784234 ] } },
{ "type": "Feature", "properties": { "P29_001": "21201", "P29_002": "E121220100051", "P29_003": "16012", "P29_004": "岐阜県立岐阜本巣特別支援学校", "P29_005": "岐阜県岐阜市西秋沢2-363-1", "P29_006": "2", "P29_007": "0", "P29_008": "00", "P29_009": null }, "geometry": { "type": "Point", "coordinates": [ 136.692029127917181, 35.499944416767562 ] } },
{ "type": "Feature", "properties": { "P29_001": "21201", "P29_002": "E121220100060", "P29_003": "16012", "P29_004": "岐阜県立岐阜清流高等特別支援学校", "P29_005": "岐阜県岐阜市芥見南山3-11-1", "P29_006": "2", "P29_007": "0", "P29_008": "00", "P29_009": null }, "geometry": { "type": "Point", "coordinates": [ 136.859718132822479, 35.454331853177131 ] } },
{ "type": "Feature", "properties": { "P29_001": "21201", "P29_002": "E121220100079", "P29_003": "16012", "P29_004": "岐阜市立岐阜特別支援学校", "P29_005": "岐阜県岐阜市小西郷3-120-2", "P29_006": "3", "P29_007": "0", "P29_008": "00", "P29_009": null }, "geometry": { "type": "Point", "coordinates": [ 136.700372273936381, 35.46245664508627 ] } },
{ "type": "Feature", "properties": { "P29_001": "21202", "P29_002": "E121220200014", "P29_003": "16012", "P29_004": "岐阜県立大垣特別支援学校", "P29_005": "岐阜県大垣市西大外羽1-227-1", "P29_006": "2", "P29_007": "0", "P29_008": "00", "P29_009": null }, "geometry": { "type": "Point", "coordinates": [ 136.594388417260006, 35.320988332739887 ] } },
{ "type": "Feature", "properties": { "P29_001": "21202", "P29_002": "E121220200023", "P29_003": "16012", "P29_004": "岐阜県立西濃高等特別支援学校", "P29_005": "岐阜県大垣市西大外羽1-181-1", "P29_006": "2", "P29_007": "0", "P29_008": "00", "P29_009": null }, "geometry": { "type": "Point", "coordinates": [ 136.594590000799286, 35.322851998141743 ] } },
{ "type": "Feature", "properties": { "P29_001": "21203", "P29_002": "E121220300013", "P29_003": "16012", "P29_004": "岐阜県立飛騨特別支援学校", "P29_005": "岐阜県高山市山田町831-44", "P29_006": "2", "P29_007": "0", "P29_008": "00", "P29_009": null }, "geometry": { "type": "Point", "coordinates": [ 137.226044751618389, 36.1445753363083 ] } },
{ "type": "Feature", "properties": { "P29_001": "21203", "P29_002": "E121220300022", "P29_003": "16012", "P29_004": "岐阜県立飛騨特別支援学校高山日赤分校", "P29_005": "岐阜県高山市天満町3-41-1", "P29_006": "2", "P29_007": "0", "P29_008": "00", "P29_009": null }, "geometry": { "type": "Point", "coordinates": [ 137.254133726964255, 36.13805697522902 ] } },
{ "type": "Feature", "properties": { "P29_001": "21205", "P29_002": "E121220500011", "P29_003": "16012", "P29_004": "岐阜県立関特別支援学校", "P29_005": "岐阜県関市桐ヶ丘1-2", "P29_006": "2", "P29_007": "0", "P29_008": "00", "P29_009": null }, "geometry": { "type": "Point", "coordinates": [ 136.90184076525415, 35.459103935820337 ] } },
{ "type": "Feature", "properties": { "P29_001": "21205", "P29_002": "E121220500020", "P29_003": "16012", "P29_004": "岐阜県立中濃特別支援学校", "P29_005": "岐阜県関市桐ヶ丘2-3", "P29_006": "2", "P29_007": "0", "P29_008": "00", "P29_009": null }, "geometry": { "type": "Point", "coordinates": [ 136.898849616293205, 35.457150285277919 ] } },
{ "type": "Feature", "properties": { "P29_001": "21209", "P29_002": "E121220900017", "P29_003": "16012", "P29_004": "岐阜県立羽島特別支援学校", "P29_005": "岐阜県羽島市正木町大浦230-1", "P29_006": "2", "P29_007": "0", "P29_008": "00", "P29_009": null }, "geometry": { "type": "Point", "coordinates": [ 136.726230115130136, 35.326102608555772 ] } },
{ "type": "Feature", "properties": { "P29_001": "21210", "P29_002": "E121221000014", "P29_003": "16012", "P29_004": "岐阜県立恵那特別支援学校", "P29_005": "岐阜県恵那市岩村町133-3", "P29_006": "2", "P29_007": "0", "P29_008": "00", "P29_009": null }, "geometry": { "type": "Point", "coordinates": [ 137.445165933115732, 35.366029566498227 ] } },
{ "type": "Feature", "properties": { "P29_001": "21211", "P29_002": "E121221100013", "P29_003": "16012", "P29_004": "岐阜県立可茂特別支援学校", "P29_005": "岐阜県美濃加茂市牧野2007-1", "P29_006": "2", "P29_007": "0", "P29_008": "00", "P29_009": null }, "geometry": { "type": "Point", "coordinates": [ 137.061729000307906, 35.448023997603357 ] } },
{ "type": "Feature", "properties": { "P29_001": "21212", "P29_002": "E121221200012", "P29_003": "16012", "P29_004": "岐阜県立東濃特別支援学校", "P29_005": "岐阜県土岐市泉町河合根ノ上1127-10", "P29_006": "2", "P29_007": "0", "P29_008": "00", "P29_009": null }, "geometry": { "type": "Point", "coordinates": [ 137.208479188676421, 35.375530512675972 ] } },
{ "type": "Feature", "properties": { "P29_001": "21213", "P29_002": "E121221300011", "P29_003": "16012", "P29_004": "各務原市立各務原特別支援学校", "P29_005": "岐阜県各務原市那加雲雀町1", "P29_006": "3", "P29_007": "0", "P29_008": "00", "P29_009": null }, "geometry": { "type": "Point", "coordinates": [ 136.843646532807014, 35.403066150788298 ] } },
{ "type": "Feature", "properties": { "P29_001": "21217", "P29_002": "E121221700017", "P29_003": "16012", "P29_004": "岐阜県立飛騨吉城特別支援学校", "P29_005": "岐阜県飛騨市古川町片原町8-127", "P29_006": "2", "P29_007": "0", "P29_008": "00", "P29_009": null }, "geometry": { "type": "Point", "coordinates": [ 137.191734818481336, 36.234774238973337 ] } },
{ "type": "Feature", "properties": { "P29_001": "21219", "P29_002": "E121221900015", "P29_003": "16012", "P29_004": "岐阜県立郡上特別支援学校", "P29_005": "岐阜県郡上市大和町栗巣32-1", "P29_006": "2", "P29_007": "0", "P29_008": "01", "P29_009": null }, "geometry": { "type": "Point", "coordinates": [ 136.940509624367706, 35.81798616639643 ] } },
{ "type": "Feature", "properties": { "P29_001": "21220", "P29_002": "E121222000012", "P29_003": "16012", "P29_004": "岐阜県立下呂特別支援学校", "P29_005": "岐阜県下呂市小川432-1", "P29_006": "2", "P29_007": "0", "P29_008": "00", "P29_009": null }, "geometry": { "type": "Point", "coordinates": [ 137.256008086466863, 35.801732082309314 ] } },
{ "type": "Feature", "properties": { "P29_001": "21221", "P29_002": "E121222100011", "P29_003": "16012", "P29_004": "岐阜県立海津特別支援学校", "P29_005": "岐阜県海津市平田町今尾3885-2", "P29_006": "2", "P29_007": "0", "P29_008": "00", "P29_009": null }, "geometry": { "type": "Point", "coordinates": [ 136.62457459033638, 35.24699485219422 ] } },
{ "type": "Feature", "properties": { "P29_001": "21401", "P29_002": "E121240100013", "P29_003": "16012", "P29_004": "岐阜県立揖斐特別支援学校", "P29_005": "岐阜県揖斐郡揖斐川町谷汲深坂2760", "P29_006": "2", "P29_007": "0", "P29_008": "00", "P29_009": null }, "geometry": { "type": "Point", "coordinates": [ 136.607540916992122, 35.514826235546735 ] } },
{ "type": "Feature", "properties": { "P29_001": "21219", "P29_002": "E121221900015", "P29_003": "16012", "P29_004": "岐阜県立郡上特別支援学校", "P29_005": "岐阜県郡上市八幡町那比3068", "P29_006": "2", "P29_007": "0", "P29_008": "02", "P29_009": "那比校舎" }, "geometry": { "type": "Point", "coordinates": [ 136.89735078838558, 35.70670213607454 ] } }
]
}
