{
"type": "FeatureCollection",
"name": "geo_21_中学校",
"crs": { "type": "name", "properties": { "name": "urn:ogc:def:crs:EPSG::6668" } },
"features": [
{ "type": "Feature", "properties": { "P29_001": "21201", "P29_002": "C121220100010", "P29_003": "16002", "P29_004": "岐阜市立岐阜清流中学校", "P29_005": "岐阜県岐阜市早田1901-18", "P29_006": "3", "P29_007": "1", "P29_008": "00", "P29_009": null }, "geometry": { "type": "Point", "coordinates": [ 136.746219980487183, 35.435979695849127 ] } },
{ "type": "Feature", "properties": { "P29_001": "21201", "P29_002": "C121220100029", "P29_003": "16002", "P29_004": "岐阜市立岐阜中央中学校", "P29_005": "岐阜県岐阜市京町3-19", "P29_006": "3", "P29_007": "1", "P29_008": "00", "P29_009": null }, "geometry": { "type": "Point", "coordinates": [ 136.756224091928601, 35.424356560348883 ] } },
{ "type": "Feature", "properties": { "P29_001": "21201", "P29_002": "C121220100038", "P29_003": "16002", "P29_004": "岐阜市立本荘中学校", "P29_005": "岐阜県岐阜市雲雀ヶ丘1", "P29_006": "3", "P29_007": "1", "P29_008": "00", "P29_009": null }, "geometry": { "type": "Point", "coordinates": [ 136.731902266837949, 35.41572364288762 ] } },
{ "type": "Feature", "properties": { "P29_001": "21201", "P29_002": "C121220100047", "P29_003": "16002", "P29_004": "岐阜市立梅林中学校", "P29_005": "岐阜県岐阜市九重町3-8", "P29_006": "3", "P29_007": "1", "P29_008": "00", "P29_009": null }, "geometry": { "type": "Point", "coordinates": [ 136.778617769236263, 35.413099121681988 ] } },
{ "type": "Feature", "properties": { "P29_001": "21201", "P29_002": "C121220100056", "P29_003": "16002", "P29_004": "岐阜市立加納中学校", "P29_005": "岐阜県岐阜市加納舟田町9", "P29_006": "3", "P29_007": "1", "P29_008": "00", "P29_009": null }, "geometry": { "type": "Point", "coordinates": [ 136.75939365827989, 35.397337469546152 ] } },
{ "type": "Feature", "properties": { "P29_001": "21201", "P29_002": "C121220100065", "P29_003": "16002", "P29_004": "岐阜市立長森中学校", "P29_005": "岐阜県岐阜市野一色4-11-1", "P29_006": "3", "P29_007": "1", "P29_008": "00", "P29_009": null }, "geometry": { "type": "Point", "coordinates": [ 136.800177839695834, 35.412825986833546 ] } },
{ "type": "Feature", "properties": { "P29_001": "21201", "P29_002": "C121220100074", "P29_003": "16002", "P29_004": "岐阜市立長良中学校", "P29_005": "岐阜県岐阜市長良福光2070", "P29_006": "3", "P29_007": "1", "P29_008": "00", "P29_009": null }, "geometry": { "type": "Point", "coordinates": [ 136.766166724235688, 35.446865337267944 ] } },
{ "type": "Feature", "properties": { "P29_001": "21201", "P29_002": "C121220100083", "P29_003": "16002", "P29_004": "岐阜市立島中学校", "P29_005": "岐阜県岐阜市則武西1-8-2", "P29_006": "3", "P29_007": "1", "P29_008": "00", "P29_009": null }, "geometry": { "type": "Point", "coordinates": [ 136.73302600061001, 35.441247996840325 ] } },
{ "type": "Feature", "properties": { "P29_001": "21201", "P29_002": "C121220100092", "P29_003": "16002", "P29_004": "岐阜市立岩野田中学校", "P29_005": "岐阜県岐阜市粟野西5-817", "P29_006": "3", "P29_007": "1", "P29_008": "00", "P29_009": null }, "geometry": { "type": "Point", "coordinates": [ 136.771721452612979, 35.482633770005407 ] } },
{ "type": "Feature", "properties": { "P29_001": "21201", "P29_002": "C121220100109", "P29_003": "16002", "P29_004": "岐阜市立精華中学校", "P29_005": "岐阜県岐阜市鏡島精華1-11-27", "P29_006": "3", "P29_007": "1", "P29_008": "00", "P29_009": null }, "geometry": { "type": "Point", "coordinates": [ 136.722671156224095, 35.411689912350859 ] } },
{ "type": "Feature", "properties": { "P29_001": "21201", "P29_002": "C121220100118", "P29_003": "16002", "P29_004": "岐阜市立藍川中学校", "P29_005": "岐阜県岐阜市芥見4-157", "P29_006": "3", "P29_007": "1", "P29_008": "00", "P29_009": null }, "geometry": { "type": "Point", "coordinates": [ 136.850050659877667, 35.45091549865807 ] } },
{ "type": "Feature", "properties": { "P29_001": "21201", "P29_002": "C121220100127", "P29_003": "16002", "P29_004": "岐阜市立三輪中学校", "P29_005": "岐阜県岐阜市石原1-12", "P29_006": "3", "P29_007": "1", "P29_008": "00", "P29_009": null }, "geometry": { "type": "Point", "coordinates": [ 136.831129847349473, 35.495679677723416 ] } },
{ "type": "Feature", "properties": { "P29_001": "21201", "P29_002": "C121220100136", "P29_003": "16002", "P29_004": "岐阜市立岐北中学校", "P29_005": "岐阜県岐阜市御望971-1-2", "P29_006": "3", "P29_007": "1", "P29_008": "00", "P29_009": null }, "geometry": { "type": "Point", "coordinates": [ 136.71241498877589, 35.473914319275934 ] } },
{ "type": "Feature", "properties": { "P29_001": "21201", "P29_002": "C121220100145", "P29_003": "16002", "P29_004": "岐阜市立厚見中学校", "P29_005": "岐阜県岐阜市上川手262-1", "P29_006": "3", "P29_007": "1", "P29_008": "00", "P29_009": null }, "geometry": { "type": "Point", "coordinates": [ 136.775228359712941, 35.398319596886729 ] } },
{ "type": "Feature", "properties": { "P29_001": "21201", "P29_002": "C121220100154", "P29_003": "16002", "P29_004": "岐阜市立青山中学校", "P29_005": "岐阜県岐阜市下土居2-27-1", "P29_006": "3", "P29_007": "1", "P29_008": "00", "P29_009": null }, "geometry": { "type": "Point", "coordinates": [ 136.758999857970451, 35.453034983841484 ] } },
{ "type": "Feature", "properties": { "P29_001": "21201", "P29_002": "C121220100163", "P29_003": "16002", "P29_004": "岐阜市立陽南中学校", "P29_005": "岐阜県岐阜市六条東1-1-1", "P29_006": "3", "P29_007": "1", "P29_008": "00", "P29_009": null }, "geometry": { "type": "Point", "coordinates": [ 136.745325163938872, 35.404598161222083 ] } },
{ "type": "Feature", "properties": { "P29_001": "21201", "P29_002": "C121220100172", "P29_003": "16002", "P29_004": "岐阜市立藍川東中学校", "P29_005": "岐阜県岐阜市大洞紅葉が丘6-22-3", "P29_006": "3", "P29_007": "1", "P29_008": "00", "P29_009": null }, "geometry": { "type": "Point", "coordinates": [ 136.873018132659325, 35.461955482999755 ] } },
{ "type": "Feature", "properties": { "P29_001": "21201", "P29_002": "C121220100181", "P29_003": "16002", "P29_004": "岐阜市立岐阜西中学校", "P29_005": "岐阜県岐阜市川部3-30", "P29_006": "3", "P29_007": "1", "P29_008": "00", "P29_009": null }, "geometry": { "type": "Point", "coordinates": [ 136.707616857021861, 35.434407678316362 ] } },
{ "type": "Feature", "properties": { "P29_001": "21201", "P29_002": "C121220100190", "P29_003": "16002", "P29_004": "岐阜市立藍川北中学校", "P29_005": "岐阜県岐阜市加野2-23-1", "P29_006": "3", "P29_007": "1", "P29_008": "00", "P29_009": null }, "geometry": { "type": "Point", "coordinates": [ 136.823762425179211, 35.463665445415998 ] } },
{ "type": "Feature", "properties": { "P29_001": "21201", "P29_002": "C121220100207", "P29_003": "16002", "P29_004": "岐阜市立長森南中学校", "P29_005": "岐阜県岐阜市切通2-11-1", "P29_006": "3", "P29_007": "1", "P29_008": "00", "P29_009": null }, "geometry": { "type": "Point", "coordinates": [ 136.795009144942924, 35.402957391712491 ] } },
{ "type": "Feature", "properties": { "P29_001": "21201", "P29_002": "C121220100216", "P29_003": "16002", "P29_004": "岐阜市立東長良中学校", "P29_005": "岐阜県岐阜市長良真生町3-27-4", "P29_006": "3", "P29_007": "1", "P29_008": "00", "P29_009": null }, "geometry": { "type": "Point", "coordinates": [ 136.780946767670173, 35.447857419292532 ] } },
{ "type": "Feature", "properties": { "P29_001": "21201", "P29_002": "C121220100225", "P29_003": "16002", "P29_004": "岐阜市立境川中学校", "P29_005": "岐阜県岐阜市柳津町上佐波東3-70", "P29_006": "3", "P29_007": "1", "P29_008": "00", "P29_009": null }, "geometry": { "type": "Point", "coordinates": [ 136.727351850654372, 35.370468020331451 ] } },
{ "type": "Feature", "properties": { "P29_001": "21201", "P29_002": "C121220100234", "P29_003": "16002", "P29_004": "岐阜市立草潤中学校", "P29_005": "岐阜県岐阜市金宝町4-1", "P29_006": "3", "P29_007": "1", "P29_008": "00", "P29_009": null }, "geometry": { "type": "Point", "coordinates": [ 136.754258550781771, 35.416042464644171 ] } },
{ "type": "Feature", "properties": { "P29_001": "21202", "P29_002": "C121220200019", "P29_003": "16002", "P29_004": "大垣市立興文中学校", "P29_005": "岐阜県大垣市西崎町1-82", "P29_006": "3", "P29_007": "1", "P29_008": "00", "P29_009": null }, "geometry": { "type": "Point", "coordinates": [ 136.60747833720302, 35.362729969126967 ] } },
{ "type": "Feature", "properties": { "P29_001": "21202", "P29_002": "C121220200028", "P29_003": "16002", "P29_004": "大垣市立東中学校", "P29_005": "岐阜県大垣市三塚町1169", "P29_006": "3", "P29_007": "1", "P29_008": "00", "P29_009": null }, "geometry": { "type": "Point", "coordinates": [ 136.630949362573546, 35.363151926848786 ] } },
{ "type": "Feature", "properties": { "P29_001": "21202", "P29_002": "C121220200037", "P29_003": "16002", "P29_004": "大垣市立西中学校", "P29_005": "岐阜県大垣市割田1-601-2", "P29_006": "3", "P29_007": "1", "P29_008": "00", "P29_009": null }, "geometry": { "type": "Point", "coordinates": [ 136.601809734259888, 35.342619388269974 ] } },
{ "type": "Feature", "properties": { "P29_001": "21202", "P29_002": "C121220200046", "P29_003": "16002", "P29_004": "大垣市立南中学校", "P29_005": "岐阜県大垣市南頬町4-141", "P29_006": "3", "P29_007": "1", "P29_008": "00", "P29_009": null }, "geometry": { "type": "Point", "coordinates": [ 136.6194436662079, 35.353936064564358 ] } },
{ "type": "Feature", "properties": { "P29_001": "21202", "P29_002": "C121220200055", "P29_003": "16002", "P29_004": "大垣市立北中学校", "P29_005": "岐阜県大垣市八島町2290", "P29_006": "3", "P29_007": "1", "P29_008": "00", "P29_009": null }, "geometry": { "type": "Point", "coordinates": [ 136.615302665625023, 35.374352531779458 ] } },
{ "type": "Feature", "properties": { "P29_001": "21202", "P29_002": "C121220200064", "P29_003": "16002", "P29_004": "大垣市立江並中学校", "P29_005": "岐阜県大垣市外渕4-66", "P29_006": "3", "P29_007": "1", "P29_008": "00", "P29_009": null }, "geometry": { "type": "Point", "coordinates": [ 136.622685854878029, 35.32770162704491 ] } },
{ "type": "Feature", "properties": { "P29_001": "21202", "P29_002": "C121220200073", "P29_003": "16002", "P29_004": "大垣市立赤坂中学校", "P29_005": "岐阜県大垣市赤坂町3421", "P29_006": "3", "P29_007": "1", "P29_008": "00", "P29_009": null }, "geometry": { "type": "Point", "coordinates": [ 136.578790050116652, 35.389035019791642 ] } },
{ "type": "Feature", "properties": { "P29_001": "21202", "P29_002": "C121220200082", "P29_003": "16002", "P29_004": "大垣市立西部中学校", "P29_005": "岐阜県大垣市荒川町337", "P29_006": "3", "P29_007": "1", "P29_008": "00", "P29_009": null }, "geometry": { "type": "Point", "coordinates": [ 136.578023969093607, 35.364898142320818 ] } },
{ "type": "Feature", "properties": { "P29_001": "21202", "P29_002": "C121220200091", "P29_003": "16002", "P29_004": "大垣市立星和中学校", "P29_005": "岐阜県大垣市楽田町6-60", "P29_006": "3", "P29_007": "1", "P29_008": "00", "P29_009": null }, "geometry": { "type": "Point", "coordinates": [ 136.629709951465657, 35.384687607767788 ] } },
{ "type": "Feature", "properties": { "P29_001": "21202", "P29_002": "C121220200108", "P29_003": "16002", "P29_004": "大垣市立上石津中学校", "P29_005": "岐阜県大垣市上石津町一之瀬100", "P29_006": "3", "P29_007": "1", "P29_008": "00", "P29_009": null }, "geometry": { "type": "Point", "coordinates": [ 136.478817862882153, 35.311915802792541 ] } },
{ "type": "Feature", "properties": { "P29_001": "21203", "P29_002": "C121220300018", "P29_003": "16002", "P29_004": "高山市立日枝中学校", "P29_005": "岐阜県高山市森下町1-200-1", "P29_006": "3", "P29_007": "1", "P29_008": "00", "P29_009": null }, "geometry": { "type": "Point", "coordinates": [ 137.259128659346061, 36.131577092333877 ] } },
{ "type": "Feature", "properties": { "P29_001": "21203", "P29_002": "C121220300027", "P29_003": "16002", "P29_004": "高山市立松倉中学校", "P29_005": "岐阜県高山市上岡本町4-119", "P29_006": "3", "P29_007": "1", "P29_008": "00", "P29_009": null }, "geometry": { "type": "Point", "coordinates": [ 137.240688469265535, 36.13902858883403 ] } },
{ "type": "Feature", "properties": { "P29_001": "21203", "P29_002": "C121220300036", "P29_003": "16002", "P29_004": "高山市立中山中学校", "P29_005": "岐阜県高山市下岡本町2663", "P29_006": "3", "P29_007": "1", "P29_008": "00", "P29_009": null }, "geometry": { "type": "Point", "coordinates": [ 137.23979458933627, 36.15559862501253 ] } },
{ "type": "Feature", "properties": { "P29_001": "21203", "P29_002": "C121220300045", "P29_003": "16002", "P29_004": "高山市立東山中学校", "P29_005": "岐阜県高山市松之木町262", "P29_006": "3", "P29_007": "1", "P29_008": "00", "P29_009": null }, "geometry": { "type": "Point", "coordinates": [ 137.273874272153392, 36.151590230155108 ] } },
{ "type": "Feature", "properties": { "P29_001": "21203", "P29_002": "C121220300054", "P29_003": "16002", "P29_004": "高山市立丹生川中学校", "P29_005": "岐阜県高山市丹生川町町方1500", "P29_006": "3", "P29_007": "1", "P29_008": "00", "P29_009": null }, "geometry": { "type": "Point", "coordinates": [ 137.307912283905409, 36.167039846877039 ] } },
{ "type": "Feature", "properties": { "P29_001": "21203", "P29_002": "C121220300063", "P29_003": "16002", "P29_004": "高山市立清見中学校", "P29_005": "岐阜県高山市清見町三日町477-1", "P29_006": "3", "P29_007": "1", "P29_008": "00", "P29_009": null }, "geometry": { "type": "Point", "coordinates": [ 137.183221553811904, 36.129680796570184 ] } },
{ "type": "Feature", "properties": { "P29_001": "21203", "P29_002": "C121220300072", "P29_003": "16002", "P29_004": "高山市立荘川中学校", "P29_005": "岐阜県高山市荘川町猿丸27", "P29_006": "3", "P29_007": "1", "P29_008": "00", "P29_009": null }, "geometry": { "type": "Point", "coordinates": [ 136.967528227588474, 36.019116602246328 ] } },
{ "type": "Feature", "properties": { "P29_001": "21203", "P29_002": "C121220300081", "P29_003": "16002", "P29_004": "高山市立宮中学校", "P29_005": "岐阜県高山市一之宮町3072", "P29_006": "3", "P29_007": "1", "P29_008": "00", "P29_009": null }, "geometry": { "type": "Point", "coordinates": [ 137.238706320758183, 36.082268853695894 ] } },
{ "type": "Feature", "properties": { "P29_001": "21203", "P29_002": "C121220300090", "P29_003": "16002", "P29_004": "高山市立久々野中学校", "P29_005": "岐阜県高山市久々野町久々野2319", "P29_006": "3", "P29_007": "1", "P29_008": "00", "P29_009": null }, "geometry": { "type": "Point", "coordinates": [ 137.280026125887588, 36.055734927391498 ] } },
{ "type": "Feature", "properties": { "P29_001": "21203", "P29_002": "C121220300107", "P29_003": "16002", "P29_004": "高山市立朝日中学校", "P29_005": "岐阜県高山市朝日町立岩777", "P29_006": "3", "P29_007": "1", "P29_008": "00", "P29_009": null }, "geometry": { "type": "Point", "coordinates": [ 137.345060936410732, 36.093382189268091 ] } },
{ "type": "Feature", "properties": { "P29_001": "21203", "P29_002": "C121220300116", "P29_003": "16002", "P29_004": "高山市立国府中学校", "P29_005": "岐阜県高山市国府町三日町450", "P29_006": "3", "P29_007": "1", "P29_008": "00", "P29_009": null }, "geometry": { "type": "Point", "coordinates": [ 137.213836788022405, 36.215584761420111 ] } },
{ "type": "Feature", "properties": { "P29_001": "21203", "P29_002": "C121220300125", "P29_003": "16002", "P29_004": "高山市立北稜中学校", "P29_005": "岐阜県高山市上宝町本郷652", "P29_006": "3", "P29_007": "1", "P29_008": "00", "P29_009": null }, "geometry": { "type": "Point", "coordinates": [ 137.36199321000251, 36.285536915423585 ] } },
{ "type": "Feature", "properties": { "P29_001": "21204", "P29_002": "C121220400017", "P29_003": "16002", "P29_004": "多治見市立陶都中学校", "P29_005": "岐阜県多治見市住吉町7-1", "P29_006": "3", "P29_007": "1", "P29_008": "00", "P29_009": null }, "geometry": { "type": "Point", "coordinates": [ 137.119747076433441, 35.346930792028957 ] } },
{ "type": "Feature", "properties": { "P29_001": "21204", "P29_002": "C121220400026", "P29_003": "16002", "P29_004": "多治見市立多治見中学校", "P29_005": "岐阜県多治見市美坂町4-10", "P29_006": "3", "P29_007": "1", "P29_008": "00", "P29_009": null }, "geometry": { "type": "Point", "coordinates": [ 137.142069591558254, 35.32909150121499 ] } },
{ "type": "Feature", "properties": { "P29_001": "21204", "P29_002": "C121220400035", "P29_003": "16002", "P29_004": "多治見市立平和中学校", "P29_005": "岐阜県多治見市脇之島町1-1", "P29_006": "3", "P29_007": "1", "P29_008": "00", "P29_009": null }, "geometry": { "type": "Point", "coordinates": [ 137.123468606995459, 35.325406007161241 ] } },
{ "type": "Feature", "properties": { "P29_001": "21204", "P29_002": "C121220400044", "P29_003": "16002", "P29_004": "多治見市立小泉中学校", "P29_005": "岐阜県多治見市小泉町7-70", "P29_006": "3", "P29_007": "1", "P29_008": "00", "P29_009": null }, "geometry": { "type": "Point", "coordinates": [ 137.094242849528285, 35.345246435778321 ] } },
{ "type": "Feature", "properties": { "P29_001": "21204", "P29_002": "C121220400053", "P29_003": "16002", "P29_004": "多治見市立南ケ丘中学校", "P29_005": "岐阜県多治見市大畑町大洞48-1", "P29_006": "3", "P29_007": "1", "P29_008": "00", "P29_009": null }, "geometry": { "type": "Point", "coordinates": [ 137.122623334919865, 35.311751923192432 ] } },
{ "type": "Feature", "properties": { "P29_001": "21204", "P29_002": "C121220400062", "P29_003": "16002", "P29_004": "多治見市立北陵中学校", "P29_005": "岐阜県多治見市旭ヶ丘10-6", "P29_006": "3", "P29_007": "1", "P29_008": "00", "P29_009": null }, "geometry": { "type": "Point", "coordinates": [ 137.109734912044928, 35.365036152623595 ] } },
{ "type": "Feature", "properties": { "P29_001": "21204", "P29_002": "C121220400071", "P29_003": "16002", "P29_004": "多治見市立南姫中学校", "P29_005": "岐阜県多治見市大針町字屋作283-1", "P29_006": "3", "P29_007": "1", "P29_008": "00", "P29_009": null }, "geometry": { "type": "Point", "coordinates": [ 137.068497689304934, 35.375598720502779 ] } },
{ "type": "Feature", "properties": { "P29_001": "21204", "P29_002": "C121220400080", "P29_003": "16002", "P29_004": "多治見市立笠原中学校", "P29_005": "岐阜県多治見市笠原町2455-12", "P29_006": "3", "P29_007": "1", "P29_008": "00", "P29_009": null }, "geometry": { "type": "Point", "coordinates": [ 137.159500382989449, 35.308871768370437 ] } },
{ "type": "Feature", "properties": { "P29_001": "21205", "P29_002": "C121220500016", "P29_003": "16002", "P29_004": "関市立緑ヶ丘中学校", "P29_005": "岐阜県関市緑ヶ丘2-1-10", "P29_006": "3", "P29_007": "1", "P29_008": "00", "P29_009": null }, "geometry": { "type": "Point", "coordinates": [ 136.902179569328297, 35.492279599266716 ] } },
{ "type": "Feature", "properties": { "P29_001": "21205", "P29_002": "C121220500025", "P29_003": "16002", "P29_004": "関市立旭ヶ丘中学校", "P29_005": "岐阜県関市旭ヶ丘2-3-1", "P29_006": "3", "P29_007": "1", "P29_008": "00", "P29_009": null }, "geometry": { "type": "Point", "coordinates": [ 136.92914375614086, 35.483866566498108 ] } },
{ "type": "Feature", "properties": { "P29_001": "21205", "P29_002": "C121220500034", "P29_003": "16002", "P29_004": "関市立桜ヶ丘中学校", "P29_005": "岐阜県関市桜台3-13-1", "P29_006": "3", "P29_007": "1", "P29_008": "00", "P29_009": null }, "geometry": { "type": "Point", "coordinates": [ 136.928323126729055, 35.464778924613952 ] } },
{ "type": "Feature", "properties": { "P29_001": "21205", "P29_002": "C121220500043", "P29_003": "16002", "P29_004": "関市立下有知中学校", "P29_005": "岐阜県関市下有知3121-1", "P29_006": "3", "P29_007": "1", "P29_008": "00", "P29_009": null }, "geometry": { "type": "Point", "coordinates": [ 136.908877787200197, 35.51604129269667 ] } },
{ "type": "Feature", "properties": { "P29_001": "21205", "P29_002": "C121220500052", "P29_003": "16002", "P29_004": "関市立富野中学校", "P29_005": "岐阜県関市志津野2972", "P29_006": "3", "P29_007": "1", "P29_008": "00", "P29_009": null }, "geometry": { "type": "Point", "coordinates": [ 136.96500756529727, 35.524660116628063 ] } },
{ "type": "Feature", "properties": { "P29_001": "21205", "P29_002": "C121220500061", "P29_003": "16002", "P29_004": "関市立小金田中学校", "P29_005": "岐阜県関市小屋名127", "P29_006": "3", "P29_007": "1", "P29_008": "00", "P29_009": null }, "geometry": { "type": "Point", "coordinates": [ 136.86335703930277, 35.48002898628539 ] } },
{ "type": "Feature", "properties": { "P29_001": "21205", "P29_002": "C121220500070", "P29_003": "16002", "P29_004": "関市立板取川中学校", "P29_005": "岐阜県関市洞戸市場566-1", "P29_006": "3", "P29_007": "1", "P29_008": "00", "P29_009": null }, "geometry": { "type": "Point", "coordinates": [ 136.81423121120929, 35.607970553003689 ] } },
{ "type": "Feature", "properties": { "P29_001": "21205", "P29_002": "C121220500089", "P29_003": "16002", "P29_004": "関市立武芸川中学校", "P29_005": "岐阜県関市武芸川町八幡1503", "P29_006": "3", "P29_007": "1", "P29_008": "00", "P29_009": null }, "geometry": { "type": "Point", "coordinates": [ 136.842745585115267, 35.535200754486446 ] } },
{ "type": "Feature", "properties": { "P29_001": "21205", "P29_002": "C121220500098", "P29_003": "16002", "P29_004": "関市立津保川中学校", "P29_005": "岐阜県関市中之保5700-5", "P29_006": "3", "P29_007": "1", "P29_008": "00", "P29_009": null }, "geometry": { "type": "Point", "coordinates": [ 137.010752641483634, 35.567698642863853 ] } },
{ "type": "Feature", "properties": { "P29_001": "21206", "P29_002": "C121220600015", "P29_003": "16002", "P29_004": "中津川市立第一中学校", "P29_005": "岐阜県中津川市駒場1606-3", "P29_006": "3", "P29_007": "1", "P29_008": "00", "P29_009": null }, "geometry": { "type": "Point", "coordinates": [ 137.488002843896624, 35.49795726746644 ] } },
{ "type": "Feature", "properties": { "P29_001": "21206", "P29_002": "C121220600024", "P29_003": "16002", "P29_004": "中津川市立第二中学校", "P29_005": "岐阜県中津川市中津川2251-1", "P29_006": "3", "P29_007": "1", "P29_008": "00", "P29_009": null }, "geometry": { "type": "Point", "coordinates": [ 137.505820455142555, 35.490927745610655 ] } },
{ "type": "Feature", "properties": { "P29_001": "21206", "P29_002": "C121220600033", "P29_003": "16002", "P29_004": "中津川市立苗木中学校", "P29_005": "岐阜県中津川市苗木2092", "P29_006": "3", "P29_007": "1", "P29_008": "00", "P29_009": null }, "geometry": { "type": "Point", "coordinates": [ 137.471715746527195, 35.524476426460467 ] } },
{ "type": "Feature", "properties": { "P29_001": "21206", "P29_002": "C121220600042", "P29_003": "16002", "P29_004": "中津川市立坂本中学校", "P29_005": "岐阜県中津川市千旦林1386-1", "P29_006": "3", "P29_007": "1", "P29_008": "00", "P29_009": null }, "geometry": { "type": "Point", "coordinates": [ 137.448451388838663, 35.476592137460607 ] } },
{ "type": "Feature", "properties": { "P29_001": "21206", "P29_002": "C121220600051", "P29_003": "16002", "P29_004": "中津川市立落合中学校", "P29_005": "岐阜県中津川市落合761-2", "P29_006": "3", "P29_007": "1", "P29_008": "00", "P29_009": null }, "geometry": { "type": "Point", "coordinates": [ 137.532832630606464, 35.513085012346764 ] } },
{ "type": "Feature", "properties": { "P29_001": "21206", "P29_002": "C121220600060", "P29_003": "16002", "P29_004": "中津川市立阿木中学校", "P29_005": "岐阜県中津川市阿木6006", "P29_006": "3", "P29_007": "1", "P29_008": "00", "P29_009": null }, "geometry": { "type": "Point", "coordinates": [ 137.478362349621619, 35.395169780198053 ] } },
{ "type": "Feature", "properties": { "P29_001": "21206", "P29_002": "C121220600079", "P29_003": "16002", "P29_004": "中津川市立神坂中学校", "P29_005": "岐阜県中津川市神坂1526-3", "P29_006": "3", "P29_007": "1", "P29_008": "00", "P29_009": null }, "geometry": { "type": "Point", "coordinates": [ 137.568703501556655, 35.519450211469511 ] } },
{ "type": "Feature", "properties": { "P29_001": "21206", "P29_002": "C121220600088", "P29_003": "16002", "P29_004": "中津川市立坂下中学校", "P29_005": "岐阜県中津川市坂下1500-1", "P29_006": "3", "P29_007": "1", "P29_008": "00", "P29_009": null }, "geometry": { "type": "Point", "coordinates": [ 137.522606243916528, 35.579386548898604 ] } },
{ "type": "Feature", "properties": { "P29_001": "21206", "P29_002": "C121220600097", "P29_003": "16002", "P29_004": "中津川市立加子母中学校", "P29_005": "岐阜県中津川市加子母3357", "P29_006": "3", "P29_007": "1", "P29_008": "00", "P29_009": null }, "geometry": { "type": "Point", "coordinates": [ 137.363201346319443, 35.715892641624578 ] } },
{ "type": "Feature", "properties": { "P29_001": "21206", "P29_002": "C121220600104", "P29_003": "16002", "P29_004": "中津川市立付知中学校", "P29_005": "岐阜県中津川市付知町5758", "P29_006": "3", "P29_007": "1", "P29_008": "00", "P29_009": null }, "geometry": { "type": "Point", "coordinates": [ 137.42588012706841, 35.658019580191379 ] } },
{ "type": "Feature", "properties": { "P29_001": "21206", "P29_002": "C121220600113", "P29_003": "16002", "P29_004": "中津川市立福岡中学校", "P29_005": "岐阜県中津川市福岡1-8", "P29_006": "3", "P29_007": "1", "P29_008": "00", "P29_009": null }, "geometry": { "type": "Point", "coordinates": [ 137.45323374390378, 35.574119742296652 ] } },
{ "type": "Feature", "properties": { "P29_001": "21206", "P29_002": "C121220600122", "P29_003": "16002", "P29_004": "中津川市立蛭川中学校", "P29_005": "岐阜県中津川市蛭川1798-1", "P29_006": "3", "P29_007": "1", "P29_008": "00", "P29_009": null }, "geometry": { "type": "Point", "coordinates": [ 137.372376902767144, 35.524661245432888 ] } },
{ "type": "Feature", "properties": { "P29_001": "21207", "P29_002": "C121220700014", "P29_003": "16002", "P29_004": "美濃市立美濃中学校", "P29_005": "岐阜県美濃市2881-1", "P29_006": "3", "P29_007": "1", "P29_008": "00", "P29_009": null }, "geometry": { "type": "Point", "coordinates": [ 136.912342283037873, 35.538580235262373 ] } },
{ "type": "Feature", "properties": { "P29_001": "21207", "P29_002": "C121220700023", "P29_003": "16002", "P29_004": "美濃市立昭和中学校", "P29_005": "岐阜県美濃市大矢田765", "P29_006": "3", "P29_007": "1", "P29_008": "00", "P29_009": null }, "geometry": { "type": "Point", "coordinates": [ 136.876349076789921, 35.53561489502475 ] } },
{ "type": "Feature", "properties": { "P29_001": "21208", "P29_002": "C121220800013", "P29_003": "16002", "P29_004": "瑞浪市立瑞浪中学校", "P29_005": "岐阜県瑞浪市土岐町7790-1", "P29_006": "3", "P29_007": "1", "P29_008": "00", "P29_009": null }, "geometry": { "type": "Point", "coordinates": [ 137.255018818197669, 35.356145645843085 ] } },
{ "type": "Feature", "properties": { "P29_001": "21208", "P29_002": "C121220800022", "P29_003": "16002", "P29_004": "瑞浪市立瑞浪南中学校", "P29_005": "岐阜県瑞浪市稲津町小里456", "P29_006": "3", "P29_007": "1", "P29_008": "00", "P29_009": null }, "geometry": { "type": "Point", "coordinates": [ 137.280488500771526, 35.347444831052847 ] } },
{ "type": "Feature", "properties": { "P29_001": "21208", "P29_002": "C121220800031", "P29_003": "16002", "P29_004": "瑞浪市立瑞浪北中学校", "P29_005": "岐阜県瑞浪市土岐町973", "P29_006": "3", "P29_007": "1", "P29_008": "00", "P29_009": null }, "geometry": { "type": "Point", "coordinates": [ 137.252871153370677, 35.375279604367051 ] } },
{ "type": "Feature", "properties": { "P29_001": "21209", "P29_002": "C121220900012", "P29_003": "16002", "P29_004": "羽島市立羽島中学校", "P29_005": "岐阜県羽島市足近町7-455", "P29_006": "3", "P29_007": "1", "P29_008": "00", "P29_009": null }, "geometry": { "type": "Point", "coordinates": [ 136.720720653918391, 35.339581387034741 ] } },
{ "type": "Feature", "properties": { "P29_001": "21209", "P29_002": "C121220900021", "P29_003": "16002", "P29_004": "羽島市立竹鼻中学校", "P29_005": "岐阜県羽島市竹鼻町3176", "P29_006": "3", "P29_007": "1", "P29_008": "00", "P29_009": null }, "geometry": { "type": "Point", "coordinates": [ 136.70419999659137, 35.319705999928111 ] } },
{ "type": "Feature", "properties": { "P29_001": "21209", "P29_002": "C121220900030", "P29_003": "16002", "P29_004": "羽島市立中央中学校", "P29_005": "岐阜県羽島市竹鼻町飯柄505", "P29_006": "3", "P29_007": "1", "P29_008": "00", "P29_009": null }, "geometry": { "type": "Point", "coordinates": [ 136.716004242511332, 35.311564946952664 ] } },
{ "type": "Feature", "properties": { "P29_001": "21209", "P29_002": "C121220900049", "P29_003": "16002", "P29_004": "羽島市立中島中学校", "P29_005": "岐阜県羽島市上中町沖1593", "P29_006": "3", "P29_007": "1", "P29_008": "00", "P29_009": null }, "geometry": { "type": "Point", "coordinates": [ 136.700237377, 35.297303097210296 ] } },
{ "type": "Feature", "properties": { "P29_001": "21210", "P29_002": "C121221000019", "P29_003": "16002", "P29_004": "恵那市立恵那東中学校", "P29_005": "岐阜県恵那市大井町1073-1", "P29_006": "3", "P29_007": "1", "P29_008": "00", "P29_009": null }, "geometry": { "type": "Point", "coordinates": [ 137.421284638533393, 35.451741587414574 ] } },
{ "type": "Feature", "properties": { "P29_001": "21210", "P29_002": "C121221000028", "P29_003": "16002", "P29_004": "恵那市立恵那西中学校", "P29_005": "岐阜県恵那市長島町中野1269-261", "P29_006": "3", "P29_007": "1", "P29_008": "00", "P29_009": null }, "geometry": { "type": "Point", "coordinates": [ 137.382326569606704, 35.439776213812756 ] } },
{ "type": "Feature", "properties": { "P29_001": "21210", "P29_002": "C121221000037", "P29_003": "16002", "P29_004": "恵那市立恵那北中学校", "P29_005": "岐阜県恵那市笠置町河合980", "P29_006": "3", "P29_007": "1", "P29_008": "00", "P29_009": null }, "geometry": { "type": "Point", "coordinates": [ 137.330987095519333, 35.48078430843595 ] } },
{ "type": "Feature", "properties": { "P29_001": "21210", "P29_002": "C121221000046", "P29_003": "16002", "P29_004": "恵那市立岩邑中学校", "P29_005": "岐阜県恵那市岩村町1273-1", "P29_006": "3", "P29_007": "1", "P29_008": "00", "P29_009": null }, "geometry": { "type": "Point", "coordinates": [ 137.43881996247714, 35.375151168425305 ] } },
{ "type": "Feature", "properties": { "P29_001": "21210", "P29_002": "C121221000055", "P29_003": "16002", "P29_004": "恵那市立山岡中学校", "P29_005": "岐阜県恵那市山岡町下手向182-4", "P29_006": "3", "P29_007": "1", "P29_008": "00", "P29_009": null }, "geometry": { "type": "Point", "coordinates": [ 137.374892708449806, 35.355320958341579 ] } },
{ "type": "Feature", "properties": { "P29_001": "21210", "P29_002": "C121221000064", "P29_003": "16002", "P29_004": "恵那市立明智中学校", "P29_005": "岐阜県恵那市明智町60-1", "P29_006": "3", "P29_007": "1", "P29_008": "00", "P29_009": null }, "geometry": { "type": "Point", "coordinates": [ 137.392868507509121, 35.309389681886771 ] } },
{ "type": "Feature", "properties": { "P29_001": "21210", "P29_002": "C121221000073", "P29_003": "16002", "P29_004": "恵那市立串原中学校", "P29_005": "岐阜県恵那市串原4083-2", "P29_006": "3", "P29_007": "1", "P29_008": "00", "P29_009": null }, "geometry": { "type": "Point", "coordinates": [ 137.407739600750602, 35.260649717526505 ] } },
{ "type": "Feature", "properties": { "P29_001": "21210", "P29_002": "C121221000082", "P29_003": "16002", "P29_004": "恵那市立上矢作中学校", "P29_005": "岐阜県恵那市上矢作町漆原67", "P29_006": "3", "P29_007": "1", "P29_008": "00", "P29_009": null }, "geometry": { "type": "Point", "coordinates": [ 137.487081795249537, 35.292445493532988 ] } },
{ "type": "Feature", "properties": { "P29_001": "21211", "P29_002": "C121221100018", "P29_003": "16002", "P29_004": "美濃加茂市立西中学校", "P29_005": "岐阜県美濃加茂市西町1-30", "P29_006": "3", "P29_007": "1", "P29_008": "00", "P29_009": null }, "geometry": { "type": "Point", "coordinates": [ 137.005084400639191, 35.447441267901233 ] } },
{ "type": "Feature", "properties": { "P29_001": "21211", "P29_002": "C121221100027", "P29_003": "16002", "P29_004": "美濃加茂市立東中学校", "P29_005": "岐阜県美濃加茂市本郷町8-8-52", "P29_006": "3", "P29_007": "1", "P29_008": "00", "P29_009": null }, "geometry": { "type": "Point", "coordinates": [ 137.046427580358483, 35.452167139918856 ] } },
{ "type": "Feature", "properties": { "P29_001": "21212", "P29_002": "C121221200017", "P29_003": "16002", "P29_004": "土岐市立土岐津中学校", "P29_005": "岐阜県土岐市土岐津町土岐口2046-1", "P29_006": "3", "P29_007": "1", "P29_008": "00", "P29_009": null }, "geometry": { "type": "Point", "coordinates": [ 137.181671302725221, 35.348999181588368 ] } },
{ "type": "Feature", "properties": { "P29_001": "21212", "P29_002": "C121221200026", "P29_003": "16002", "P29_004": "土岐市立西陵中学校", "P29_005": "岐阜県土岐市妻木町1513-1", "P29_006": "3", "P29_007": "1", "P29_008": "00", "P29_009": null }, "geometry": { "type": "Point", "coordinates": [ 137.185288469492718, 35.318125299837178 ] } },
{ "type": "Feature", "properties": { "P29_001": "21212", "P29_002": "C121221200035", "P29_003": "16002", "P29_004": "土岐市立濃南中学校", "P29_005": "岐阜県土岐市鶴里町細野139-2", "P29_006": "3", "P29_007": "1", "P29_008": "00", "P29_009": null }, "geometry": { "type": "Point", "coordinates": [ 137.237366903653339, 35.278393732293821 ] } },
{ "type": "Feature", "properties": { "P29_001": "21212", "P29_002": "C121221200044", "P29_003": "16002", "P29_004": "土岐市立駄知中学校", "P29_005": "岐阜県土岐市駄知町1145-6", "P29_006": "3", "P29_007": "1", "P29_008": "00", "P29_009": null }, "geometry": { "type": "Point", "coordinates": [ 137.231769410528955, 35.336067320693381 ] } },
{ "type": "Feature", "properties": { "P29_001": "21212", "P29_002": "C121221200053", "P29_003": "16002", "P29_004": "土岐市立肥田中学校", "P29_005": "岐阜県土岐市肥田町肥田2285-1", "P29_006": "3", "P29_007": "1", "P29_008": "00", "P29_009": null }, "geometry": { "type": "Point", "coordinates": [ 137.208121085407868, 35.353088770759932 ] } },
{ "type": "Feature", "properties": { "P29_001": "21212", "P29_002": "C121221200062", "P29_003": "16002", "P29_004": "土岐市立泉中学校", "P29_005": "岐阜県土岐市泉町大富1635-1", "P29_006": "3", "P29_007": "1", "P29_008": "00", "P29_009": null }, "geometry": { "type": "Point", "coordinates": [ 137.184184741942431, 35.367098946350502 ] } },
{ "type": "Feature", "properties": { "P29_001": "21213", "P29_002": "C121221300016", "P29_003": "16002", "P29_004": "各務原市立那加中学校", "P29_005": "岐阜県各務原市那加東亜町48", "P29_006": "3", "P29_007": "1", "P29_008": "00", "P29_009": null }, "geometry": { "type": "Point", "coordinates": [ 136.839195077178459, 35.402555842148786 ] } },
{ "type": "Feature", "properties": { "P29_001": "21213", "P29_002": "C121221300025", "P29_003": "16002", "P29_004": "各務原市立桜丘中学校", "P29_005": "岐阜県各務原市那加不動丘1-77", "P29_006": "3", "P29_007": "1", "P29_008": "00", "P29_009": null }, "geometry": { "type": "Point", "coordinates": [ 136.845974199378105, 35.406326486218049 ] } },
{ "type": "Feature", "properties": { "P29_001": "21213", "P29_002": "C121221300034", "P29_003": "16002", "P29_004": "各務原市立稲羽中学校", "P29_005": "岐阜県各務原市上戸町5-40", "P29_006": "3", "P29_007": "1", "P29_008": "00", "P29_009": null }, "geometry": { "type": "Point", "coordinates": [ 136.851104039274531, 35.381207440196953 ] } },
{ "type": "Feature", "properties": { "P29_001": "21213", "P29_002": "C121221300043", "P29_003": "16002", "P29_004": "各務原市立川島中学校", "P29_005": "岐阜県各務原市川島河田町1028-1", "P29_006": "3", "P29_007": "1", "P29_008": "00", "P29_009": null }, "geometry": { "type": "Point", "coordinates": [ 136.831250160487201, 35.36363788729043 ] } },
{ "type": "Feature", "properties": { "P29_001": "21213", "P29_002": "C121221300052", "P29_003": "16002", "P29_004": "各務原市立鵜沼中学校", "P29_005": "岐阜県各務原市松が丘2-100", "P29_006": "3", "P29_007": "1", "P29_008": "00", "P29_009": null }, "geometry": { "type": "Point", "coordinates": [ 136.92215322484148, 35.409140265125671 ] } },
{ "type": "Feature", "properties": { "P29_001": "21213", "P29_002": "C121221300061", "P29_003": "16002", "P29_004": "各務原市立緑陽中学校", "P29_005": "岐阜県各務原市緑苑北1-4", "P29_006": "3", "P29_007": "1", "P29_008": "00", "P29_009": null }, "geometry": { "type": "Point", "coordinates": [ 136.947181998180383, 35.417651287466626 ] } },
{ "type": "Feature", "properties": { "P29_001": "21213", "P29_002": "C121221300070", "P29_003": "16002", "P29_004": "各務原市立蘇原中学校", "P29_005": "岐阜県各務原市蘇原青雲町1-10", "P29_006": "3", "P29_007": "1", "P29_008": "00", "P29_009": null }, "geometry": { "type": "Point", "coordinates": [ 136.859294497505829, 35.411881939692073 ] } },
{ "type": "Feature", "properties": { "P29_001": "21213", "P29_002": "C121221300089", "P29_003": "16002", "P29_004": "各務原市立中央中学校", "P29_005": "岐阜県各務原市各務西町4-358-1", "P29_006": "3", "P29_007": "1", "P29_008": "00", "P29_009": null }, "geometry": { "type": "Point", "coordinates": [ 136.885131900300934, 35.408787664679622 ] } },
{ "type": "Feature", "properties": { "P29_001": "21214", "P29_002": "C121221400015", "P29_003": "16002", "P29_004": "可児市立蘇南中学校", "P29_005": "岐阜県可児市今渡112", "P29_006": "3", "P29_007": "1", "P29_008": "00", "P29_009": null }, "geometry": { "type": "Point", "coordinates": [ 137.032870933600748, 35.430411609414989 ] } },
{ "type": "Feature", "properties": { "P29_001": "21214", "P29_002": "C121221400024", "P29_003": "16002", "P29_004": "可児市立中部中学校", "P29_005": "岐阜県可児市広見1086", "P29_006": "3", "P29_007": "1", "P29_008": "00", "P29_009": null }, "geometry": { "type": "Point", "coordinates": [ 137.071309361297324, 35.420549488451357 ] } },
{ "type": "Feature", "properties": { "P29_001": "21214", "P29_002": "C121221400033", "P29_003": "16002", "P29_004": "可児市立西可児中学校", "P29_005": "岐阜県可児市若葉台7-1", "P29_006": "3", "P29_007": "1", "P29_008": "00", "P29_009": null }, "geometry": { "type": "Point", "coordinates": [ 137.019534726046203, 35.407044833889209 ] } },
{ "type": "Feature", "properties": { "P29_001": "21214", "P29_002": "C121221400042", "P29_003": "16002", "P29_004": "可児市立東可児中学校", "P29_005": "岐阜県可児市皐ヶ丘4-71", "P29_006": "3", "P29_007": "1", "P29_008": "00", "P29_009": null }, "geometry": { "type": "Point", "coordinates": [ 137.10980204144991, 35.384894162675721 ] } },
{ "type": "Feature", "properties": { "P29_001": "21214", "P29_002": "C121221400051", "P29_003": "16002", "P29_004": "可児市立広陵中学校", "P29_005": "岐阜県可児市東帷子593", "P29_006": "3", "P29_007": "1", "P29_008": "00", "P29_009": null }, "geometry": { "type": "Point", "coordinates": [ 137.010948212325331, 35.408071267329632 ] } },
{ "type": "Feature", "properties": { "P29_001": "21215", "P29_002": "C121221500014", "P29_003": "16002", "P29_004": "山県市立高富中学校", "P29_005": "岐阜県山県市高富2845-1", "P29_006": "3", "P29_007": "1", "P29_008": "00", "P29_009": null }, "geometry": { "type": "Point", "coordinates": [ 136.794476415714797, 35.504244696319695 ] } },
{ "type": "Feature", "properties": { "P29_001": "21215", "P29_002": "C121221500023", "P29_003": "16002", "P29_004": "山県市立伊自良中学校", "P29_005": "岐阜県山県市大門954-1", "P29_006": "3", "P29_007": "1", "P29_008": "00", "P29_009": null }, "geometry": { "type": "Point", "coordinates": [ 136.727625232568528, 35.535987982164876 ] } },
{ "type": "Feature", "properties": { "P29_001": "21215", "P29_002": "C121221500032", "P29_003": "16002", "P29_004": "山県市立美山中学校", "P29_005": "岐阜県山県市富永64", "P29_006": "3", "P29_007": "1", "P29_008": "00", "P29_009": null }, "geometry": { "type": "Point", "coordinates": [ 136.796369065750412, 35.555293513947802 ] } },
{ "type": "Feature", "properties": { "P29_001": "21216", "P29_002": "C121221600013", "P29_003": "16002", "P29_004": "瑞穂市立穂積中学校", "P29_005": "岐阜県瑞穂市別府1888", "P29_006": "3", "P29_007": "1", "P29_008": "00", "P29_009": null }, "geometry": { "type": "Point", "coordinates": [ 136.686827499343281, 35.391776085142396 ] } },
{ "type": "Feature", "properties": { "P29_001": "21216", "P29_002": "C121221600022", "P29_003": "16002", "P29_004": "瑞穂市立穂積北中学校", "P29_005": "岐阜県瑞穂市本田2000", "P29_006": "3", "P29_007": "1", "P29_008": "00", "P29_009": null }, "geometry": { "type": "Point", "coordinates": [ 136.687165802069899, 35.403983490193852 ] } },
{ "type": "Feature", "properties": { "P29_001": "21216", "P29_002": "C121221600031", "P29_003": "16002", "P29_004": "瑞穂市立巣南中学校", "P29_005": "岐阜県瑞穂市古橋10-1", "P29_006": "3", "P29_007": "1", "P29_008": "00", "P29_009": null }, "geometry": { "type": "Point", "coordinates": [ 136.651032336633932, 35.401636008399556 ] } },
{ "type": "Feature", "properties": { "P29_001": "21217", "P29_002": "C121221700012", "P29_003": "16002", "P29_004": "飛騨市立古川中学校", "P29_005": "岐阜県飛騨市古川町沼町100", "P29_006": "3", "P29_007": "1", "P29_008": "00", "P29_009": null }, "geometry": { "type": "Point", "coordinates": [ 137.17472232028112, 36.24400611167011 ] } },
{ "type": "Feature", "properties": { "P29_001": "21217", "P29_002": "C121221700021", "P29_003": "16002", "P29_004": "飛騨市立神岡中学校", "P29_005": "岐阜県飛騨市神岡町桜ヶ丘1", "P29_006": "3", "P29_007": "1", "P29_008": "00", "P29_009": null }, "geometry": { "type": "Point", "coordinates": [ 137.303545766750347, 36.328909177535131 ] } },
{ "type": "Feature", "properties": { "P29_001": "21217", "P29_002": "C121221700030", "P29_003": "16002", "P29_004": "飛騨市立山之村中学校", "P29_005": "岐阜県飛騨市神岡町森茂1649-1", "P29_006": "3", "P29_007": "1", "P29_008": "00", "P29_009": null }, "geometry": { "type": "Point", "coordinates": [ 137.371673811471567, 36.377781955708528 ] } },
{ "type": "Feature", "properties": { "P29_001": "21218", "P29_002": "C121221800020", "P29_003": "16002", "P29_004": "本巣市立本巣中学校", "P29_005": "岐阜県本巣市文殊120", "P29_006": "3", "P29_007": "1", "P29_008": "00", "P29_009": null }, "geometry": { "type": "Point", "coordinates": [ 136.674154719860667, 35.490119893753722 ] } },
{ "type": "Feature", "properties": { "P29_001": "21218", "P29_002": "C121221800039", "P29_003": "16002", "P29_004": "本巣市立糸貫中学校", "P29_005": "岐阜県本巣市三橋1101-8", "P29_006": "3", "P29_007": "1", "P29_008": "00", "P29_009": null }, "geometry": { "type": "Point", "coordinates": [ 136.672998033111497, 35.449258959088226 ] } },
{ "type": "Feature", "properties": { "P29_001": "21218", "P29_002": "C121221800048", "P29_003": "16002", "P29_004": "本巣市立真正中学校", "P29_005": "岐阜県本巣市下真桑1010", "P29_006": "3", "P29_007": "1", "P29_008": "00", "P29_009": null }, "geometry": { "type": "Point", "coordinates": [ 136.654845795986404, 35.43422403419514 ] } },
{ "type": "Feature", "properties": { "P29_001": "21219", "P29_002": "C121221900010", "P29_003": "16002", "P29_004": "郡上市立八幡中学校", "P29_005": "岐阜県郡上市八幡町小野8-5-1", "P29_006": "3", "P29_007": "1", "P29_008": "00", "P29_009": null }, "geometry": { "type": "Point", "coordinates": [ 136.973750932824856, 35.756846408787304 ] } },
{ "type": "Feature", "properties": { "P29_001": "21219", "P29_002": "C121221900029", "P29_003": "16002", "P29_004": "郡上市立八幡西中学校", "P29_005": "岐阜県郡上市八幡町西乙原254-1", "P29_006": "3", "P29_007": "1", "P29_008": "00", "P29_009": null }, "geometry": { "type": "Point", "coordinates": [ 136.950263555552255, 35.709602039578861 ] } },
{ "type": "Feature", "properties": { "P29_001": "21219", "P29_002": "C121221900038", "P29_003": "16002", "P29_004": "郡上市立大和中学校", "P29_005": "岐阜県郡上市大和町剣100", "P29_006": "3", "P29_007": "1", "P29_008": "00", "P29_009": null }, "geometry": { "type": "Point", "coordinates": [ 136.899621677373773, 35.815457508713834 ] } },
{ "type": "Feature", "properties": { "P29_001": "21219", "P29_002": "C121221900047", "P29_003": "16002", "P29_004": "郡上市立白鳥中学校", "P29_005": "岐阜県郡上市白鳥町為真761-1", "P29_006": "3", "P29_007": "1", "P29_008": "00", "P29_009": null }, "geometry": { "type": "Point", "coordinates": [ 136.866221223493397, 35.879649798925662 ] } },
{ "type": "Feature", "properties": { "P29_001": "21219", "P29_002": "C121221900056", "P29_003": "16002", "P29_004": "郡上市立高鷲中学校", "P29_005": "岐阜県郡上市高鷲町大鷲284-14", "P29_006": "3", "P29_007": "1", "P29_008": "00", "P29_009": null }, "geometry": { "type": "Point", "coordinates": [ 136.867092071936952, 35.94708810542577 ] } },
{ "type": "Feature", "properties": { "P29_001": "21219", "P29_002": "C121221900065", "P29_003": "16002", "P29_004": "郡上市立郡南中学校", "P29_005": "岐阜県郡上市美並町白山1331-1", "P29_006": "3", "P29_007": "1", "P29_008": "00", "P29_009": null }, "geometry": { "type": "Point", "coordinates": [ 136.950395122529983, 35.653989329717781 ] } },
{ "type": "Feature", "properties": { "P29_001": "21219", "P29_002": "C121221900074", "P29_003": "16002", "P29_004": "郡上市立明宝中学校", "P29_005": "岐阜県郡上市明宝二間手276", "P29_006": "3", "P29_007": "1", "P29_008": "00", "P29_009": null }, "geometry": { "type": "Point", "coordinates": [ 137.037358660549955, 35.854310805128428 ] } },
{ "type": "Feature", "properties": { "P29_001": "21219", "P29_002": "C121221900083", "P29_003": "16002", "P29_004": "郡上市立郡上東中学校", "P29_005": "岐阜県郡上市和良村法師丸196-1", "P29_006": "3", "P29_007": "1", "P29_008": "00", "P29_009": null }, "geometry": { "type": "Point", "coordinates": [ 137.085651432354354, 35.74375763847123 ] } },
{ "type": "Feature", "properties": { "P29_001": "21220", "P29_002": "C121222000017", "P29_003": "16002", "P29_004": "下呂市立萩原南中学校", "P29_005": "岐阜県下呂市萩原町萩原579", "P29_006": "3", "P29_007": "1", "P29_008": "00", "P29_009": null }, "geometry": { "type": "Point", "coordinates": [ 137.212334861503791, 35.873607219682391 ] } },
{ "type": "Feature", "properties": { "P29_001": "21220", "P29_002": "C121222000026", "P29_003": "16002", "P29_004": "下呂市立萩原北中学校", "P29_005": "岐阜県下呂市萩原町尾崎61", "P29_006": "3", "P29_007": "1", "P29_008": "00", "P29_009": null }, "geometry": { "type": "Point", "coordinates": [ 137.201330774986587, 35.912468328867 ] } },
{ "type": "Feature", "properties": { "P29_001": "21220", "P29_002": "C121222000035", "P29_003": "16002", "P29_004": "下呂市立小坂中学校", "P29_005": "岐阜県下呂市小坂町長瀬466", "P29_006": "3", "P29_007": "1", "P29_008": "00", "P29_009": null }, "geometry": { "type": "Point", "coordinates": [ 137.272091013057775, 35.942514934126507 ] } },
{ "type": "Feature", "properties": { "P29_001": "21220", "P29_002": "C121222000044", "P29_003": "16002", "P29_004": "下呂市立下呂中学校", "P29_005": "岐阜県下呂市森455-1", "P29_006": "3", "P29_007": "1", "P29_008": "00", "P29_009": null }, "geometry": { "type": "Point", "coordinates": [ 137.251919791082315, 35.799737116371197 ] } },
{ "type": "Feature", "properties": { "P29_001": "21220", "P29_002": "C121222000053", "P29_003": "16002", "P29_004": "下呂市立竹原中学校", "P29_005": "岐阜県下呂市宮地2714", "P29_006": "3", "P29_007": "1", "P29_008": "00", "P29_009": null }, "geometry": { "type": "Point", "coordinates": [ 137.293224219969574, 35.763103111058498 ] } },
{ "type": "Feature", "properties": { "P29_001": "21220", "P29_002": "C121222000062", "P29_003": "16002", "P29_004": "下呂市立金山中学校", "P29_005": "岐阜県下呂市金山町金山2619", "P29_006": "3", "P29_007": "1", "P29_008": "00", "P29_009": null }, "geometry": { "type": "Point", "coordinates": [ 137.156462494847432, 35.654777888060636 ] } },
{ "type": "Feature", "properties": { "P29_001": "21221", "P29_002": "C121222100016", "P29_003": "16002", "P29_004": "海津市立日新中学校", "P29_005": "岐阜県海津市海津町高須531-1", "P29_006": "3", "P29_007": "1", "P29_008": "00", "P29_009": null }, "geometry": { "type": "Point", "coordinates": [ 136.638488583627606, 35.220123695923796 ] } },
{ "type": "Feature", "properties": { "P29_001": "21221", "P29_002": "C121222100025", "P29_003": "16002", "P29_004": "海津市立平田中学校", "P29_005": "岐阜県海津市平田町蛇池1318", "P29_006": "3", "P29_007": "1", "P29_008": "00", "P29_009": null }, "geometry": { "type": "Point", "coordinates": [ 136.642728625107964, 35.255535217037512 ] } },
{ "type": "Feature", "properties": { "P29_001": "21221", "P29_002": "C121222100034", "P29_003": "16002", "P29_004": "海津市立城南中学校", "P29_005": "岐阜県海津市南濃町羽沢1050", "P29_006": "3", "P29_007": "1", "P29_008": "00", "P29_009": null }, "geometry": { "type": "Point", "coordinates": [ 136.601508438477282, 35.219077481472496 ] } },
{ "type": "Feature", "properties": { "P29_001": "21302", "P29_002": "C121230200018", "P29_003": "16002", "P29_004": "羽島郡岐南町立岐南中学校", "P29_005": "岐阜県羽島郡岐南町徳田3-284", "P29_006": "3", "P29_007": "1", "P29_008": "00", "P29_009": null }, "geometry": { "type": "Point", "coordinates": [ 136.775000334483593, 35.384289850923786 ] } },
{ "type": "Feature", "properties": { "P29_001": "21303", "P29_002": "C121230300017", "P29_003": "16002", "P29_004": "羽島郡笠松町立笠松中学校", "P29_005": "岐阜県羽島郡笠松町弥生町1", "P29_006": "3", "P29_007": "1", "P29_008": "00", "P29_009": null }, "geometry": { "type": "Point", "coordinates": [ 136.759022310793284, 35.372264703381617 ] } },
{ "type": "Feature", "properties": { "P29_001": "21341", "P29_002": "C121234100011", "P29_003": "16002", "P29_004": "養老郡養老町立高田中学校", "P29_005": "岐阜県養老郡養老町高田3879-4", "P29_006": "3", "P29_007": "1", "P29_008": "00", "P29_009": null }, "geometry": { "type": "Point", "coordinates": [ 136.554142158174983, 35.311451212472001 ] } },
{ "type": "Feature", "properties": { "P29_001": "21341", "P29_002": "C121234100020", "P29_003": "16002", "P29_004": "養老郡養老町立東部中学校", "P29_005": "岐阜県養老郡養老町下笠2769", "P29_006": "3", "P29_007": "1", "P29_008": "00", "P29_009": null }, "geometry": { "type": "Point", "coordinates": [ 136.591293050426003, 35.272853407827313 ] } },
{ "type": "Feature", "properties": { "P29_001": "21361", "P29_002": "C121236100016", "P29_003": "16002", "P29_004": "不破郡垂井町立不破中学校", "P29_005": "岐阜県不破郡垂井町2461", "P29_006": "3", "P29_007": "1", "P29_008": "00", "P29_009": null }, "geometry": { "type": "Point", "coordinates": [ 136.539938995209297, 35.369725001317761 ] } },
{ "type": "Feature", "properties": { "P29_001": "21361", "P29_002": "C121236100025", "P29_003": "16002", "P29_004": "不破郡垂井町立北中学校", "P29_005": "岐阜県不破郡垂井町新井152-1", "P29_006": "3", "P29_007": "1", "P29_008": "00", "P29_009": null }, "geometry": { "type": "Point", "coordinates": [ 136.516888890141075, 35.383838959219837 ] } },
{ "type": "Feature", "properties": { "P29_001": "21362", "P29_002": "C121236200015", "P29_003": "16002", "P29_004": "不破郡関ケ原町立関ケ原中学校", "P29_005": "岐阜県不破郡関ケ原町関ケ原2490-101", "P29_006": "3", "P29_007": "1", "P29_008": "00", "P29_009": null }, "geometry": { "type": "Point", "coordinates": [ 136.464669741685782, 35.359046743243475 ] } },
{ "type": "Feature", "properties": { "P29_001": "21381", "P29_002": "C121238100012", "P29_003": "16002", "P29_004": "安八郡神戸町立神戸中学校", "P29_005": "岐阜県安八郡神戸町末守311", "P29_006": "3", "P29_007": "1", "P29_008": "00", "P29_009": null }, "geometry": { "type": "Point", "coordinates": [ 136.600683631302275, 35.417654928353805 ] } },
{ "type": "Feature", "properties": { "P29_001": "21382", "P29_002": "C121238200011", "P29_003": "16002", "P29_004": "安八郡輪之内町立輪之内中学校", "P29_005": "岐阜県安八郡輪之内町四郷2457", "P29_006": "3", "P29_007": "1", "P29_008": "00", "P29_009": null }, "geometry": { "type": "Point", "coordinates": [ 136.636815193052968, 35.284093029719877 ] } },
{ "type": "Feature", "properties": { "P29_001": "21383", "P29_002": "C121238300010", "P29_003": "16002", "P29_004": "安八郡安八町立登龍中学校", "P29_005": "岐阜県安八郡安八町大野333", "P29_006": "3", "P29_007": "1", "P29_008": "00", "P29_009": null }, "geometry": { "type": "Point", "coordinates": [ 136.666305136367015, 35.326832018174322 ] } },
{ "type": "Feature", "properties": { "P29_001": "21383", "P29_002": "C121238300029", "P29_003": "16002", "P29_004": "大垣市・安八郡安八町組合立東安中学校", "P29_005": "岐阜県安八郡安八町東結952-43", "P29_006": "3", "P29_007": "1", "P29_008": "00", "P29_009": null }, "geometry": { "type": "Point", "coordinates": [ 136.673066228651237, 35.360190390630706 ] } },
{ "type": "Feature", "properties": { "P29_001": "21401", "P29_002": "C121240100018", "P29_003": "16002", "P29_004": "揖斐郡揖斐川町立揖斐川中学校", "P29_005": "岐阜県揖斐郡揖斐川町和田412", "P29_006": "3", "P29_007": "1", "P29_008": "00", "P29_009": null }, "geometry": { "type": "Point", "coordinates": [ 136.567984634023162, 35.478755041805002 ] } },
{ "type": "Feature", "properties": { "P29_001": "21401", "P29_002": "C121240100027", "P29_003": "16002", "P29_004": "揖斐郡揖斐川町立北和中学校", "P29_005": "岐阜県揖斐郡揖斐川町北方1891-2", "P29_006": "3", "P29_007": "1", "P29_008": "00", "P29_009": null }, "geometry": { "type": "Point", "coordinates": [ 136.55079599981903, 35.503098000097452 ] } },
{ "type": "Feature", "properties": { "P29_001": "21401", "P29_002": "C121240100036", "P29_003": "16002", "P29_004": "揖斐郡揖斐川町立谷汲中学校", "P29_005": "岐阜県揖斐郡揖斐川町谷汲名礼244-13", "P29_006": "3", "P29_007": "1", "P29_008": "00", "P29_009": null }, "geometry": { "type": "Point", "coordinates": [ 136.611144706427297, 35.522569203280078 ] } },
{ "type": "Feature", "properties": { "P29_001": "21403", "P29_002": "C121240300016", "P29_003": "16002", "P29_004": "揖斐郡大野町立大野中学校", "P29_005": "岐阜県揖斐郡大野町黒野1081", "P29_006": "3", "P29_007": "1", "P29_008": "00", "P29_009": null }, "geometry": { "type": "Point", "coordinates": [ 136.631524041233718, 35.472454222224229 ] } },
{ "type": "Feature", "properties": { "P29_001": "21403", "P29_002": "C121240300025", "P29_003": "16002", "P29_004": "揖斐郡大野町立大野中学校大野分校", "P29_005": "岐阜県揖斐郡大野町桜大門457-1", "P29_006": "3", "P29_007": "1", "P29_008": "00", "P29_009": null }, "geometry": { "type": "Point", "coordinates": [ 136.633580863875721, 35.480858841966686 ] } },
{ "type": "Feature", "properties": { "P29_001": "21403", "P29_002": "C121240300034", "P29_003": "16002", "P29_004": "揖斐郡大野町立揖東中学校", "P29_005": "岐阜県揖斐郡大野町公郷3261-3", "P29_006": "3", "P29_007": "1", "P29_008": "00", "P29_009": null }, "geometry": { "type": "Point", "coordinates": [ 136.606118078126116, 35.448360505892666 ] } },
{ "type": "Feature", "properties": { "P29_001": "21404", "P29_002": "C121240400015", "P29_003": "16002", "P29_004": "揖斐郡池田町立池田中学校", "P29_005": "岐阜県揖斐郡池田町草深485-1", "P29_006": "3", "P29_007": "1", "P29_008": "00", "P29_009": null }, "geometry": { "type": "Point", "coordinates": [ 136.560824552031931, 35.441561324225823 ] } },
{ "type": "Feature", "properties": { "P29_001": "21501", "P29_002": "C121250100017", "P29_003": "16002", "P29_004": "加茂郡坂祝町立坂祝中学校", "P29_005": "岐阜県加茂郡坂祝町深萱146-1", "P29_006": "3", "P29_007": "1", "P29_008": "00", "P29_009": null }, "geometry": { "type": "Point", "coordinates": [ 136.977336096324024, 35.432373808550544 ] } },
{ "type": "Feature", "properties": { "P29_001": "21502", "P29_002": "C121250200016", "P29_003": "16002", "P29_004": "美濃加茂市富加町中学校組合立双葉中学校", "P29_005": "岐阜県加茂郡富加町羽生990", "P29_006": "3", "P29_007": "1", "P29_008": "00", "P29_009": null }, "geometry": { "type": "Point", "coordinates": [ 136.984679307581587, 35.487003865529331 ] } },
{ "type": "Feature", "properties": { "P29_001": "21503", "P29_002": "C121250300015", "P29_003": "16002", "P29_004": "加茂郡川辺町立川辺中学校", "P29_005": "岐阜県加茂郡川辺町中川辺1367", "P29_006": "3", "P29_007": "1", "P29_008": "00", "P29_009": null }, "geometry": { "type": "Point", "coordinates": [ 137.070762606375553, 35.489888995167178 ] } },
{ "type": "Feature", "properties": { "P29_001": "21504", "P29_002": "C121250400014", "P29_003": "16002", "P29_004": "加茂郡七宗町立神渕中学校", "P29_005": "岐阜県加茂郡七宗町神渕9858", "P29_006": "3", "P29_007": "1", "P29_008": "00", "P29_009": null }, "geometry": { "type": "Point", "coordinates": [ 137.088062384304692, 35.581632184400817 ] } },
{ "type": "Feature", "properties": { "P29_001": "21504", "P29_002": "C121250400023", "P29_003": "16002", "P29_004": "加茂郡七宗町立上麻生中学校", "P29_005": "岐阜県加茂郡七宗町川並468-1", "P29_006": "3", "P29_007": "1", "P29_008": "00", "P29_009": null }, "geometry": { "type": "Point", "coordinates": [ 137.115893466374786, 35.537194975872097 ] } },
{ "type": "Feature", "properties": { "P29_001": "21505", "P29_002": "C121250500013", "P29_003": "16002", "P29_004": "加茂郡八百津町立八百津中学校", "P29_005": "岐阜県加茂郡八百津町野上916-4", "P29_006": "3", "P29_007": "1", "P29_008": "00", "P29_009": null }, "geometry": { "type": "Point", "coordinates": [ 137.124475545628542, 35.479144619391398 ] } },
{ "type": "Feature", "properties": { "P29_001": "21505", "P29_002": "C121250500022", "P29_003": "16002", "P29_004": "加茂郡八百津町立八百津東部中学校", "P29_005": "岐阜県加茂郡八百津町久田見3376-1", "P29_006": "3", "P29_007": "1", "P29_008": "00", "P29_009": null }, "geometry": { "type": "Point", "coordinates": [ 137.200334743598006, 35.514908408678004 ] } },
{ "type": "Feature", "properties": { "P29_001": "21506", "P29_002": "C121250600012", "P29_003": "16002", "P29_004": "加茂郡白川町立白川中学校", "P29_005": "岐阜県加茂郡白川町河岐1830", "P29_006": "3", "P29_007": "1", "P29_008": "00", "P29_009": null }, "geometry": { "type": "Point", "coordinates": [ 137.193601854431847, 35.583090797154718 ] } },
{ "type": "Feature", "properties": { "P29_001": "21506", "P29_002": "C121250600021", "P29_003": "16002", "P29_004": "加茂郡白川町立黒川中学校", "P29_005": "岐阜県加茂郡白川町黒川2929", "P29_006": "3", "P29_007": "1", "P29_008": "00", "P29_009": null }, "geometry": { "type": "Point", "coordinates": [ 137.31978074092126, 35.599682102054231 ] } },
{ "type": "Feature", "properties": { "P29_001": "21507", "P29_002": "C121250700011", "P29_003": "16002", "P29_004": "加茂郡東白川村立東白川中学校", "P29_005": "岐阜県加茂郡東白川村神土647-4", "P29_006": "3", "P29_007": "1", "P29_008": "00", "P29_009": null }, "geometry": { "type": "Point", "coordinates": [ 137.326731485968253, 35.64455858310528 ] } },
{ "type": "Feature", "properties": { "P29_001": "21521", "P29_002": "C121252100013", "P29_003": "16002", "P29_004": "可児郡御嵩町立上之郷中学校", "P29_005": "岐阜県可児郡御嵩町中切1785", "P29_006": "3", "P29_007": "1", "P29_008": "00", "P29_009": null }, "geometry": { "type": "Point", "coordinates": [ 137.163265338185568, 35.419451477016693 ] } },
{ "type": "Feature", "properties": { "P29_001": "21521", "P29_002": "C121252100022", "P29_003": "16002", "P29_004": "可児郡御嵩町立向陽中学校", "P29_005": "岐阜県可児郡御嵩町御嵩1306", "P29_006": "3", "P29_007": "1", "P29_008": "00", "P29_009": null }, "geometry": { "type": "Point", "coordinates": [ 137.129716301335208, 35.435030255035436 ] } },
{ "type": "Feature", "properties": { "P29_001": "21521", "P29_002": "C121252100031", "P29_003": "16002", "P29_004": "可児市・御嵩町中学校組合立共和中学校", "P29_005": "岐阜県可児郡御嵩町伏見1875-1", "P29_006": "3", "P29_007": "1", "P29_008": "00", "P29_009": null }, "geometry": { "type": "Point", "coordinates": [ 137.095229381533187, 35.44037914169207 ] } },
{ "type": "Feature", "properties": { "P29_001": "21201", "P29_002": "C121320100018", "P29_003": "16002", "P29_004": "鶯谷中学校", "P29_005": "岐阜県岐阜市鴬谷町7", "P29_006": "4", "P29_007": "1", "P29_008": "00", "P29_009": null }, "geometry": { "type": "Point", "coordinates": [ 136.767154708944673, 35.424396087499332 ] } },
{ "type": "Feature", "properties": { "P29_001": "21201", "P29_002": "C121320100027", "P29_003": "16002", "P29_004": "岐阜東中学校", "P29_005": "岐阜県岐阜市野一色4-17-1", "P29_006": "4", "P29_007": "1", "P29_008": "00", "P29_009": null }, "geometry": { "type": "Point", "coordinates": [ 136.803741950615432, 35.412351742659425 ] } },
{ "type": "Feature", "properties": { "P29_001": "21201", "P29_002": "C121320100036", "P29_003": "16002", "P29_004": "岐阜聖徳学園大学附属中学校", "P29_005": "岐阜県岐阜市柳津町高桑西1-1", "P29_006": "4", "P29_007": "1", "P29_008": "00", "P29_009": null }, "geometry": { "type": "Point", "coordinates": [ 136.707156424155357, 35.362865530038576 ] } },
{ "type": "Feature", "properties": { "P29_001": "21201", "P29_002": "C121320100045", "P29_003": "16002", "P29_004": "聖マリア女学院中学校", "P29_005": "岐阜県岐阜市福富201", "P29_006": "4", "P29_007": "1", "P29_008": "00", "P29_009": null }, "geometry": { "type": "Point", "coordinates": [ 136.814895863110678, 35.485670212390936 ] } },
{ "type": "Feature", "properties": { "P29_001": "21204", "P29_002": "C121320400015", "P29_003": "16002", "P29_004": "多治見西高等学校附属中学校", "P29_005": "岐阜県多治見市明和町1-18", "P29_006": "4", "P29_007": "1", "P29_008": "00", "P29_009": null }, "geometry": { "type": "Point", "coordinates": [ 137.102236965729105, 35.351602800153174 ] } },
{ "type": "Feature", "properties": { "P29_001": "21208", "P29_002": "C121320800011", "P29_003": "16002", "P29_004": "麗澤瑞浪中学校", "P29_005": "岐阜県瑞浪市稲津町萩原1661", "P29_006": "4", "P29_007": "1", "P29_008": "00", "P29_009": null }, "geometry": { "type": "Point", "coordinates": [ 137.297884900103298, 35.363989048253949 ] } },
{ "type": "Feature", "properties": { "P29_001": "21211", "P29_002": "C121321100016", "P29_003": "16002", "P29_004": "美濃加茂中学校", "P29_005": "岐阜県美濃加茂市本郷町7-6-60", "P29_006": "4", "P29_007": "1", "P29_008": "00", "P29_009": null }, "geometry": { "type": "Point", "coordinates": [ 137.041976946213993, 35.462006074961863 ] } },
{ "type": "Feature", "properties": { "P29_001": "21214", "P29_002": "C121321400013", "P29_003": "16002", "P29_004": "帝京大学可児中学校", "P29_005": "岐阜県可児市桂ヶ丘1-1", "P29_006": "4", "P29_007": "1", "P29_008": "00", "P29_009": null }, "geometry": { "type": "Point", "coordinates": [ 137.085813466154917, 35.389902280145137 ] } },
{ "type": "Feature", "properties": { "P29_001": "21401", "P29_002": "C121340100016", "P29_003": "16002", "P29_004": "西濃学園中学校", "P29_005": "岐阜県揖斐郡揖斐川町東横山1070", "P29_006": "4", "P29_007": "1", "P29_008": "00", "P29_009": null }, "geometry": { "type": "Point", "coordinates": [ 136.455161024755256, 35.590548619863021 ] } }
]
}
