{
"type": "FeatureCollection",
"name": "geo_21_地域密着型通所介護",
"crs": { "type": "name", "properties": { "name": "urn:ogc:def:crs:OGC:1.3:CRS84" } },
"features": [
{ "type": "Feature", "properties": { "内容": "いきいきサロン　ひまわり【地域密着型通所介護】岐阜県岐阜市高河原字道両毛１０１番地１", "url": "https://www.kaigokensaku.mhlw.go.jp/21/index.php?action_kouhyou_detail_004_kani=true&JigyosyoCd=2190104196-00&ServiceCd=780&Type=search", "url2": "https://woman-support-shl.com/" }, "geometry": { "type": "Point", "coordinates": [ 136.71497411998223, 35.381704531113101 ] } },
{ "type": "Feature", "properties": { "内容": "ゆうあいデイサービス【地域密着型通所介護】岐阜県岐阜市北一色2丁目6番地23号", "url": "https://www.kaigokensaku.mhlw.go.jp/21/index.php?action_kouhyou_detail_004_kani=true&JigyosyoCd=2170110783-00&ServiceCd=780&Type=search", "url2": "http://yuai-day.jp" }, "geometry": { "type": "Point", "coordinates": [ 136.787143199999946, 35.4150243 ] } },
{ "type": "Feature", "properties": { "内容": "デイサービスふれあいの里薮田【地域密着型通所介護】岐阜県岐阜市薮田南3丁目5番25ふれあいの里　薮田１Ｆ", "url": "https://www.kaigokensaku.mhlw.go.jp/21/index.php?action_kouhyou_detail_004_kani=true&JigyosyoCd=2190103750-00&ServiceCd=780&Type=search", "url2": "http://www.fureai-y.com" }, "geometry": { "type": "Point", "coordinates": [ 136.724125199999946, 35.390336499999982 ] } },
{ "type": "Feature", "properties": { "内容": "デイサービス縁楽切通【地域密着型通所介護】岐阜県岐阜市切通4丁目16－16", "url": "https://www.kaigokensaku.mhlw.go.jp/21/index.php?action_kouhyou_detail_004_kani=true&JigyosyoCd=2190103933-00&ServiceCd=780&Type=search", "url2": "http://www.ds-enraku.com" }, "geometry": { "type": "Point", "coordinates": [ 136.794240100000025, 35.3979823 ] } },
{ "type": "Feature", "properties": { "内容": "トレスタYou&I【地域密着型通所介護】岐阜県岐阜市北一色2-6-21", "url": "https://www.kaigokensaku.mhlw.go.jp/21/index.php?action_kouhyou_detail_004_kani=true&JigyosyoCd=2190103941-00&ServiceCd=780&Type=search", "url2": "https://yuai-day.jp" }, "geometry": { "type": "Point", "coordinates": [ 136.787307366795403, 35.414981934758423 ] } },
{ "type": "Feature", "properties": { "内容": "だんらんの家　岐阜北【地域密着型通所介護】岐阜県岐阜市鷺山新町4-15", "url": "https://www.kaigokensaku.mhlw.go.jp/21/index.php?action_kouhyou_detail_004_kani=true&JigyosyoCd=2190104568-00&ServiceCd=780&Type=search", "url2": null }, "geometry": { "type": "Point", "coordinates": [ 136.7505507, 35.452667500000011 ] } },
{ "type": "Feature", "properties": { "内容": "あいわデイサービスあかなべ【地域密着型通所介護】岐阜県岐阜市茜部中島3丁目31番地8", "url": "https://www.kaigokensaku.mhlw.go.jp/21/index.php?action_kouhyou_detail_004_kani=true&JigyosyoCd=2190100681-00&ServiceCd=780&Type=search", "url2": "https://www.aiwakaigo.co.jp/" }, "geometry": { "type": "Point", "coordinates": [ 136.750440700000013, 35.3895 ] } },
{ "type": "Feature", "properties": { "内容": "デイサービスはぐるま【地域密着型通所介護】岐阜県岐阜市又丸20-6", "url": "https://www.kaigokensaku.mhlw.go.jp/21/index.php?action_kouhyou_detail_004_kani=true&JigyosyoCd=2190104659-00&ServiceCd=780&Type=search", "url2": "https://haguruma.life/" }, "geometry": { "type": "Point", "coordinates": [ 136.7036218, 35.4408947 ] } },
{ "type": "Feature", "properties": { "内容": "デイサービス　リゾートアロハ　北一色【地域密着型通所介護】岐阜県岐阜市北一色5丁目14番21号", "url": "https://www.kaigokensaku.mhlw.go.jp/21/index.php?action_kouhyou_detail_004_kani=true&JigyosyoCd=2170112060-00&ServiceCd=780&Type=search", "url2": "cocochi-gifu.com" }, "geometry": { "type": "Point", "coordinates": [ 136.791712234393373, 35.410167603303854 ] } },
{ "type": "Feature", "properties": { "内容": "デイサービスりのあ【地域密着型通所介護】岐阜県岐阜市日野東1丁目12番30号", "url": "https://www.kaigokensaku.mhlw.go.jp/21/index.php?action_kouhyou_detail_004_kani=true&JigyosyoCd=2190104683-00&ServiceCd=780&Type=search", "url2": null }, "geometry": { "type": "Point", "coordinates": [ 136.8034313, 35.4367763 ] } },
{ "type": "Feature", "properties": { "内容": "リハコ　ぎふリハビリ&フィットネス【地域密着型通所介護】岐阜県岐阜市旦島中1丁目5-24", "url": "https://www.kaigokensaku.mhlw.go.jp/21/index.php?action_kouhyou_detail_004_kani=true&JigyosyoCd=2190104709-00&ServiceCd=780&Type=search", "url2": null }, "geometry": { "type": "Point", "coordinates": [ 136.7250515, 35.4367715 ] } },
{ "type": "Feature", "properties": { "内容": "地域密着型デイサービスセンター黒野あそか苑【地域密着型通所介護】岐阜県岐阜市黒野404-1", "url": "https://www.kaigokensaku.mhlw.go.jp/21/index.php?action_kouhyou_detail_004_kani=true&JigyosyoCd=2190104717-00&ServiceCd=780&Type=search", "url2": "http://www.k-asoka.jp/" }, "geometry": { "type": "Point", "coordinates": [ 136.7194831, 35.4599653 ] } },
{ "type": "Feature", "properties": { "内容": "ショッピングリハ＠カラフルタウン【地域密着型通所介護】岐阜県岐阜市柳津町丸野3丁目3番地6号カラフルタウン岐阜", "url": "https://www.kaigokensaku.mhlw.go.jp/21/index.php?action_kouhyou_detail_004_kani=true&JigyosyoCd=2190104725-00&ServiceCd=780&Type=search", "url2": null }, "geometry": { "type": "Point", "coordinates": [ 136.727447500000011, 35.3631522 ] } },
{ "type": "Feature", "properties": { "内容": "リハビー東栄店【地域密着型通所介護】岐阜県岐阜市東栄町1-22ビジネスプラザ22　西棟", "url": "https://www.kaigokensaku.mhlw.go.jp/21/index.php?action_kouhyou_detail_004_kani=true&JigyosyoCd=2190104741-00&ServiceCd=780&Type=search", "url2": null }, "geometry": { "type": "Point", "coordinates": [ 136.772737596295173, 35.414647015676181 ] } },
{ "type": "Feature", "properties": { "内容": "デイサービスおかげ庵薮田【地域密着型通所介護】岐阜県岐阜市須賀3丁目15-4", "url": "https://www.kaigokensaku.mhlw.go.jp/21/index.php?action_kouhyou_detail_004_kani=true&JigyosyoCd=2190104766-00&ServiceCd=780&Type=search", "url2": null }, "geometry": { "type": "Point", "coordinates": [ 136.717809, 35.3879393 ] } },
{ "type": "Feature", "properties": { "内容": "デイサービスセンター　ゆくる【地域密着型通所介護】岐阜県岐阜市岩崎842-2", "url": "https://www.kaigokensaku.mhlw.go.jp/21/index.php?action_kouhyou_detail_004_kani=true&JigyosyoCd=2190104758-00&ServiceCd=780&Type=search", "url2": "https://care-work-yuushin.jimdofree.com" }, "geometry": { "type": "Point", "coordinates": [ 136.780500464806067, 35.475318678861726 ] } },
{ "type": "Feature", "properties": { "内容": "デイサービス白心【地域密着型通所介護】岐阜県岐阜市柳津町丸野１－７２", "url": "https://www.kaigokensaku.mhlw.go.jp/21/index.php?action_kouhyou_detail_004_kani=true&JigyosyoCd=2190104774-00&ServiceCd=780&Type=search", "url2": null }, "geometry": { "type": "Point", "coordinates": [ 136.729070299999989, 35.3667998 ] } },
{ "type": "Feature", "properties": { "内容": "高橋接骨院デイサービスひだまり【地域密着型通所介護】岐阜県岐阜市加野２丁目１３番８号", "url": "https://www.kaigokensaku.mhlw.go.jp/21/index.php?action_kouhyou_detail_004_kani=true&JigyosyoCd=2170100115-00&ServiceCd=780&Type=search", "url2": null }, "geometry": { "type": "Point", "coordinates": [ 136.821754300000066, 35.4656128 ] } },
{ "type": "Feature", "properties": { "内容": "デイサービスセンター　新生コスモス【地域密着型通所介護】岐阜県岐阜市野一色四丁目１５番１２号", "url": "https://www.kaigokensaku.mhlw.go.jp/21/index.php?action_kouhyou_detail_004_kani=true&JigyosyoCd=2170100933-00&ServiceCd=780&Type=search", "url2": "kosumosunoisiki@outlook.com" }, "geometry": { "type": "Point", "coordinates": [ 136.803597, 35.4107086 ] } },
{ "type": "Feature", "properties": { "内容": "老人デイサービスセンターサンライフ彦坂【地域密着型通所介護】岐阜県岐阜市彦坂川北２３０番地", "url": "https://www.kaigokensaku.mhlw.go.jp/21/index.php?action_kouhyou_detail_004_kani=true&JigyosyoCd=2170101022-00&ServiceCd=780&Type=search", "url2": "http://www.houjyukai.jp/" }, "geometry": { "type": "Point", "coordinates": [ 136.738717800000018, 35.4992456 ] } },
{ "type": "Feature", "properties": { "内容": "老人デイサービスセンター　コート・スマイル【地域密着型通所介護】岐阜県岐阜市芥見野畑１丁目２５番地", "url": "https://www.kaigokensaku.mhlw.go.jp/21/index.php?action_kouhyou_detail_004_kani=true&JigyosyoCd=2170101980-00&ServiceCd=780&Type=search", "url2": "http://www.court-smile.jp/index.html" }, "geometry": { "type": "Point", "coordinates": [ 136.842971900000066, 35.4406111 ] } },
{ "type": "Feature", "properties": { "内容": "リハネスさぎやま【地域密着型通所介護】岐阜県岐阜市鷺山2562番地の11", "url": "https://www.kaigokensaku.mhlw.go.jp/21/index.php?action_kouhyou_detail_004_kani=true&JigyosyoCd=2170103333-00&ServiceCd=780&Type=search", "url2": null }, "geometry": { "type": "Point", "coordinates": [ 136.75872830000003, 35.4424736 ] } },
{ "type": "Feature", "properties": { "内容": "デイサービス　きねん【地域密着型通所介護】岐阜県岐阜市祈年町１丁目２４番地の３", "url": "https://www.kaigokensaku.mhlw.go.jp/21/index.php?action_kouhyou_detail_004_kani=true&JigyosyoCd=2170103945-00&ServiceCd=780&Type=search", "url2": "https://gifu-min.jp/kayou/page_422.html" }, "geometry": { "type": "Point", "coordinates": [ 136.769364499999938, 35.4054533 ] } },
{ "type": "Feature", "properties": { "内容": "あかねデイサービス【地域密着型通所介護】岐阜県岐阜市茜部野瀬３丁目１３６", "url": "https://www.kaigokensaku.mhlw.go.jp/21/index.php?action_kouhyou_detail_004_kani=true&JigyosyoCd=2170104802-00&ServiceCd=780&Type=search", "url2": "https://www.gifu-akanekai.com" }, "geometry": { "type": "Point", "coordinates": [ 136.745141099999955, 35.3742459 ] } },
{ "type": "Feature", "properties": { "内容": "デイサービスセンター　笑顔【地域密着型通所介護】岐阜県岐阜市白菊町二丁目24番地", "url": "https://www.kaigokensaku.mhlw.go.jp/21/index.php?action_kouhyou_detail_004_kani=true&JigyosyoCd=2170104968-00&ServiceCd=780&Type=search", "url2": "http://www.day-service-egao.co.jp/" }, "geometry": { "type": "Point", "coordinates": [ 136.738374686508223, 35.43252214895714 ] } },
{ "type": "Feature", "properties": { "内容": "デイサービスほたる【地域密着型通所介護】岐阜県岐阜市萱場東町４丁目２６番地松籟荘一階", "url": "https://www.kaigokensaku.mhlw.go.jp/21/index.php?action_kouhyou_detail_004_kani=true&JigyosyoCd=2170105007-00&ServiceCd=780&Type=search", "url2": "seiwa-care-s.com" }, "geometry": { "type": "Point", "coordinates": [ 136.734656800000039, 35.4374654 ] } },
{ "type": "Feature", "properties": { "内容": "デイサービスセンターいわい【地域密着型通所介護】岐阜県岐阜市岩井4丁目10番1号", "url": "https://www.kaigokensaku.mhlw.go.jp/21/index.php?action_kouhyou_detail_004_kani=true&JigyosyoCd=2170110346-00&ServiceCd=780&Type=search", "url2": "http://miwakai.or.jp/" }, "geometry": { "type": "Point", "coordinates": [ 136.82329, 35.4707066 ] } },
{ "type": "Feature", "properties": { "内容": "デイサービス　まごころ【地域密着型通所介護】岐阜県岐阜市室津町２丁目１３番地", "url": "https://www.kaigokensaku.mhlw.go.jp/21/index.php?action_kouhyou_detail_004_kani=true&JigyosyoCd=2170110387-00&ServiceCd=780&Type=search", "url2": null }, "geometry": { "type": "Point", "coordinates": [ 136.750625682278496, 35.41303716813001 ] } },
{ "type": "Feature", "properties": { "内容": "機能訓練型デイサービス　般若堂【地域密着型通所介護】岐阜県岐阜市切通4丁目20-12", "url": "https://www.kaigokensaku.mhlw.go.jp/21/index.php?action_kouhyou_detail_004_kani=true&JigyosyoCd=2170110999-00&ServiceCd=780&Type=search", "url2": "http://forestwin.net/index.html" }, "geometry": { "type": "Point", "coordinates": [ 136.794301300000029, 35.3959104 ] } },
{ "type": "Feature", "properties": { "内容": "くりこデイサービスセンター【地域密着型通所介護】岐阜県岐阜市芥見影山２丁目３５番地", "url": "https://www.kaigokensaku.mhlw.go.jp/21/index.php?action_kouhyou_detail_004_kani=true&JigyosyoCd=2170111005-00&ServiceCd=780&Type=search", "url2": "https://kurikoday21.wixsite.com/kuriko-daycare" }, "geometry": { "type": "Point", "coordinates": [ 136.849957300000028, 35.43632 ] } },
{ "type": "Feature", "properties": { "内容": "ソリューションフィットネス＆リハビリテーション　G-star徹明【地域密着型通所介護】岐阜県岐阜市真砂町11-2", "url": "https://www.kaigokensaku.mhlw.go.jp/21/index.php?action_kouhyou_detail_004_kani=true&JigyosyoCd=2170111229-00&ServiceCd=780&Type=search", "url2": "https://www.wakokai.or.jp/search/nursing/g-star-tetsumei/" }, "geometry": { "type": "Point", "coordinates": [ 136.7529214, 35.415632600000031 ] } },
{ "type": "Feature", "properties": { "内容": "リハビリデイサービス　げんきサポート【地域密着型通所介護】岐阜県岐阜市加納立花町11-1コーポグランデ立花101", "url": "https://www.kaigokensaku.mhlw.go.jp/21/index.php?action_kouhyou_detail_004_kani=true&JigyosyoCd=2170111641-00&ServiceCd=780&Type=search", "url2": null }, "geometry": { "type": "Point", "coordinates": [ 136.7486755, 35.3975153 ] } },
{ "type": "Feature", "properties": { "内容": "クローバーデイサービス柳津【地域密着型通所介護】岐阜県岐阜市柳津町梅松4丁目109番地ＳＥＯま・も・る", "url": "https://www.kaigokensaku.mhlw.go.jp/21/index.php?action_kouhyou_detail_004_kani=true&JigyosyoCd=2170111740-00&ServiceCd=780&Type=search", "url2": "https://www.big-advance.site/c/202/2377" }, "geometry": { "type": "Point", "coordinates": [ 136.740579570073407, 35.360834170130978 ] } },
{ "type": "Feature", "properties": { "内容": "デイサービス　フェリーチェ【地域密着型通所介護】岐阜県岐阜市芥見南山２－５－２０エステート南山TSⅡ１０２．１０３号", "url": "https://www.kaigokensaku.mhlw.go.jp/21/index.php?action_kouhyou_detail_004_kani=true&JigyosyoCd=2170111831-00&ServiceCd=780&Type=search", "url2": null }, "geometry": { "type": "Point", "coordinates": [ 136.857589700000034, 35.4561377 ] } },
{ "type": "Feature", "properties": { "内容": "テラスあるてあ【地域密着型通所介護】岐阜県岐阜市六条南３丁目２番８号", "url": "https://www.kaigokensaku.mhlw.go.jp/21/index.php?action_kouhyou_detail_004_kani=true&JigyosyoCd=2170111856-00&ServiceCd=780&Type=search", "url2": "http://gifualthea.com" }, "geometry": { "type": "Point", "coordinates": [ 136.740990600000032, 35.3953573 ] } },
{ "type": "Feature", "properties": { "内容": "デイサービス・花水木【地域密着型通所介護】岐阜県岐阜市西改田川向１８－１", "url": "https://www.kaigokensaku.mhlw.go.jp/21/index.php?action_kouhyou_detail_004_kani=true&JigyosyoCd=2170111898-00&ServiceCd=780&Type=search", "url2": "https://www.hanamizuki2014.com" }, "geometry": { "type": "Point", "coordinates": [ 136.707197179237369, 35.448046526793995 ] } },
{ "type": "Feature", "properties": { "内容": "華陽のいえデイサービスセンター【地域密着型通所介護】岐阜県岐阜市東鶉3丁目73-2", "url": "https://www.kaigokensaku.mhlw.go.jp/21/index.php?action_kouhyou_detail_004_kani=true&JigyosyoCd=2170111914-00&ServiceCd=780&Type=search", "url2": "http://www.kayokaigo.co.jp/" }, "geometry": { "type": "Point", "coordinates": [ 136.741187737712153, 35.382026310688168 ] } },
{ "type": "Feature", "properties": { "内容": "デイサービス　ここあ【地域密着型通所介護】岐阜県岐阜市島栄町1-33シャトーシャルマン1F", "url": "https://www.kaigokensaku.mhlw.go.jp/21/index.php?action_kouhyou_detail_004_kani=true&JigyosyoCd=2170112227-00&ServiceCd=780&Type=search", "url2": null }, "geometry": { "type": "Point", "coordinates": [ 136.745830299999966, 35.4325359 ] } },
{ "type": "Feature", "properties": { "内容": "樹楽　団らんの家　日野東【地域密着型通所介護】岐阜県岐阜市日野東1－16－14", "url": "https://www.kaigokensaku.mhlw.go.jp/21/index.php?action_kouhyou_detail_004_kani=true&JigyosyoCd=2170112243-00&ServiceCd=780&Type=search", "url2": null }, "geometry": { "type": "Point", "coordinates": [ 136.807579199999964, 35.432214500000029 ] } },
{ "type": "Feature", "properties": { "内容": "岐阜リハビリセンターこころｔｏからだ【地域密着型通所介護】岐阜県岐阜市島栄町2丁目11番地1コパン忠節1Ｆ", "url": "https://www.kaigokensaku.mhlw.go.jp/21/index.php?action_kouhyou_detail_004_kani=true&JigyosyoCd=2170112458-00&ServiceCd=780&Type=search", "url2": "http://www.chubu-caresystem.co.jp/" }, "geometry": { "type": "Point", "coordinates": [ 136.744671153967261, 35.431876190973753 ] } },
{ "type": "Feature", "properties": { "内容": "アンシニア敷島デイサービスセンター【地域密着型通所介護】岐阜県岐阜市敷島町３－６", "url": "https://www.kaigokensaku.mhlw.go.jp/21/index.php?action_kouhyou_detail_004_kani=true&JigyosyoCd=2170112615-00&ServiceCd=780&Type=search", "url2": "http://www.ansenior.com" }, "geometry": { "type": "Point", "coordinates": [ 136.743361899999968, 35.4114191 ] } },
{ "type": "Feature", "properties": { "内容": "デイサービス楽楽【地域密着型通所介護】岐阜県岐阜市学園町3丁目14", "url": "https://www.kaigokensaku.mhlw.go.jp/21/index.php?action_kouhyou_detail_004_kani=true&JigyosyoCd=2170112623-00&ServiceCd=780&Type=search", "url2": "http://www.wharmcorporation.com/" }, "geometry": { "type": "Point", "coordinates": [ 136.75960822513116, 35.439411077023614 ] } },
{ "type": "Feature", "properties": { "内容": "のんびり萱場【地域密着型通所介護】岐阜県岐阜市萱場南１丁目１１番１７号", "url": "https://www.kaigokensaku.mhlw.go.jp/21/index.php?action_kouhyou_detail_004_kani=true&JigyosyoCd=2190103776-00&ServiceCd=780&Type=search", "url2": "http://nonbiri.onamae.jp/index.html" }, "geometry": { "type": "Point", "coordinates": [ 136.734518100000059, 35.4327883 ] } },
{ "type": "Feature", "properties": { "内容": "デイサービスここあ　長良店【地域密着型通所介護】岐阜県岐阜市長良井田79番", "url": "https://www.kaigokensaku.mhlw.go.jp/21/index.php?action_kouhyou_detail_004_kani=true&JigyosyoCd=2190103818-00&ServiceCd=780&Type=search", "url2": null }, "geometry": { "type": "Point", "coordinates": [ 136.784867399999939, 35.4485172 ] } },
{ "type": "Feature", "properties": { "内容": "デイサービスセンターハッピー【地域密着型通所介護】岐阜県岐阜市春近古市場南１９１－２", "url": "https://www.kaigokensaku.mhlw.go.jp/21/index.php?action_kouhyou_detail_004_kani=true&JigyosyoCd=2190103917-00&ServiceCd=780&Type=search", "url2": null }, "geometry": { "type": "Point", "coordinates": [ 136.837192272717914, 35.489810577942094 ] } },
{ "type": "Feature", "properties": { "内容": "デイサービス　おかげ庵長良【地域密着型通所介護】岐阜県岐阜市南蝉1丁目8番地", "url": "https://www.kaigokensaku.mhlw.go.jp/21/index.php?action_kouhyou_detail_004_kani=true&JigyosyoCd=2190103966-00&ServiceCd=780&Type=search", "url2": null }, "geometry": { "type": "Point", "coordinates": [ 136.76226447301633, 35.445637549419075 ] } },
{ "type": "Feature", "properties": { "内容": "名鉄レコードブック田神【地域密着型通所介護】岐阜県岐阜市東栄町三丁目5番東栄ビル1階", "url": "https://www.kaigokensaku.mhlw.go.jp/21/index.php?action_kouhyou_detail_004_kani=true&JigyosyoCd=2190103974-00&ServiceCd=780&Type=search", "url2": "https://www.meitetsu-ls.co.jp/shop/view/15/" }, "geometry": { "type": "Point", "coordinates": [ 136.777549599999929, 35.4148688 ] } },
{ "type": "Feature", "properties": { "内容": "株式会社　継真【地域密着型通所介護】岐阜県岐阜市西改田米野81番２", "url": "https://www.kaigokensaku.mhlw.go.jp/21/index.php?action_kouhyou_detail_004_kani=true&JigyosyoCd=2190104071-00&ServiceCd=780&Type=search", "url2": "keishin312.sutudio.site" }, "geometry": { "type": "Point", "coordinates": [ 136.708780299999944, 35.4468659 ] } },
{ "type": "Feature", "properties": { "内容": "デイサービスかえつ【地域密着型通所介護】岐阜県岐阜市茜部中島1-28", "url": "https://www.kaigokensaku.mhlw.go.jp/21/index.php?action_kouhyou_detail_004_kani=true&JigyosyoCd=2190104105-00&ServiceCd=780&Type=search", "url2": "http://kaetsukan.cpv.jp/" }, "geometry": { "type": "Point", "coordinates": [ 136.751060700000039, 35.3935006 ] } },
{ "type": "Feature", "properties": { "内容": "地域密着型通所介護施設ストレングス【地域密着型通所介護】岐阜県岐阜市須賀3丁目12番38号", "url": "https://www.kaigokensaku.mhlw.go.jp/21/index.php?action_kouhyou_detail_004_kani=true&JigyosyoCd=2190104121-00&ServiceCd=780&Type=search", "url2": null }, "geometry": { "type": "Point", "coordinates": [ 136.718823199999946, 35.3860049 ] } },
{ "type": "Feature", "properties": { "内容": "デイサービス　ジムズ鹿島【地域密着型通所介護】岐阜県岐阜市鹿島町1-1", "url": "https://www.kaigokensaku.mhlw.go.jp/21/index.php?action_kouhyou_detail_004_kani=true&JigyosyoCd=2190104147-00&ServiceCd=780&Type=search", "url2": null }, "geometry": { "type": "Point", "coordinates": [ 136.744883599999952, 35.4161703 ] } },
{ "type": "Feature", "properties": { "内容": "デイサービスまごころ弐番館【地域密着型通所介護】岐阜県岐阜市長住町8丁目5－2", "url": "https://www.kaigokensaku.mhlw.go.jp/21/index.php?action_kouhyou_detail_004_kani=true&JigyosyoCd=2190104170-00&ServiceCd=780&Type=search", "url2": null }, "geometry": { "type": "Point", "coordinates": [ 136.750666558596919, 35.412891713349843 ] } },
{ "type": "Feature", "properties": { "内容": "名鉄レコードブック西岐阜【地域密着型通所介護】岐阜県岐阜市江添2丁目8番17号山田ビル1階南号室", "url": "https://www.kaigokensaku.mhlw.go.jp/21/index.php?action_kouhyou_detail_004_kani=true&JigyosyoCd=2190104188-00&ServiceCd=780&Type=search", "url2": "https://www.meitetsu-ls.co.jp/shop/view/27/" }, "geometry": { "type": "Point", "coordinates": [ 136.7267982, 35.393862 ] } },
{ "type": "Feature", "properties": { "内容": "総合リハビリセンターながら【地域密着型通所介護】岐阜県岐阜市長良竜東町3丁目50番地", "url": "https://www.kaigokensaku.mhlw.go.jp/21/index.php?action_kouhyou_detail_004_kani=true&JigyosyoCd=2190104204-00&ServiceCd=780&Type=search", "url2": null }, "geometry": { "type": "Point", "coordinates": [ 136.7854309, 35.4526052 ] } },
{ "type": "Feature", "properties": { "内容": "アスタスデイサービスセンター【地域密着型通所介護】岐阜県岐阜市芋島2丁目2番40号", "url": "https://www.kaigokensaku.mhlw.go.jp/21/index.php?action_kouhyou_detail_004_kani=true&JigyosyoCd=2190104238-00&ServiceCd=780&Type=search", "url2": "https://asutasuday.com" }, "geometry": { "type": "Point", "coordinates": [ 136.808077, 35.394707 ] } },
{ "type": "Feature", "properties": { "内容": "エンゼル・ランプデイサービスセンター【地域密着型通所介護】岐阜県岐阜市柳津町高桑1丁目173番地1", "url": "https://www.kaigokensaku.mhlw.go.jp/21/index.php?action_kouhyou_detail_004_kani=true&JigyosyoCd=2190104295-00&ServiceCd=780&Type=search", "url2": "http://angel-lamp.co.jp/" }, "geometry": { "type": "Point", "coordinates": [ 136.7127731, 35.3543258 ] } },
{ "type": "Feature", "properties": { "内容": "デイサービスおいで【地域密着型通所介護】岐阜県岐阜市手力町11番地1", "url": "https://www.kaigokensaku.mhlw.go.jp/21/index.php?action_kouhyou_detail_004_kani=true&JigyosyoCd=2190104329-00&ServiceCd=780&Type=search", "url2": null }, "geometry": { "type": "Point", "coordinates": [ 136.8015076, 35.3933625 ] } },
{ "type": "Feature", "properties": { "内容": "岐阜リラクゼーションセンターこころｔｏからだ【地域密着型通所介護】岐阜県岐阜市島栄町2丁目50番地2", "url": "https://www.kaigokensaku.mhlw.go.jp/21/index.php?action_kouhyou_detail_004_kani=true&JigyosyoCd=2190104345-00&ServiceCd=780&Type=search", "url2": "http://www.chubu-caresystem.co.jp/" }, "geometry": { "type": "Point", "coordinates": [ 136.7443169, 35.4322631 ] } },
{ "type": "Feature", "properties": { "内容": "エンゼル・ランプ南塚デイサービスセンター【地域密着型通所介護】岐阜県岐阜市柳津町南塚2丁目172番地", "url": "https://www.kaigokensaku.mhlw.go.jp/21/index.php?action_kouhyou_detail_004_kani=true&JigyosyoCd=2190104360-00&ServiceCd=780&Type=search", "url2": "http://angel-lamp.co.jp/" }, "geometry": { "type": "Point", "coordinates": [ 136.732594274066201, 35.364231697474018 ] } },
{ "type": "Feature", "properties": { "内容": "アネックス　あかね【地域密着型通所介護】岐阜県岐阜市茜部野瀬3-136", "url": "https://www.kaigokensaku.mhlw.go.jp/21/index.php?action_kouhyou_detail_004_kani=true&JigyosyoCd=2190104386-00&ServiceCd=780&Type=search", "url2": null }, "geometry": { "type": "Point", "coordinates": [ 136.7451102, 35.3740336 ] } },
{ "type": "Feature", "properties": { "内容": "美容特化型デイサービスBouquet【地域密着型通所介護】岐阜県岐阜市細畑1-8-5C.ISLAND17　1Fテナント", "url": "https://www.kaigokensaku.mhlw.go.jp/21/index.php?action_kouhyou_detail_004_kani=true&JigyosyoCd=2190104402-00&ServiceCd=780&Type=search", "url2": "https://trois-smile.com/" }, "geometry": { "type": "Point", "coordinates": [ 136.785629, 35.4071994 ] } },
{ "type": "Feature", "properties": { "内容": "ぎふ介護デイサービス【地域密着型通所介護】岐阜県岐阜市太平町１－２", "url": "https://www.kaigokensaku.mhlw.go.jp/21/index.php?action_kouhyou_detail_004_kani=true&JigyosyoCd=2190104410-00&ServiceCd=780&Type=search", "url2": null }, "geometry": { "type": "Point", "coordinates": [ 136.772593021356954, 35.449324997691114 ] } },
{ "type": "Feature", "properties": { "内容": "デイサービス胡蝶【地域密着型通所介護】岐阜県岐阜市西野町６丁目北町10", "url": "https://www.kaigokensaku.mhlw.go.jp/21/index.php?action_kouhyou_detail_004_kani=true&JigyosyoCd=2190104436-00&ServiceCd=780&Type=search", "url2": null }, "geometry": { "type": "Point", "coordinates": [ 136.74960205212173, 35.425053773763757 ] } },
{ "type": "Feature", "properties": { "内容": "世界ちゃんとモゲル丸先生の元気なデイサービス【地域密着型通所介護】岐阜県岐阜市六条南2丁目８番20号", "url": "https://www.kaigokensaku.mhlw.go.jp/21/index.php?action_kouhyou_detail_004_kani=true&JigyosyoCd=2190104444-00&ServiceCd=780&Type=search", "url2": null }, "geometry": { "type": "Point", "coordinates": [ 136.7412864, 35.3965245 ] } },
{ "type": "Feature", "properties": { "内容": "デイサロンせら【地域密着型通所介護】岐阜県岐阜市早田東町二丁目１６番地", "url": "https://www.kaigokensaku.mhlw.go.jp/21/index.php?action_kouhyou_detail_004_kani=true&JigyosyoCd=2190104469-00&ServiceCd=780&Type=search", "url2": null }, "geometry": { "type": "Point", "coordinates": [ 136.764264971163925, 35.437338851639723 ] } },
{ "type": "Feature", "properties": { "内容": "あいごデイサービスセンター【地域密着型通所介護】岐阜県岐阜市古市場１８９－９", "url": "https://www.kaigokensaku.mhlw.go.jp/21/index.php?action_kouhyou_detail_004_kani=true&JigyosyoCd=2190104493-00&ServiceCd=780&Type=search", "url2": null }, "geometry": { "type": "Point", "coordinates": [ 136.7196916, 35.4638327 ] } },
{ "type": "Feature", "properties": { "内容": "デイサービスまごころ参番館【地域密着型通所介護】岐阜県岐阜市長住町8丁目12番地スミカビルⅡ1階", "url": "https://www.kaigokensaku.mhlw.go.jp/21/index.php?action_kouhyou_detail_004_kani=true&JigyosyoCd=2190104519-00&ServiceCd=780&Type=search", "url2": null }, "geometry": { "type": "Point", "coordinates": [ 136.749822, 35.4127452 ] } },
{ "type": "Feature", "properties": { "内容": "デイサービスここあ　前一色店【地域密着型通所介護】岐阜県岐阜市前一色１丁目９－４", "url": "https://www.kaigokensaku.mhlw.go.jp/21/index.php?action_kouhyou_detail_004_kani=true&JigyosyoCd=2190104543-00&ServiceCd=780&Type=search", "url2": null }, "geometry": { "type": "Point", "coordinates": [ 136.797874799999988, 35.4069964 ] } },
{ "type": "Feature", "properties": { "内容": "世界ちゃんとモゲル丸先生の元気なデイサービスわんにゃんぶー【地域密着型通所介護】岐阜県岐阜市権現町4-3", "url": "https://www.kaigokensaku.mhlw.go.jp/21/index.php?action_kouhyou_detail_004_kani=true&JigyosyoCd=2190104584-00&ServiceCd=780&Type=search", "url2": "https://genkinanakama.com/" }, "geometry": { "type": "Point", "coordinates": [ 136.730577372352627, 35.414541718314283 ] } },
{ "type": "Feature", "properties": { "内容": "エンゼル・ランプ梅松デイサービスセンター【地域密着型通所介護】岐阜県岐阜市柳津町梅松4丁目86-1", "url": "https://www.kaigokensaku.mhlw.go.jp/21/index.php?action_kouhyou_detail_004_kani=true&JigyosyoCd=2190104634-00&ServiceCd=780&Type=search", "url2": "http://angel-lamp.co.jp" }, "geometry": { "type": "Point", "coordinates": [ 136.739379500000013, 35.3619147 ] } },
{ "type": "Feature", "properties": { "内容": "つくるんひだまり創【地域密着型通所介護】岐阜県岐阜市島新町４番６号", "url": "https://www.kaigokensaku.mhlw.go.jp/21/index.php?action_kouhyou_detail_004_kani=true&JigyosyoCd=2190104675-00&ServiceCd=780&Type=search", "url2": "https://hidamarisou.com/" }, "geometry": { "type": "Point", "coordinates": [ 136.740664, 35.428475900000016 ] } },
{ "type": "Feature", "properties": { "内容": "デイサービスセンターなごみ庵【地域密着型通所介護】岐阜県岐阜市茜部大野1丁目４５－２", "url": "https://www.kaigokensaku.mhlw.go.jp/21/index.php?action_kouhyou_detail_004_kani=true&JigyosyoCd=2170105361-00&ServiceCd=780&Type=search", "url2": "https://nagomi-gifu-sakura.ne.jp" }, "geometry": { "type": "Point", "coordinates": [ 136.754624799999988, 35.3955906 ] } },
{ "type": "Feature", "properties": { "内容": "デイサービスセンター　かのん【地域密着型通所介護】岐阜県岐阜市八代３丁目１９番４号", "url": "https://www.kaigokensaku.mhlw.go.jp/21/index.php?action_kouhyou_detail_004_kani=true&JigyosyoCd=2190103867-00&ServiceCd=780&Type=search", "url2": null }, "geometry": { "type": "Point", "coordinates": [ 136.774837400000024, 35.4616374 ] } },
{ "type": "Feature", "properties": { "内容": "あいあい・デイサービスセンター【地域密着型通所介護】岐阜県岐阜市八ツ梅町一丁目１５番地", "url": "https://www.kaigokensaku.mhlw.go.jp/21/index.php?action_kouhyou_detail_004_kani=true&JigyosyoCd=2190103925-00&ServiceCd=780&Type=search", "url2": "https://www.tomoikikai.net/shisetsu/aiai_day.php" }, "geometry": { "type": "Point", "coordinates": [ 136.75593189999995, 35.4229456 ] } },
{ "type": "Feature", "properties": { "内容": "美容特化型デイサービスBouquet+【地域密着型通所介護】岐阜県岐阜市細畑1-8-5C.ISLAND17１Fテナント", "url": "https://www.kaigokensaku.mhlw.go.jp/21/index.php?action_kouhyou_detail_004_kani=true&JigyosyoCd=2190104691-00&ServiceCd=780&Type=search", "url2": "https://trois-smile.com/" }, "geometry": { "type": "Point", "coordinates": [ 136.785629, 35.4071994 ] } },
{ "type": "Feature", "properties": { "内容": "デイサービスセンター　みたほら苑【地域密着型通所介護】岐阜県岐阜市三田洞東4丁目9番1号", "url": "https://www.kaigokensaku.mhlw.go.jp/21/index.php?action_kouhyou_detail_004_kani=true&JigyosyoCd=2170103895-00&ServiceCd=780&Type=search", "url2": "https://gifu-shinwakai.org/" }, "geometry": { "type": "Point", "coordinates": [ 136.7967255, 35.4731152 ] } },
{ "type": "Feature", "properties": { "内容": "デイサービス　たのしみ【地域密着型通所介護】岐阜県岐阜市御望950-3", "url": "https://www.kaigokensaku.mhlw.go.jp/21/index.php?action_kouhyou_detail_004_kani=true&JigyosyoCd=2170110270-00&ServiceCd=780&Type=search", "url2": "http://www1.odn.ne.jp/dei-tanoshimi/" }, "geometry": { "type": "Point", "coordinates": [ 136.709767100000022, 35.4748568 ] } },
{ "type": "Feature", "properties": { "内容": "あいあいデイサービスセンター【地域密着型通所介護】岐阜県大垣市浅中2-116-2", "url": "https://www.kaigokensaku.mhlw.go.jp/21/index.php?action_kouhyou_detail_004_kani=true&JigyosyoCd=2172100576-00&ServiceCd=780&Type=search", "url2": "http://www.nisimino.com/aiki" }, "geometry": { "type": "Point", "coordinates": [ 136.605758299999934, 35.3115953 ] } },
{ "type": "Feature", "properties": { "内容": "デイサービスセンターあおの里【地域密着型通所介護】岐阜県大垣市新地町２番地１", "url": "https://www.kaigokensaku.mhlw.go.jp/21/index.php?action_kouhyou_detail_004_kani=true&JigyosyoCd=2172100691-00&ServiceCd=780&Type=search", "url2": "https://oohashi-care.jimdofree.com" }, "geometry": { "type": "Point", "coordinates": [ 136.622048800000016, 35.3604817 ] } },
{ "type": "Feature", "properties": { "内容": "デイサービス歩み【地域密着型通所介護】岐阜県大垣市中ノ江2-2-2", "url": "https://www.kaigokensaku.mhlw.go.jp/21/index.php?action_kouhyou_detail_004_kani=true&JigyosyoCd=2172101582-00&ServiceCd=780&Type=search", "url2": null }, "geometry": { "type": "Point", "coordinates": [ 136.642555099999981, 35.3665171 ] } },
{ "type": "Feature", "properties": { "内容": "いきいきデイサービスセンター【地域密着型通所介護】岐阜県大垣市見取町3－8", "url": "https://www.kaigokensaku.mhlw.go.jp/21/index.php?action_kouhyou_detail_004_kani=true&JigyosyoCd=2172101624-00&ServiceCd=780&Type=search", "url2": "https://www.nisimino.com/aiki/" }, "geometry": { "type": "Point", "coordinates": [ 136.612491699999964, 35.3668445 ] } },
{ "type": "Feature", "properties": { "内容": "デイサービスセンター　ハーモニー【地域密着型通所介護】岐阜県大垣市上石津町三ツ里660番地", "url": "https://www.kaigokensaku.mhlw.go.jp/21/index.php?action_kouhyou_detail_004_kani=true&JigyosyoCd=2172101897-00&ServiceCd=780&Type=search", "url2": "http://midorinosato-h.com/" }, "geometry": { "type": "Point", "coordinates": [ 136.46277269999996, 35.2794737 ] } },
{ "type": "Feature", "properties": { "内容": "リハプライド　大垣ヒノキ【地域密着型通所介護】岐阜県大垣市桧町798", "url": "https://www.kaigokensaku.mhlw.go.jp/21/index.php?action_kouhyou_detail_004_kani=true&JigyosyoCd=2172102267-00&ServiceCd=780&Type=search", "url2": "http://www.rehapride.co.jp/hinoki/profile/" }, "geometry": { "type": "Point", "coordinates": [ 136.583398799999941, 35.3626745 ] } },
{ "type": "Feature", "properties": { "内容": "介護　結ぶ【地域密着型通所介護】岐阜県大垣市青墓町３－４１０－７３", "url": "https://www.kaigokensaku.mhlw.go.jp/21/index.php?action_kouhyou_detail_004_kani=true&JigyosyoCd=2172102432-00&ServiceCd=780&Type=search", "url2": null }, "geometry": { "type": "Point", "coordinates": [ 136.563367200000016, 35.3930814 ] } },
{ "type": "Feature", "properties": { "内容": "大垣セントラルクリニック　リハビリテーション颯【地域密着型通所介護】岐阜県大垣市赤坂新田1丁目72番1", "url": "https://www.kaigokensaku.mhlw.go.jp/21/index.php?action_kouhyou_detail_004_kani=true&JigyosyoCd=2192100309-00&ServiceCd=780&Type=search", "url2": "https://www.og-centralcl.com/" }, "geometry": { "type": "Point", "coordinates": [ 136.586499969905873, 35.382570637052581 ] } },
{ "type": "Feature", "properties": { "内容": "デイサービスよってこ【地域密着型通所介護】岐阜県大垣市室村町4丁目156番地", "url": "https://www.kaigokensaku.mhlw.go.jp/21/index.php?action_kouhyou_detail_004_kani=true&JigyosyoCd=2192100317-00&ServiceCd=780&Type=search", "url2": "http://kouyuukai.jp" }, "geometry": { "type": "Point", "coordinates": [ 136.609092199999964, 35.3678748 ] } },
{ "type": "Feature", "properties": { "内容": "はすの湯　小泉【地域密着型通所介護】岐阜県大垣市小泉町342-2", "url": "https://www.kaigokensaku.mhlw.go.jp/21/index.php?action_kouhyou_detail_004_kani=true&JigyosyoCd=2192100358-00&ServiceCd=780&Type=search", "url2": "https://www.lifespt.co.jp" }, "geometry": { "type": "Point", "coordinates": [ 136.644114381434377, 35.350441000729006 ] } },
{ "type": "Feature", "properties": { "内容": "介護　紡ぎ【地域密着型通所介護】岐阜県大垣市青墓町３－４２６－８", "url": "https://www.kaigokensaku.mhlw.go.jp/21/index.php?action_kouhyou_detail_004_kani=true&JigyosyoCd=2192100408-00&ServiceCd=780&Type=search", "url2": null }, "geometry": { "type": "Point", "coordinates": [ 136.563031746430283, 35.392865733534926 ] } },
{ "type": "Feature", "properties": { "内容": "デイサービスぷらっと【地域密着型通所介護】岐阜県大垣市室村町4丁目42番地23", "url": "https://www.kaigokensaku.mhlw.go.jp/21/index.php?action_kouhyou_detail_004_kani=true&JigyosyoCd=2192100424-00&ServiceCd=780&Type=search", "url2": null }, "geometry": { "type": "Point", "coordinates": [ 136.608407565641386, 35.367985949984323 ] } },
{ "type": "Feature", "properties": { "内容": "はすの湯　笠木【地域密着型通所介護】岐阜県大垣市笠木町249-3", "url": "https://www.kaigokensaku.mhlw.go.jp/21/index.php?action_kouhyou_detail_004_kani=true&JigyosyoCd=2192100457-00&ServiceCd=780&Type=search", "url2": "https://www.lifespt.co.jp" }, "geometry": { "type": "Point", "coordinates": [ 136.5985173, 35.3776153 ] } },
{ "type": "Feature", "properties": { "内容": "シニアフィットネスデイここから【地域密着型通所介護】岐阜県大垣市友江２丁目１番地１", "url": "https://www.kaigokensaku.mhlw.go.jp/21/index.php?action_kouhyou_detail_004_kani=true&JigyosyoCd=2192100473-00&ServiceCd=780&Type=search", "url2": "http://yuuwaen.jp/" }, "geometry": { "type": "Point", "coordinates": [ 136.601173, 35.3245129 ] } },
{ "type": "Feature", "properties": { "内容": "デイサービスセンター日新いろり【地域密着型通所介護】岐阜県大垣市入方2丁目1716番地3", "url": "https://www.kaigokensaku.mhlw.go.jp/21/index.php?action_kouhyou_detail_004_kani=true&JigyosyoCd=2192100481-00&ServiceCd=780&Type=search", "url2": "info@nissin-irori.com" }, "geometry": { "type": "Point", "coordinates": [ 136.600513799999987, 35.329368 ] } },
{ "type": "Feature", "properties": { "内容": "脳活リハ　もやい【地域密着型通所介護】岐阜県大垣市津村町1丁目81-9", "url": "https://www.kaigokensaku.mhlw.go.jp/21/index.php?action_kouhyou_detail_004_kani=true&JigyosyoCd=2192100523-00&ServiceCd=780&Type=search", "url2": "https://www.sun-village.jp/" }, "geometry": { "type": "Point", "coordinates": [ 136.6412511, 35.3853034 ] } },
{ "type": "Feature", "properties": { "内容": "デイサービスセンターSaiai大垣【地域密着型通所介護】岐阜県大垣市静里町1171-1川瀬ビル１階", "url": "https://www.kaigokensaku.mhlw.go.jp/21/index.php?action_kouhyou_detail_004_kani=true&JigyosyoCd=2192100549-00&ServiceCd=780&Type=search", "url2": null }, "geometry": { "type": "Point", "coordinates": [ 136.5938778, 35.3532493 ] } },
{ "type": "Feature", "properties": { "内容": "デイサービス健幸倶楽部老化予防センター日赤前【地域密着型通所介護】岐阜県高山市名田町２丁目１１２番地", "url": "https://www.kaigokensaku.mhlw.go.jp/21/index.php?action_kouhyou_detail_004_kani=true&JigyosyoCd=2172700862-00&ServiceCd=780&Type=search", "url2": null }, "geometry": { "type": "Point", "coordinates": [ 137.255375700000059, 36.1362165 ] } },
{ "type": "Feature", "properties": { "内容": "四季の風デイサービスセンター【地域密着型通所介護】岐阜県高山市丹生川町3255-70", "url": "https://www.kaigokensaku.mhlw.go.jp/21/index.php?action_kouhyou_detail_004_kani=true&JigyosyoCd=2192700306-00&ServiceCd=780&Type=search", "url2": null }, "geometry": { "type": "Point", "coordinates": [ 137.512814, 36.1786283 ] } },
{ "type": "Feature", "properties": { "内容": "デイサービスセンターこころ【地域密着型通所介護】岐阜県高山市山田町32番地1", "url": "https://www.kaigokensaku.mhlw.go.jp/21/index.php?action_kouhyou_detail_004_kani=true&JigyosyoCd=2192700322-00&ServiceCd=780&Type=search", "url2": "https://www.cocoro-takayama.jp" }, "geometry": { "type": "Point", "coordinates": [ 137.225224, 36.1450743 ] } },
{ "type": "Feature", "properties": { "内容": "デイサービスセンターほのぼのオレンジ【地域密着型通所介護】岐阜県高山市新宮町3781-5", "url": "https://www.kaigokensaku.mhlw.go.jp/21/index.php?action_kouhyou_detail_004_kani=true&JigyosyoCd=2172700839-00&ServiceCd=780&Type=search", "url2": "https://www.honobonoasahi.com/" }, "geometry": { "type": "Point", "coordinates": [ 137.222654499999948, 36.1364659 ] } },
{ "type": "Feature", "properties": { "内容": "うわのデイサービス【地域密着型通所介護】岐阜県高山市上野町675番地2", "url": "https://www.kaigokensaku.mhlw.go.jp/21/index.php?action_kouhyou_detail_004_kani=true&JigyosyoCd=2172700979-00&ServiceCd=780&Type=search", "url2": null }, "geometry": { "type": "Point", "coordinates": [ 137.267868, 36.1671354 ] } },
{ "type": "Feature", "properties": { "内容": "いこいの広場　鉄ちゃん倶楽部【地域密着型通所介護】岐阜県高山市西之一色町3丁目８６６", "url": "https://www.kaigokensaku.mhlw.go.jp/21/index.php?action_kouhyou_detail_004_kani=true&JigyosyoCd=2172701126-00&ServiceCd=780&Type=search", "url2": null }, "geometry": { "type": "Point", "coordinates": [ 137.240249299999959, 36.1352249 ] } },
{ "type": "Feature", "properties": { "内容": "デイサービスセンターすこやか【地域密着型通所介護】岐阜県高山市三福寺町411-3", "url": "https://www.kaigokensaku.mhlw.go.jp/21/index.php?action_kouhyou_detail_004_kani=true&JigyosyoCd=2172701175-00&ServiceCd=780&Type=search", "url2": null }, "geometry": { "type": "Point", "coordinates": [ 137.262123101258084, 36.153258033474962 ] } },
{ "type": "Feature", "properties": { "内容": "野の風デイサービスセンター【地域密着型通所介護】岐阜県高山市丹生川町新張3255-71", "url": "https://www.kaigokensaku.mhlw.go.jp/21/index.php?action_kouhyou_detail_004_kani=true&JigyosyoCd=2172701274-00&ServiceCd=780&Type=search", "url2": "http://annonjyuku.web.fc2.com" }, "geometry": { "type": "Point", "coordinates": [ 137.2662209, 36.1719236 ] } },
{ "type": "Feature", "properties": { "内容": "Locomo　きりん【地域密着型通所介護】岐阜県高山市大新町4-175", "url": "https://www.kaigokensaku.mhlw.go.jp/21/index.php?action_kouhyou_detail_004_kani=true&JigyosyoCd=2172701316-00&ServiceCd=780&Type=search", "url2": "http://kirin3.com/" }, "geometry": { "type": "Point", "coordinates": [ 137.25678360118863, 36.153068917116848 ] } },
{ "type": "Feature", "properties": { "内容": "デイサービスいっぷく【地域密着型通所介護】岐阜県高山市上岡本町1丁目476", "url": "https://www.kaigokensaku.mhlw.go.jp/21/index.php?action_kouhyou_detail_004_kani=true&JigyosyoCd=2172701340-00&ServiceCd=780&Type=search", "url2": null }, "geometry": { "type": "Point", "coordinates": [ 137.235283100000061, 36.1342501 ] } },
{ "type": "Feature", "properties": { "内容": "デイサービスセンター清徳会宙【地域密着型通所介護】岐阜県高山市神田町1丁目28番地１", "url": "https://www.kaigokensaku.mhlw.go.jp/21/index.php?action_kouhyou_detail_004_kani=true&JigyosyoCd=2192700124-00&ServiceCd=780&Type=search", "url2": "http://www.seitokukai.or.jp" }, "geometry": { "type": "Point", "coordinates": [ 137.255651241664026, 36.147004090451546 ] } },
{ "type": "Feature", "properties": { "内容": "岐阜県看護協会立ナーシングデイ高山【地域密着型通所介護】岐阜県高山市冬頭町588番1", "url": "https://www.kaigokensaku.mhlw.go.jp/21/index.php?action_kouhyou_detail_004_kani=true&JigyosyoCd=2192700140-00&ServiceCd=780&Type=search", "url2": "http://www.gifu-kango.or.jp/" }, "geometry": { "type": "Point", "coordinates": [ 137.241041165328966, 36.165777740431011 ] } },
{ "type": "Feature", "properties": { "内容": "みやりは【地域密着型通所介護】岐阜県高山市一之宮町4907番地2", "url": "https://www.kaigokensaku.mhlw.go.jp/21/index.php?action_kouhyou_detail_004_kani=true&JigyosyoCd=2192700199-00&ServiceCd=780&Type=search", "url2": "http://www.miya-reha.co.jp" }, "geometry": { "type": "Point", "coordinates": [ 137.250811612186453, 36.084761800479043 ] } },
{ "type": "Feature", "properties": { "内容": "みやりはくぐの【地域密着型通所介護】岐阜県高山市久々野町山梨６４１番地旧農林産物直売所", "url": "https://www.kaigokensaku.mhlw.go.jp/21/index.php?action_kouhyou_detail_004_kani=true&JigyosyoCd=2192700249-00&ServiceCd=780&Type=search", "url2": "http://www.miya-reha.co.jp" }, "geometry": { "type": "Point", "coordinates": [ 137.267950165911088, 36.070405561464923 ] } },
{ "type": "Feature", "properties": { "内容": "サロンド　まなか【地域密着型通所介護】岐阜県高山市上宝町本郷2916番地", "url": "https://www.kaigokensaku.mhlw.go.jp/21/index.php?action_kouhyou_detail_004_kani=true&JigyosyoCd=2172701217-00&ServiceCd=780&Type=search", "url2": null }, "geometry": { "type": "Point", "coordinates": [ 137.3588317, 36.285385 ] } },
{ "type": "Feature", "properties": { "内容": "けあらーず多治見指定通所介護事業所【地域密着型通所介護】岐阜県多治見市生田町１丁目１８４番", "url": "https://www.kaigokensaku.mhlw.go.jp/21/index.php?action_kouhyou_detail_004_kani=true&JigyosyoCd=2171101401-00&ServiceCd=780&Type=search", "url2": "http://www.seramu.com/" }, "geometry": { "type": "Point", "coordinates": [ 137.137562, 35.3372442 ] } },
{ "type": "Feature", "properties": { "内容": "やさしい時間　めぐ里デイサービスセンター【地域密着型通所介護】岐阜県多治見市大畑町2-80", "url": "https://www.kaigokensaku.mhlw.go.jp/21/index.php?action_kouhyou_detail_004_kani=true&JigyosyoCd=2191100268-00&ServiceCd=780&Type=search", "url2": null }, "geometry": { "type": "Point", "coordinates": [ 137.1296528, 35.3197734 ] } },
{ "type": "Feature", "properties": { "内容": "みんなの手デイサービスセンター【地域密着型通所介護】岐阜県多治見市根本町3-90", "url": "https://www.kaigokensaku.mhlw.go.jp/21/index.php?action_kouhyou_detail_004_kani=true&JigyosyoCd=2171100379-00&ServiceCd=780&Type=search", "url2": "https://minnanote-gifu.com/" }, "geometry": { "type": "Point", "coordinates": [ 137.088473457447378, 35.360914564879714 ] } },
{ "type": "Feature", "properties": { "内容": "そふとケア【地域密着型通所介護】岐阜県多治見市滝呂町14丁目7番地", "url": "https://www.kaigokensaku.mhlw.go.jp/21/index.php?action_kouhyou_detail_004_kani=true&JigyosyoCd=2171100957-00&ServiceCd=780&Type=search", "url2": "https://akimoto46.wixsite.com/withsoft" }, "geometry": { "type": "Point", "coordinates": [ 137.1463642, 35.3130666 ] } },
{ "type": "Feature", "properties": { "内容": "駅前デイ　ほっと和【地域密着型通所介護】岐阜県多治見市栄町２丁目２４番地", "url": "https://www.kaigokensaku.mhlw.go.jp/21/index.php?action_kouhyou_detail_004_kani=true&JigyosyoCd=2171101047-00&ServiceCd=780&Type=search", "url2": "http://hero.leosv.com/hotkazu/" }, "geometry": { "type": "Point", "coordinates": [ 137.122313500000018, 35.3335829 ] } },
{ "type": "Feature", "properties": { "内容": "デイサロンあらいふ【地域密着型通所介護】岐阜県多治見市松坂町２丁目２３番地の１", "url": "https://www.kaigokensaku.mhlw.go.jp/21/index.php?action_kouhyou_detail_004_kani=true&JigyosyoCd=2171101112-00&ServiceCd=780&Type=search", "url2": null }, "geometry": { "type": "Point", "coordinates": [ 137.088202700000011, 35.366103 ] } },
{ "type": "Feature", "properties": { "内容": "やさしい時間ぎんざデイサービスセンター【地域密着型通所介護】岐阜県多治見市新町２－２５－２", "url": "https://www.kaigokensaku.mhlw.go.jp/21/index.php?action_kouhyou_detail_004_kani=true&JigyosyoCd=2171101203-00&ServiceCd=780&Type=search", "url2": "http://y-time.jp/ginza/" }, "geometry": { "type": "Point", "coordinates": [ 137.129545389549321, 35.332654021451162 ] } },
{ "type": "Feature", "properties": { "内容": "爽ケアリハビリセンター小泉【地域密着型通所介護】岐阜県多治見市小泉町3-24", "url": "https://www.kaigokensaku.mhlw.go.jp/21/index.php?action_kouhyou_detail_004_kani=true&JigyosyoCd=2171101211-00&ServiceCd=780&Type=search", "url2": "http://www.sou-care.co.jp/" }, "geometry": { "type": "Point", "coordinates": [ 137.095790277943422, 35.349392373748891 ] } },
{ "type": "Feature", "properties": { "内容": "やさしい時間　あか里デイサービスセンター【地域密着型通所介護】岐阜県多治見市笠原町２３３７－３", "url": "https://www.kaigokensaku.mhlw.go.jp/21/index.php?action_kouhyou_detail_004_kani=true&JigyosyoCd=2171101237-00&ServiceCd=780&Type=search", "url2": "https://kouei-g.jp" }, "geometry": { "type": "Point", "coordinates": [ 137.160143299999959, 35.3049154 ] } },
{ "type": "Feature", "properties": { "内容": "やさしい時間さ倉デイサービスセンター【地域密着型通所介護】岐阜県多治見市市之倉町８丁目１０８番地", "url": "https://www.kaigokensaku.mhlw.go.jp/21/index.php?action_kouhyou_detail_004_kani=true&JigyosyoCd=2171101260-00&ServiceCd=780&Type=search", "url2": "http://www.y-time.jp/sakura/index.html" }, "geometry": { "type": "Point", "coordinates": [ 137.1251641, 35.3019721 ] } },
{ "type": "Feature", "properties": { "内容": "デイサービス　あさひ【地域密着型通所介護】岐阜県多治見市旭ヶ丘８丁目２９－４５アジアプラザ内", "url": "https://www.kaigokensaku.mhlw.go.jp/21/index.php?action_kouhyou_detail_004_kani=true&JigyosyoCd=2171101278-00&ServiceCd=780&Type=search", "url2": "https://dreamfield.info" }, "geometry": { "type": "Point", "coordinates": [ 137.105470100000048, 35.3652786 ] } },
{ "type": "Feature", "properties": { "内容": "デイサービスセンター幸寿【地域密着型通所介護】岐阜県多治見市赤坂町６丁目２番地23", "url": "https://www.kaigokensaku.mhlw.go.jp/21/index.php?action_kouhyou_detail_004_kani=true&JigyosyoCd=2171101450-00&ServiceCd=780&Type=search", "url2": null }, "geometry": { "type": "Point", "coordinates": [ 137.08987, 35.3396582 ] } },
{ "type": "Feature", "properties": { "内容": "爽ケア健康リハビリオリベ【地域密着型通所介護】岐阜県多治見市京町2-185花の木ビル2F", "url": "https://www.kaigokensaku.mhlw.go.jp/21/index.php?action_kouhyou_detail_004_kani=true&JigyosyoCd=2171101526-00&ServiceCd=780&Type=search", "url2": "http://www.sou-care.co.jp" }, "geometry": { "type": "Point", "coordinates": [ 137.127207699999985, 35.3253422 ] } },
{ "type": "Feature", "properties": { "内容": "おあしすデイサービス大畑【地域密着型通所介護】岐阜県多治見市大畑町6-78", "url": "https://www.kaigokensaku.mhlw.go.jp/21/index.php?action_kouhyou_detail_004_kani=true&JigyosyoCd=2171101658-00&ServiceCd=780&Type=search", "url2": "http://www.hotto.co.jp/" }, "geometry": { "type": "Point", "coordinates": [ 137.13452929999994, 35.3180266 ] } },
{ "type": "Feature", "properties": { "内容": "デイサービスあさひ　慶の家【地域密着型通所介護】岐阜県多治見市旭ヶ丘1丁目86番地の7住宅型有料老人ホーム慶の家内", "url": "https://www.kaigokensaku.mhlw.go.jp/21/index.php?action_kouhyou_detail_004_kani=true&JigyosyoCd=2171101674-00&ServiceCd=780&Type=search", "url2": "http://dreamfield.info" }, "geometry": { "type": "Point", "coordinates": [ 137.096929400000022, 35.3660227 ] } },
{ "type": "Feature", "properties": { "内容": "おあしすデイサービス虎渓山【地域密着型通所介護】岐阜県多治見市虎渓山町３－１１７－３レジデンス渓北１階", "url": "https://www.kaigokensaku.mhlw.go.jp/21/index.php?action_kouhyou_detail_004_kani=true&JigyosyoCd=2171101690-00&ServiceCd=780&Type=search", "url2": "http://www.hotto.co.jp/" }, "geometry": { "type": "Point", "coordinates": [ 137.126779299999953, 35.3496563 ] } },
{ "type": "Feature", "properties": { "内容": "さいわいデイサービスセンター【地域密着型通所介護】岐阜県多治見市幸町７丁目２８－１", "url": "https://www.kaigokensaku.mhlw.go.jp/21/index.php?action_kouhyou_detail_004_kani=true&JigyosyoCd=2171101898-00&ServiceCd=780&Type=search", "url2": "http://saiwai-tajimi.com/" }, "geometry": { "type": "Point", "coordinates": [ 137.088619699999981, 35.3526764 ] } },
{ "type": "Feature", "properties": { "内容": "デイサービスありがとう【地域密着型通所介護】岐阜県多治見市虎渓山町６－２１－２", "url": "https://www.kaigokensaku.mhlw.go.jp/21/index.php?action_kouhyou_detail_004_kani=true&JigyosyoCd=2171102003-00&ServiceCd=780&Type=search", "url2": "http://hp.kaipoke.biz/g03/" }, "geometry": { "type": "Point", "coordinates": [ 137.133749010450771, 35.352538066192331 ] } },
{ "type": "Feature", "properties": { "内容": "かさはら陶生苑デイサービスセンター【地域密着型通所介護】岐阜県多治見市笠原町2854-1", "url": "https://www.kaigokensaku.mhlw.go.jp/21/index.php?action_kouhyou_detail_004_kani=true&JigyosyoCd=2171900083-00&ServiceCd=780&Type=search", "url2": "http://www.toseien.com/publics/index/22/" }, "geometry": { "type": "Point", "coordinates": [ 137.154621600000041, 35.3029293 ] } },
{ "type": "Feature", "properties": { "内容": "デイサービス池田亭【地域密着型通所介護】岐阜県多治見市池田町1-56-5", "url": "https://www.kaigokensaku.mhlw.go.jp/21/index.php?action_kouhyou_detail_004_kani=true&JigyosyoCd=2191100151-00&ServiceCd=780&Type=search", "url2": "https://tsunagu-ikedatei.wixsite.com/mysite" }, "geometry": { "type": "Point", "coordinates": [ 137.110692100000051, 35.3317656 ] } },
{ "type": "Feature", "properties": { "内容": "デイサービスセンタージョイフル多治見【地域密着型通所介護】岐阜県多治見市音羽町1-235", "url": "https://www.kaigokensaku.mhlw.go.jp/21/index.php?action_kouhyou_detail_004_kani=true&JigyosyoCd=2191100169-00&ServiceCd=780&Type=search", "url2": "https://sun-vision.or.jp" }, "geometry": { "type": "Point", "coordinates": [ 137.119175416146845, 35.336400112323481 ] } },
{ "type": "Feature", "properties": { "内容": "やさしい時間ゆと里デイサービスセンター【地域密着型通所介護】岐阜県多治見市太平町3-53-1", "url": "https://www.kaigokensaku.mhlw.go.jp/21/index.php?action_kouhyou_detail_004_kani=true&JigyosyoCd=2191100177-00&ServiceCd=780&Type=search", "url2": "https://kouei-g.jp" }, "geometry": { "type": "Point", "coordinates": [ 137.110370796889498, 35.335327719047775 ] } },
{ "type": "Feature", "properties": { "内容": "リハビリデイサービスいちい【地域密着型通所介護】岐阜県多治見市大畑町5丁目200番地の4", "url": "https://www.kaigokensaku.mhlw.go.jp/21/index.php?action_kouhyou_detail_004_kani=true&JigyosyoCd=2191100193-00&ServiceCd=780&Type=search", "url2": "https://day-ichii.jp" }, "geometry": { "type": "Point", "coordinates": [ 137.1347087, 35.3207008 ] } },
{ "type": "Feature", "properties": { "内容": "やさしい時間ぎんざPlusデイサービスセンター【地域密着型通所介護】岐阜県多治見市新町2-33", "url": "https://www.kaigokensaku.mhlw.go.jp/21/index.php?action_kouhyou_detail_004_kani=true&JigyosyoCd=2191100243-00&ServiceCd=780&Type=search", "url2": "http://y-time.jp/ginza/" }, "geometry": { "type": "Point", "coordinates": [ 137.129629099999988, 35.3324005 ] } },
{ "type": "Feature", "properties": { "内容": "おあしすデイサービス明和【地域密着型通所介護】岐阜県多治見市明和町2-41-1ラ・ポールめいわ1階", "url": "https://www.kaigokensaku.mhlw.go.jp/21/index.php?action_kouhyou_detail_004_kani=true&JigyosyoCd=2191100250-00&ServiceCd=780&Type=search", "url2": "http://www.hotto.co.jp/visitcare.html" }, "geometry": { "type": "Point", "coordinates": [ 137.098527499999989, 35.3534342 ] } },
{ "type": "Feature", "properties": { "内容": "リハビリステーション美里【地域密着型通所介護】岐阜県関市向山町３丁目６－６", "url": "https://www.kaigokensaku.mhlw.go.jp/21/index.php?action_kouhyou_detail_004_kani=true&JigyosyoCd=2170200717-00&ServiceCd=780&Type=search", "url2": null }, "geometry": { "type": "Point", "coordinates": [ 136.9026857, 35.4529283 ] } },
{ "type": "Feature", "properties": { "内容": "優花デイサービス【地域密着型通所介護】岐阜県関市下有知1656番地", "url": "https://www.kaigokensaku.mhlw.go.jp/21/index.php?action_kouhyou_detail_004_kani=true&JigyosyoCd=2170201137-00&ServiceCd=780&Type=search", "url2": null }, "geometry": { "type": "Point", "coordinates": [ 136.906361953659058, 35.520655910374181 ] } },
{ "type": "Feature", "properties": { "内容": "関市板取デイ・ｻｰﾋﾞｽセンター【地域密着型通所介護】岐阜関市板取６５０３番地", "url": "https://www.kaigokensaku.mhlw.go.jp/21/index.php?action_kouhyou_detail_004_kani=true&JigyosyoCd=2190200259-00&ServiceCd=780&Type=search", "url2": "http://miwakai.or.jp/" }, "geometry": { "type": "Point", "coordinates": [ 136.811598099999969, 35.6886011 ] } },
{ "type": "Feature", "properties": { "内容": "デイサービスセンター東山【地域密着型通所介護】岐阜県関市東山4丁目48番地", "url": "https://www.kaigokensaku.mhlw.go.jp/21/index.php?action_kouhyou_detail_004_kani=true&JigyosyoCd=2190200275-00&ServiceCd=780&Type=search", "url2": "http://www.higashiyama-h.com" }, "geometry": { "type": "Point", "coordinates": [ 136.946749113630631, 35.491571185556218 ] } },
{ "type": "Feature", "properties": { "内容": "こがねだ診療所【地域密着型通所介護】岐阜県関市上白金511番地こがねだ診療所", "url": "https://www.kaigokensaku.mhlw.go.jp/21/index.php?action_kouhyou_detail_004_kani=true&JigyosyoCd=2190200226-00&ServiceCd=780&Type=search", "url2": "http://gifu-min.jp/koganeda/" }, "geometry": { "type": "Point", "coordinates": [ 136.862549599999966, 35.4825541 ] } },
{ "type": "Feature", "properties": { "内容": "ゆうらく苑デイサービスセンター【地域密着型通所介護】岐阜県中津川市落合996-1", "url": "https://www.kaigokensaku.mhlw.go.jp/21/index.php?action_kouhyou_detail_004_kani=true&JigyosyoCd=2191500269-00&ServiceCd=780&Type=search", "url2": "http://www.kayagakikai-nakatsugawa.jp/publics/index/13/" }, "geometry": { "type": "Point", "coordinates": [ 137.5273118, 35.511543 ] } },
{ "type": "Feature", "properties": { "内容": "中津川市デイサービスセンターゆうわ苑【地域密着型通所介護】岐阜県中津川市中津川3367番地の1", "url": "https://www.kaigokensaku.mhlw.go.jp/21/index.php?action_kouhyou_detail_004_kani=true&JigyosyoCd=2171500131-00&ServiceCd=780&Type=search", "url2": "https://yuuwaen.jimdofree.com" }, "geometry": { "type": "Point", "coordinates": [ 137.51146025767207, 35.486534591813943 ] } },
{ "type": "Feature", "properties": { "内容": "瀬戸の里デイサービスセンター【地域密着型通所介護】岐阜県中津川市瀬戸1387番地の8", "url": "https://www.kaigokensaku.mhlw.go.jp/21/index.php?action_kouhyou_detail_004_kani=true&JigyosyoCd=2171500149-00&ServiceCd=780&Type=search", "url2": "http://www.gojoukai.or.jp/publics/index/48/" }, "geometry": { "type": "Point", "coordinates": [ 137.497419799999989, 35.5166269 ] } },
{ "type": "Feature", "properties": { "内容": "二ツ森デイサービスセンター【地域密着型通所介護】岐阜県中津川市福岡1693-608", "url": "https://www.kaigokensaku.mhlw.go.jp/21/index.php?action_kouhyou_detail_004_kani=true&JigyosyoCd=2171500701-00&ServiceCd=780&Type=search", "url2": "http://www.futatsumori.or.jp/" }, "geometry": { "type": "Point", "coordinates": [ 137.432793422753917, 35.568839213554291 ] } },
{ "type": "Feature", "properties": { "内容": "デイサービス音生人（おいたち）【地域密着型通所介護】岐阜県中津川市駒場1517-13", "url": "https://www.kaigokensaku.mhlw.go.jp/21/index.php?action_kouhyou_detail_004_kani=true&JigyosyoCd=2171500792-00&ServiceCd=780&Type=search", "url2": "https://www.oitati.com/" }, "geometry": { "type": "Point", "coordinates": [ 137.48259680000001, 35.4889884 ] } },
{ "type": "Feature", "properties": { "内容": "デイサービス茶話本舗中津川【地域密着型通所介護】岐阜県中津川市駒場字大岩1630-152", "url": "https://www.kaigokensaku.mhlw.go.jp/21/index.php?action_kouhyou_detail_004_kani=true&JigyosyoCd=2171500925-00&ServiceCd=780&Type=search", "url2": null }, "geometry": { "type": "Point", "coordinates": [ 137.492926099999977, 35.5000513 ] } },
{ "type": "Feature", "properties": { "内容": "デイサービスおひさま【地域密着型通所介護】岐阜県中津川市中一色町3-14三洋堂ビル1階", "url": "https://www.kaigokensaku.mhlw.go.jp/21/index.php?action_kouhyou_detail_004_kani=true&JigyosyoCd=2171500933-00&ServiceCd=780&Type=search", "url2": "https://ohisama.group/" }, "geometry": { "type": "Point", "coordinates": [ 137.509530400000017, 35.4928534 ] } },
{ "type": "Feature", "properties": { "内容": "若菜集デイサービス【地域密着型通所介護】岐阜県中津川市新町６－２４", "url": "https://www.kaigokensaku.mhlw.go.jp/21/index.php?action_kouhyou_detail_004_kani=true&JigyosyoCd=2171501006-00&ServiceCd=780&Type=search", "url2": null }, "geometry": { "type": "Point", "coordinates": [ 137.504569599999968, 35.4969358 ] } },
{ "type": "Feature", "properties": { "内容": "デイサービスセンターふくろうの杜【地域密着型通所介護】岐阜県中津川市苗木４００２番地", "url": "https://www.kaigokensaku.mhlw.go.jp/21/index.php?action_kouhyou_detail_004_kani=true&JigyosyoCd=2171501063-00&ServiceCd=780&Type=search", "url2": "http://www.fukurounomori.jp/" }, "geometry": { "type": "Point", "coordinates": [ 137.4592841, 35.5119179 ] } },
{ "type": "Feature", "properties": { "内容": "デイサービス向日葵苗木【地域密着型通所介護】岐阜県中津川市苗木48-137", "url": "https://www.kaigokensaku.mhlw.go.jp/21/index.php?action_kouhyou_detail_004_kani=true&JigyosyoCd=2191500152-00&ServiceCd=780&Type=search", "url2": "http://www.solrian.jp/about/" }, "geometry": { "type": "Point", "coordinates": [ 137.453405500000031, 35.5341949 ] } },
{ "type": "Feature", "properties": { "内容": "宅老所かざぐるま【地域密着型通所介護】岐阜県中津川市田瀬990-8", "url": "https://www.kaigokensaku.mhlw.go.jp/21/index.php?action_kouhyou_detail_004_kani=true&JigyosyoCd=2191500210-00&ServiceCd=780&Type=search", "url2": null }, "geometry": { "type": "Point", "coordinates": [ 137.461963400000059, 35.619677 ] } },
{ "type": "Feature", "properties": { "内容": "デイサービス向日葵中津川【地域密着型通所介護】岐阜県中津川市中津川3946-96", "url": "https://www.kaigokensaku.mhlw.go.jp/21/index.php?action_kouhyou_detail_004_kani=true&JigyosyoCd=2191500236-00&ServiceCd=780&Type=search", "url2": "http://www.solrian.jp/" }, "geometry": { "type": "Point", "coordinates": [ 137.5190135, 35.4467841 ] } },
{ "type": "Feature", "properties": { "内容": "福ふくデイサービス【地域密着型通所介護】岐阜県中津川市西宮町4-13", "url": "https://www.kaigokensaku.mhlw.go.jp/21/index.php?action_kouhyou_detail_004_kani=true&JigyosyoCd=2191500293-00&ServiceCd=780&Type=search", "url2": "https://fukufukucare.com/" }, "geometry": { "type": "Point", "coordinates": [ 137.502767799999987, 35.4935713 ] } },
{ "type": "Feature", "properties": { "内容": "デイサービス　いろり【地域密着型通所介護】岐阜県美濃市御手洗347-1", "url": "https://www.kaigokensaku.mhlw.go.jp/21/index.php?action_kouhyou_detail_004_kani=true&JigyosyoCd=2170300350-00&ServiceCd=780&Type=search", "url2": null }, "geometry": { "type": "Point", "coordinates": [ 136.871308099999965, 35.5804757 ] } },
{ "type": "Feature", "properties": { "内容": "さてらいと日吉　デイサービス【地域密着型通所介護】岐阜県瑞浪市日吉町４１１７－４", "url": "https://www.kaigokensaku.mhlw.go.jp/21/index.php?action_kouhyou_detail_004_kani=true&JigyosyoCd=2171600378-00&ServiceCd=780&Type=search", "url2": "http://www.senjyukai.or.jp/index.html" }, "geometry": { "type": "Point", "coordinates": [ 137.2443965, 35.4061741 ] } },
{ "type": "Feature", "properties": { "内容": "リハ特化型　ぬくもり　リハセンター【地域密着型通所介護】岐阜県瑞浪市陶町水上718-2", "url": "https://www.kaigokensaku.mhlw.go.jp/21/index.php?action_kouhyou_detail_004_kani=true&JigyosyoCd=2171600725-00&ServiceCd=780&Type=search", "url2": null }, "geometry": { "type": "Point", "coordinates": [ 137.313282800000025, 35.316839 ] } },
{ "type": "Feature", "properties": { "内容": "身体づくり支援所　リライフ【地域密着型通所介護】岐阜県瑞浪市薬師町5丁目21番地", "url": "https://www.kaigokensaku.mhlw.go.jp/21/index.php?action_kouhyou_detail_004_kani=true&JigyosyoCd=2191600077-00&ServiceCd=780&Type=search", "url2": "http://www.k-relife.jp" }, "geometry": { "type": "Point", "coordinates": [ 137.224392111639418, 35.364855506063577 ] } },
{ "type": "Feature", "properties": { "内容": "デイサービス　ゴールドエイジ瑞浪【地域密着型通所介護】岐阜県瑞浪市山田町630-1ゴールドエイジ瑞浪", "url": "https://www.kaigokensaku.mhlw.go.jp/21/index.php?action_kouhyou_detail_004_kani=true&JigyosyoCd=2191600085-00&ServiceCd=780&Type=search", "url2": null }, "geometry": { "type": "Point", "coordinates": [ 137.248430149668138, 35.347230752062664 ] } },
{ "type": "Feature", "properties": { "内容": "上を向いて歩こううさぎの里KAMANUKA【地域密着型通所介護】岐阜県瑞穂市稲津町小里2317-3", "url": "https://www.kaigokensaku.mhlw.go.jp/21/index.php?action_kouhyou_detail_004_kani=true&JigyosyoCd=2191600093-00&ServiceCd=780&Type=search", "url2": null }, "geometry": { "type": "Point", "coordinates": [ 137.2644987, 35.3415188 ] } },
{ "type": "Feature", "properties": { "内容": "やさしい時間　木かげ　デイサービスセンター【地域密着型通所介護】岐阜県瑞浪市和合町１丁目２１番２", "url": "https://www.kaigokensaku.mhlw.go.jp/21/index.php?action_kouhyou_detail_004_kani=true&JigyosyoCd=2171600618-00&ServiceCd=780&Type=search", "url2": "http://www.y-time.jp" }, "geometry": { "type": "Point", "coordinates": [ 137.2236507, 35.3633696 ] } },
{ "type": "Feature", "properties": { "内容": "デイサービス　いろはカフェ【地域密着型通所介護】岐阜県瑞浪市日吉町4702", "url": "https://www.kaigokensaku.mhlw.go.jp/21/index.php?action_kouhyou_detail_004_kani=true&JigyosyoCd=2191600069-00&ServiceCd=780&Type=search", "url2": "http://blog.livedoor.jp/irohacafe" }, "geometry": { "type": "Point", "coordinates": [ 137.264278, 35.4048067 ] } },
{ "type": "Feature", "properties": { "内容": "デイサービス長島【地域密着型通所介護】岐阜県羽島市竹鼻町２５６", "url": "https://www.kaigokensaku.mhlw.go.jp/21/index.php?action_kouhyou_detail_004_kani=true&JigyosyoCd=2170400804-00&ServiceCd=780&Type=search", "url2": null }, "geometry": { "type": "Point", "coordinates": [ 136.699086099999931, 35.3202043 ] } },
{ "type": "Feature", "properties": { "内容": "光デイサービス【地域密着型通所介護】岐阜県羽島市竹鼻町錦町57番地", "url": "https://www.kaigokensaku.mhlw.go.jp/21/index.php?action_kouhyou_detail_004_kani=true&JigyosyoCd=2190400156-00&ServiceCd=780&Type=search", "url2": null }, "geometry": { "type": "Point", "coordinates": [ 136.695799088360587, 35.321304971370211 ] } },
{ "type": "Feature", "properties": { "内容": "ハピネスクラブ【地域密着型通所介護】岐阜県羽島市江吉良町909番地", "url": "https://www.kaigokensaku.mhlw.go.jp/21/index.php?action_kouhyou_detail_004_kani=true&JigyosyoCd=2170401026-00&ServiceCd=780&Type=search", "url2": "http://hp.kaipoke.biz/h58/" }, "geometry": { "type": "Point", "coordinates": [ 136.700676714120846, 35.315051064058444 ] } },
{ "type": "Feature", "properties": { "内容": "デイサービス　かくれが【地域密着型通所介護】岐阜県羽島市江吉良町1046-1", "url": "https://www.kaigokensaku.mhlw.go.jp/21/index.php?action_kouhyou_detail_004_kani=true&JigyosyoCd=2190400172-00&ServiceCd=780&Type=search", "url2": "https://kakurega-hashima.com/" }, "geometry": { "type": "Point", "coordinates": [ 136.7081578, 35.3110959 ] } },
{ "type": "Feature", "properties": { "内容": "光デイサービス弐号館【地域密着型通所介護】岐阜県羽島市竹鼻町錦町56-2", "url": "https://www.kaigokensaku.mhlw.go.jp/21/index.php?action_kouhyou_detail_004_kani=true&JigyosyoCd=2190400164-00&ServiceCd=780&Type=search", "url2": null }, "geometry": { "type": "Point", "coordinates": [ 136.695807806745876, 35.321153446083578 ] } },
{ "type": "Feature", "properties": { "内容": "デイサービスセンターぬくもり【地域密着型通所介護】岐阜県羽島市竹鼻町新町2504番地１", "url": "https://www.kaigokensaku.mhlw.go.jp/21/index.php?action_kouhyou_detail_004_kani=true&JigyosyoCd=2170400523-00&ServiceCd=780&Type=search", "url2": "https://www.nuku-mori.net/" }, "geometry": { "type": "Point", "coordinates": [ 136.703199300000051, 35.3253483 ] } },
{ "type": "Feature", "properties": { "内容": "デイサービスママーズ　まさき【地域密着型通所介護】岐阜県羽島市正木町須賀２５６３－１", "url": "https://www.kaigokensaku.mhlw.go.jp/21/index.php?action_kouhyou_detail_004_kani=true&JigyosyoCd=2170400887-00&ServiceCd=780&Type=search", "url2": "http://www.hashimakikaku.com" }, "geometry": { "type": "Point", "coordinates": [ 136.7312624, 35.3356366 ] } },
{ "type": "Feature", "properties": { "内容": "ケアセンタージョイ【地域密着型通所介護】岐阜県羽島市舟橋町7丁目39番地", "url": "https://www.kaigokensaku.mhlw.go.jp/21/index.php?action_kouhyou_detail_004_kani=true&JigyosyoCd=2170400978-00&ServiceCd=780&Type=search", "url2": null }, "geometry": { "type": "Point", "coordinates": [ 136.690102960747964, 35.312488514450074 ] } },
{ "type": "Feature", "properties": { "内容": "リハビリデイサービスちあき【地域密着型通所介護】岐阜県羽島市竹鼻町狐穴2992-2", "url": "https://www.kaigokensaku.mhlw.go.jp/21/index.php?action_kouhyou_detail_004_kani=true&JigyosyoCd=2170401091-00&ServiceCd=780&Type=search", "url2": "https://chiaki-873.jimdofree.com/" }, "geometry": { "type": "Point", "coordinates": [ 136.706223861688301, 35.322408488840665 ] } },
{ "type": "Feature", "properties": { "内容": "デイサービスセンター　ジョイフル羽島【地域密着型通所介護】岐阜県羽島市下中町城屋敷318-5", "url": "https://www.kaigokensaku.mhlw.go.jp/21/index.php?action_kouhyou_detail_004_kani=true&JigyosyoCd=2190400107-00&ServiceCd=780&Type=search", "url2": "http://sun-vision.or.jp/" }, "geometry": { "type": "Point", "coordinates": [ 136.704144499999984, 35.2874288 ] } },
{ "type": "Feature", "properties": { "内容": "デイサービス　黒舩【地域密着型通所介護】岐阜県羽島市正木町曲利字才勝１３７５番地", "url": "https://www.kaigokensaku.mhlw.go.jp/21/index.php?action_kouhyou_detail_004_kani=true&JigyosyoCd=2190400131-00&ServiceCd=780&Type=search", "url2": "https://kai-kurofune.com/" }, "geometry": { "type": "Point", "coordinates": [ 136.721109942883288, 35.324897953293039 ] } },
{ "type": "Feature", "properties": { "内容": "デイサービス　花りん【地域密着型通所介護】岐阜県羽島市竹鼻町３６２番地1", "url": "https://www.kaigokensaku.mhlw.go.jp/21/index.php?action_kouhyou_detail_004_kani=true&JigyosyoCd=2190400149-00&ServiceCd=780&Type=search", "url2": null }, "geometry": { "type": "Point", "coordinates": [ 136.697271919049086, 35.322296738624964 ] } },
{ "type": "Feature", "properties": { "内容": "デイサービス　リハ屋【地域密着型通所介護】岐阜県羽島市正木町須賀小松588", "url": "https://www.kaigokensaku.mhlw.go.jp/21/index.php?action_kouhyou_detail_004_kani=true&JigyosyoCd=2190400115-00&ServiceCd=780&Type=search", "url2": "https://kai-thg.com" }, "geometry": { "type": "Point", "coordinates": [ 136.7316022, 35.3383925 ] } },
{ "type": "Feature", "properties": { "内容": "ＧＥＮＫＩ　ＮＥＸＴ恵那【地域密着型通所介護】岐阜県恵那市大井町字本町75番地1", "url": "https://www.kaigokensaku.mhlw.go.jp/21/index.php?action_kouhyou_detail_004_kani=true&JigyosyoCd=2171700780-00&ServiceCd=780&Type=search", "url2": null }, "geometry": { "type": "Point", "coordinates": [ 137.406756, 35.4808266 ] } },
{ "type": "Feature", "properties": { "内容": "串原デイサービスセンター【地域密着型通所介護】岐阜県恵那市串原３１７１番地１", "url": "https://www.kaigokensaku.mhlw.go.jp/21/index.php?action_kouhyou_detail_004_kani=true&JigyosyoCd=2171700491-00&ServiceCd=780&Type=search", "url2": "https://www.ena-shakyo.or.jp" }, "geometry": { "type": "Point", "coordinates": [ 137.405871199999979, 35.2606211 ] } },
{ "type": "Feature", "properties": { "内容": "デイサービス向日葵三郷【地域密着型通所介護】岐阜県恵那市三郷町佐々良木194番地339", "url": "https://www.kaigokensaku.mhlw.go.jp/21/index.php?action_kouhyou_detail_004_kani=true&JigyosyoCd=2171701010-00&ServiceCd=780&Type=search", "url2": "http://www.solrian.jp/" }, "geometry": { "type": "Point", "coordinates": [ 137.354231199999958, 35.4155988 ] } },
{ "type": "Feature", "properties": { "内容": "リハステーションおひさま【地域密着型通所介護】岐阜県恵那市大井町2693-761", "url": "https://www.kaigokensaku.mhlw.go.jp/21/index.php?action_kouhyou_detail_004_kani=true&JigyosyoCd=2191700182-00&ServiceCd=780&Type=search", "url2": "https://ohisama.group/" }, "geometry": { "type": "Point", "coordinates": [ 137.4089808, 35.475499599999985 ] } },
{ "type": "Feature", "properties": { "内容": "デイサービスセンター福寿苑【地域密着型通所介護】岐阜県恵那市上矢作町下723番地1", "url": "https://www.kaigokensaku.mhlw.go.jp/21/index.php?action_kouhyou_detail_004_kani=true&JigyosyoCd=2191700240-00&ServiceCd=780&Type=search", "url2": "https://keihoku.or.jp/" }, "geometry": { "type": "Point", "coordinates": [ 137.4745428, 35.27485 ] } },
{ "type": "Feature", "properties": { "内容": "デイサービス向日葵永田【地域密着型通所介護】岐阜県恵那市長島町永田673-7", "url": "https://www.kaigokensaku.mhlw.go.jp/21/index.php?action_kouhyou_detail_004_kani=true&JigyosyoCd=2191700273-00&ServiceCd=780&Type=search", "url2": "http://www.solrian.jp/" }, "geometry": { "type": "Point", "coordinates": [ 137.3958074, 35.436825 ] } },
{ "type": "Feature", "properties": { "内容": "3rdlife【地域密着型通所介護】岐阜県恵那市長島町正家3丁目8-64-3", "url": "https://www.kaigokensaku.mhlw.go.jp/21/index.php?action_kouhyou_detail_004_kani=true&JigyosyoCd=2191700281-00&ServiceCd=780&Type=search", "url2": "https://ohisama.group/" }, "geometry": { "type": "Point", "coordinates": [ 137.415921817196647, 35.445940426256193 ] } },
{ "type": "Feature", "properties": { "内容": "デイサービスセンター明日香苑【地域密着型通所介護】岐阜県恵那市三郷町佐々良木1470-1", "url": "https://www.kaigokensaku.mhlw.go.jp/21/index.php?action_kouhyou_detail_004_kani=true&JigyosyoCd=2191700315-00&ServiceCd=780&Type=search", "url2": "http://www.keiwakai.or.jp" }, "geometry": { "type": "Point", "coordinates": [ 137.3562305, 35.405062 ] } },
{ "type": "Feature", "properties": { "内容": "デイサービスおとむすび【地域密着型通所介護】岐阜県恵那市大井町381番地12", "url": "https://www.kaigokensaku.mhlw.go.jp/21/index.php?action_kouhyou_detail_004_kani=true&JigyosyoCd=2191700331-00&ServiceCd=780&Type=search", "url2": "https://ito-otomusubi.com/" }, "geometry": { "type": "Point", "coordinates": [ 137.4009761, 35.4620777 ] } },
{ "type": "Feature", "properties": { "内容": "デイサービスセンター大井シクラメン【地域密着型通所介護】岐阜県恵那市大井町1002番地の3", "url": "https://www.kaigokensaku.mhlw.go.jp/21/index.php?action_kouhyou_detail_004_kani=true&JigyosyoCd=2191700323-00&ServiceCd=780&Type=search", "url2": "https://www.cyclamen.or.jp" }, "geometry": { "type": "Point", "coordinates": [ 137.4182514, 35.4519075 ] } },
{ "type": "Feature", "properties": { "内容": "ありがとサン　美濃加茂【地域密着型通所介護】岐阜県美濃加茂市古井町下古井468セントラルビル１Ｆ", "url": "https://www.kaigokensaku.mhlw.go.jp/21/index.php?action_kouhyou_detail_004_kani=true&JigyosyoCd=2171200559-00&ServiceCd=780&Type=search", "url2": "http://arigato3-tnsi.jimdo.com/" }, "geometry": { "type": "Point", "coordinates": [ 137.0223942, 35.4431923 ] } },
{ "type": "Feature", "properties": { "内容": "けあらーず土岐指定通所介護事業所【地域密着型通所介護】岐阜県土岐市泉東窯町３町目３０番", "url": "https://www.kaigokensaku.mhlw.go.jp/21/index.php?action_kouhyou_detail_004_kani=true&JigyosyoCd=2171800648-00&ServiceCd=780&Type=search", "url2": "https://www.seramu.com/" }, "geometry": { "type": "Point", "coordinates": [ 137.1908618, 35.3693429 ] } },
{ "type": "Feature", "properties": { "内容": "デイサービスセンター一氣走【地域密着型通所介護】岐阜県土岐市肥田町肥田2217-2", "url": "https://www.kaigokensaku.mhlw.go.jp/21/index.php?action_kouhyou_detail_004_kani=true&JigyosyoCd=2171800317-00&ServiceCd=780&Type=search", "url2": null }, "geometry": { "type": "Point", "coordinates": [ 137.211593799999946, 35.3506263 ] } },
{ "type": "Feature", "properties": { "内容": "ミニデイサービスひなたぼっこさと【地域密着型通所介護】岐阜県土岐市駄知町1041-5", "url": "https://www.kaigokensaku.mhlw.go.jp/21/index.php?action_kouhyou_detail_004_kani=true&JigyosyoCd=2171800358-00&ServiceCd=780&Type=search", "url2": "http:/hinatabokko-sato.com" }, "geometry": { "type": "Point", "coordinates": [ 137.235086200000069, 35.334229 ] } },
{ "type": "Feature", "properties": { "内容": "りおんデイサービスセンター【地域密着型通所介護】岐阜県土岐市妻木町878-7ベルサンピア妻木", "url": "https://www.kaigokensaku.mhlw.go.jp/21/index.php?action_kouhyou_detail_004_kani=true&JigyosyoCd=2171800457-00&ServiceCd=780&Type=search", "url2": null }, "geometry": { "type": "Point", "coordinates": [ 137.188521300000048, 35.305894 ] } },
{ "type": "Feature", "properties": { "内容": "デイサービス小春日和【地域密着型通所介護】岐阜県土岐市泉町河合217番地", "url": "https://www.kaigokensaku.mhlw.go.jp/21/index.php?action_kouhyou_detail_004_kani=true&JigyosyoCd=2171800614-00&ServiceCd=780&Type=search", "url2": "http://koharu-biyori.jp/index.html" }, "geometry": { "type": "Point", "coordinates": [ 137.212807099999964, 35.3666939 ] } },
{ "type": "Feature", "properties": { "内容": "ﾃﾞｲｻｰﾋﾞｽさくら庵【地域密着型通所介護】岐阜県土岐市下石町294番地の１", "url": "https://www.kaigokensaku.mhlw.go.jp/21/index.php?action_kouhyou_detail_004_kani=true&JigyosyoCd=2191800065-00&ServiceCd=780&Type=search", "url2": null }, "geometry": { "type": "Point", "coordinates": [ 137.183755387030288, 35.321911230432271 ] } },
{ "type": "Feature", "properties": { "内容": "デイサービス　安【地域密着型通所介護】岐阜県土岐市曽木町1714", "url": "https://www.kaigokensaku.mhlw.go.jp/21/index.php?action_kouhyou_detail_004_kani=true&JigyosyoCd=2191880042-00&ServiceCd=780&Type=search", "url2": "https://an-ity.com" }, "geometry": { "type": "Point", "coordinates": [ 137.2715526, 35.2983338 ] } },
{ "type": "Feature", "properties": { "内容": "デイサービス東濃檜と100年の離れうさぎの里山神邸【地域密着型通所介護】岐阜県土岐市下石町2299", "url": "https://www.kaigokensaku.mhlw.go.jp/21/index.php?action_kouhyou_detail_004_kani=true&JigyosyoCd=2191880075-00&ServiceCd=780&Type=search", "url2": null }, "geometry": { "type": "Point", "coordinates": [ 137.2108292, 35.3217112 ] } },
{ "type": "Feature", "properties": { "内容": "リハビリデイセンター　ミックスアップ土岐【地域密着型通所介護】岐阜県土岐市泉大島町3-9-1", "url": "https://www.kaigokensaku.mhlw.go.jp/21/index.php?action_kouhyou_detail_004_kani=true&JigyosyoCd=2191880083-00&ServiceCd=780&Type=search", "url2": null }, "geometry": { "type": "Point", "coordinates": [ 137.1904927, 35.366083 ] } },
{ "type": "Feature", "properties": { "内容": "デイサ－ビス　さくらんぼ【地域密着型通所介護】岐阜県各務原市尾崎北町７丁目９", "url": "https://www.kaigokensaku.mhlw.go.jp/21/index.php?action_kouhyou_detail_004_kani=true&JigyosyoCd=2190500500-00&ServiceCd=780&Type=search", "url2": "https://hourakukai-sakuranbo.com/" }, "geometry": { "type": "Point", "coordinates": [ 136.8378748, 35.424658 ] } },
{ "type": "Feature", "properties": { "内容": "のびのびデイサービス【地域密着型通所介護】岐阜県各務原市鵜沼朝日町5丁目238番地6かみお接骨院", "url": "https://www.kaigokensaku.mhlw.go.jp/21/index.php?action_kouhyou_detail_004_kani=true&JigyosyoCd=2190500526-00&ServiceCd=780&Type=search", "url2": null }, "geometry": { "type": "Point", "coordinates": [ 136.9041829, 35.3888553 ] } },
{ "type": "Feature", "properties": { "内容": "でいさーびすせんたーわたぼうし【地域密着型通所介護】岐阜県各務原市鵜沼三ツ池町5丁目173番地1", "url": "https://www.kaigokensaku.mhlw.go.jp/21/index.php?action_kouhyou_detail_004_kani=true&JigyosyoCd=2170500405-00&ServiceCd=780&Type=search", "url2": "http://npowatabousi.web.fc2.com/" }, "geometry": { "type": "Point", "coordinates": [ 136.893383099999937, 35.397905199999968 ] } },
{ "type": "Feature", "properties": { "内容": "ピッコロデイサービスセンター【地域密着型通所介護】岐阜県各務原市鵜沼朝日町3丁目136番地", "url": "https://www.kaigokensaku.mhlw.go.jp/21/index.php?action_kouhyou_detail_004_kani=true&JigyosyoCd=2170501155-00&ServiceCd=780&Type=search", "url2": "http://npopiccolo.web.fc2.com/" }, "geometry": { "type": "Point", "coordinates": [ 136.901088920901429, 35.388548852710777 ] } },
{ "type": "Feature", "properties": { "内容": "ゆめふる仲間への街【地域密着型通所介護】岐阜県各務原市那加前野町3-133ユニシスまえの", "url": "https://www.kaigokensaku.mhlw.go.jp/21/index.php?action_kouhyou_detail_004_kani=true&JigyosyoCd=2170501403-00&ServiceCd=780&Type=search", "url2": "http://www.unishis-maeno.com" }, "geometry": { "type": "Point", "coordinates": [ 136.834252399999968, 35.4078905 ] } },
{ "type": "Feature", "properties": { "内容": "民家のデイサービス　ひお里苑【地域密着型通所介護】岐阜県各務原市三井東町1丁目79番地", "url": "https://www.kaigokensaku.mhlw.go.jp/21/index.php?action_kouhyou_detail_004_kani=true&JigyosyoCd=2170501478-00&ServiceCd=780&Type=search", "url2": "https://www.space-union.net" }, "geometry": { "type": "Point", "coordinates": [ 136.842892900000038, 35.3943559 ] } },
{ "type": "Feature", "properties": { "内容": "デイサービスマリアの丘【地域密着型通所介護】岐阜県各務原市三井町四丁目２６１番", "url": "https://www.kaigokensaku.mhlw.go.jp/21/index.php?action_kouhyou_detail_004_kani=true&JigyosyoCd=2170501536-00&ServiceCd=780&Type=search", "url2": "http://www.marianooka.info" }, "geometry": { "type": "Point", "coordinates": [ 136.841750592729227, 35.390491649616941 ] } },
{ "type": "Feature", "properties": { "内容": "デイサービスさくらの里　各務原【地域密着型通所介護】岐阜県各務原市那加信長町2-89-1", "url": "https://www.kaigokensaku.mhlw.go.jp/21/index.php?action_kouhyou_detail_004_kani=true&JigyosyoCd=2190500310-00&ServiceCd=780&Type=search", "url2": "https://best-sakura.com/kasamatsu" }, "geometry": { "type": "Point", "coordinates": [ 136.855427299999974, 35.3989135 ] } },
{ "type": "Feature", "properties": { "内容": "シニアフィットネスこもれび　デイサービス川島【地域密着型通所介護】岐阜県各務原市川島松倉町2370-32", "url": "https://www.kaigokensaku.mhlw.go.jp/21/index.php?action_kouhyou_detail_004_kani=true&JigyosyoCd=2190500336-00&ServiceCd=780&Type=search", "url2": "http://r.goope.jp/kawashimahigashi/free/komorebi" }, "geometry": { "type": "Point", "coordinates": [ 136.834353299999975, 35.365954400000014 ] } },
{ "type": "Feature", "properties": { "内容": "デイサービスCom.Do【地域密着型通所介護】岐阜県各務原市鵜沼各務原町4丁目318番地", "url": "https://www.kaigokensaku.mhlw.go.jp/21/index.php?action_kouhyou_detail_004_kani=true&JigyosyoCd=2190500344-00&ServiceCd=780&Type=search", "url2": "http://phoenix-g.jp" }, "geometry": { "type": "Point", "coordinates": [ 136.906808700000056, 35.4002428 ] } },
{ "type": "Feature", "properties": { "内容": "デイサービスゆめ工房【地域密着型通所介護】岐阜県各務原市鵜沼羽場町5丁目146番地", "url": "https://www.kaigokensaku.mhlw.go.jp/21/index.php?action_kouhyou_detail_004_kani=true&JigyosyoCd=2190500385-00&ServiceCd=780&Type=search", "url2": "https://www.kaigo-ai.com/" }, "geometry": { "type": "Point", "coordinates": [ 136.9294787, 35.4041317 ] } },
{ "type": "Feature", "properties": { "内容": "リハビリデイサービスCom.Do那加【地域密着型通所介護】岐阜県各務原市那加栄町10番地", "url": "https://www.kaigokensaku.mhlw.go.jp/21/index.php?action_kouhyou_detail_004_kani=true&JigyosyoCd=2190500393-00&ServiceCd=780&Type=search", "url2": "http://phoenix-g.jp" }, "geometry": { "type": "Point", "coordinates": [ 136.839779200000066, 35.3981997 ] } },
{ "type": "Feature", "properties": { "内容": "サフィールうぬま　デイサービスセンター【地域密着型通所介護】岐阜県各務原市鵜沼羽場町3丁目10番地1号", "url": "https://www.kaigokensaku.mhlw.go.jp/21/index.php?action_kouhyou_detail_004_kani=true&JigyosyoCd=2190500435-00&ServiceCd=780&Type=search", "url2": "http://aliss.co.jp" }, "geometry": { "type": "Point", "coordinates": [ 136.916487414117142, 35.403752626517281 ] } },
{ "type": "Feature", "properties": { "内容": "さわやか伝言ばん【地域密着型通所介護】岐阜県各務原市鵜沼東町八丁目5番地", "url": "https://www.kaigokensaku.mhlw.go.jp/21/index.php?action_kouhyou_detail_004_kani=true&JigyosyoCd=2190500468-00&ServiceCd=780&Type=search", "url2": "https://sawayaka-dengonban.com" }, "geometry": { "type": "Point", "coordinates": [ 136.9449397, 35.4033131 ] } },
{ "type": "Feature", "properties": { "内容": "デイサービスchallenge【地域密着型通所介護】岐阜県各務原市蘇原古市場町4丁目97番地１", "url": "https://www.kaigokensaku.mhlw.go.jp/21/index.php?action_kouhyou_detail_004_kani=true&JigyosyoCd=2190500484-00&ServiceCd=780&Type=search", "url2": "https://www.ima21.com/" }, "geometry": { "type": "Point", "coordinates": [ 136.867489959524562, 35.417046586225858 ] } },
{ "type": "Feature", "properties": { "内容": "デイサービス　庵【地域密着型通所介護】岐阜県各務原市須衛町１丁目285番地1", "url": "https://www.kaigokensaku.mhlw.go.jp/21/index.php?action_kouhyou_detail_004_kani=true&JigyosyoCd=2170501486-00&ServiceCd=780&Type=search", "url2": null }, "geometry": { "type": "Point", "coordinates": [ 136.881712599999986, 35.4395677 ] } },
{ "type": "Feature", "properties": { "内容": "翼～ウィング～【地域密着型通所介護】岐阜県各務原市川島河田町1019-3", "url": "https://www.kaigokensaku.mhlw.go.jp/21/index.php?action_kouhyou_detail_004_kani=true&JigyosyoCd=2190500450-00&ServiceCd=780&Type=search", "url2": null }, "geometry": { "type": "Point", "coordinates": [ 136.830714, 35.3616828 ] } },
{ "type": "Feature", "properties": { "内容": "けあらーず可児指定通所介護事業所【地域密着型通所介護】岐阜県可児市川合北2-115", "url": "https://www.kaigokensaku.mhlw.go.jp/21/index.php?action_kouhyou_detail_004_kani=true&JigyosyoCd=2173100914-00&ServiceCd=780&Type=search", "url2": "https://www.seramu.com/" }, "geometry": { "type": "Point", "coordinates": [ 137.052445241664174, 35.442245058678317 ] } },
{ "type": "Feature", "properties": { "内容": "デイサービスmana【地域密着型通所介護】岐阜県可児市広見６丁目110-2", "url": "https://www.kaigokensaku.mhlw.go.jp/21/index.php?action_kouhyou_detail_004_kani=true&JigyosyoCd=2193100258-00&ServiceCd=780&Type=search", "url2": null }, "geometry": { "type": "Point", "coordinates": [ 137.065497406745919, 35.421410668919442 ] } },
{ "type": "Feature", "properties": { "内容": "リハビリデイサービス赤とんぼ【地域密着型通所介護】岐阜県可児市塩河3504番地1", "url": "https://www.kaigokensaku.mhlw.go.jp/21/index.php?action_kouhyou_detail_004_kani=true&JigyosyoCd=2193100266-00&ServiceCd=780&Type=search", "url2": "akatonbo-aozii.amebaownd.com" }, "geometry": { "type": "Point", "coordinates": [ 137.0370965, 35.3909448 ] } },
{ "type": "Feature", "properties": { "内容": "デイサービスセンター野のはな【地域密着型通所介護】岐阜県可児市若葉台5丁目100番地", "url": "https://www.kaigokensaku.mhlw.go.jp/21/index.php?action_kouhyou_detail_004_kani=true&JigyosyoCd=2173100856-00&ServiceCd=780&Type=search", "url2": "https://dayservice-nonohana.com" }, "geometry": { "type": "Point", "coordinates": [ 137.01727207072534, 35.403616900304328 ] } },
{ "type": "Feature", "properties": { "内容": "デイハウスみらい【地域密着型通所介護】岐阜県可児市土田５３１１番地", "url": "https://www.kaigokensaku.mhlw.go.jp/21/index.php?action_kouhyou_detail_004_kani=true&JigyosyoCd=2173100872-00&ServiceCd=780&Type=search", "url2": "http://npo-doremimirai.com/" }, "geometry": { "type": "Point", "coordinates": [ 137.029384726816573, 35.429519911420989 ] } },
{ "type": "Feature", "properties": { "内容": "久々利苑デイサービスセンター【地域密着型通所介護】岐阜県可児市久々利1527番地", "url": "https://www.kaigokensaku.mhlw.go.jp/21/index.php?action_kouhyou_detail_004_kani=true&JigyosyoCd=2173100989-00&ServiceCd=780&Type=search", "url2": "http://www.harusatoen.or.jp" }, "geometry": { "type": "Point", "coordinates": [ 137.105466100000058, 35.4048611 ] } },
{ "type": "Feature", "properties": { "内容": "デイサービス夢香【地域密着型通所介護】岐阜県可児市今渡2751番地スワーヴ今渡", "url": "https://www.kaigokensaku.mhlw.go.jp/21/index.php?action_kouhyou_detail_004_kani=true&JigyosyoCd=2173101045-00&ServiceCd=780&Type=search", "url2": "https://www.generous.co.jp/facility/yunoka/" }, "geometry": { "type": "Point", "coordinates": [ 137.038654146479786, 35.433094363407662 ] } },
{ "type": "Feature", "properties": { "内容": "リハビリデイサービス　わかば可児【地域密着型通所介護】岐阜県可児市下恵土字豊田５１７６GemThrive1F", "url": "https://www.kaigokensaku.mhlw.go.jp/21/index.php?action_kouhyou_detail_004_kani=true&JigyosyoCd=2173101078-00&ServiceCd=780&Type=search", "url2": null }, "geometry": { "type": "Point", "coordinates": [ 137.054707542466758, 35.422416374246119 ] } },
{ "type": "Feature", "properties": { "内容": "グリーンテラスデイサービス【地域密着型通所介護】岐阜県可児市下恵土4061ｻｰﾋﾞｽ付き高齢者向け住宅グリーングリーン２階", "url": "https://www.kaigokensaku.mhlw.go.jp/21/index.php?action_kouhyou_detail_004_kani=true&JigyosyoCd=2173101094-00&ServiceCd=780&Type=search", "url2": null }, "geometry": { "type": "Point", "coordinates": [ 137.044037977538153, 35.426748940452363 ] } },
{ "type": "Feature", "properties": { "内容": "デイハウス　みぃーんなげんき【地域密着型通所介護】岐阜県可児市長坂８丁目１９８番地", "url": "https://www.kaigokensaku.mhlw.go.jp/21/index.php?action_kouhyou_detail_004_kani=true&JigyosyoCd=2173101136-00&ServiceCd=780&Type=search", "url2": null }, "geometry": { "type": "Point", "coordinates": [ 137.004230600000028, 35.3863148 ] } },
{ "type": "Feature", "properties": { "内容": "レッツ倶楽部にしかに【地域密着型通所介護】岐阜県可児市帷子新町３丁目１８番地東進ビル１階", "url": "https://www.kaigokensaku.mhlw.go.jp/21/index.php?action_kouhyou_detail_004_kani=true&JigyosyoCd=2173101177-00&ServiceCd=780&Type=search", "url2": "http://www.lets-club.jp/shop/nishikani/" }, "geometry": { "type": "Point", "coordinates": [ 137.010029799999984, 35.403190700000017 ] } },
{ "type": "Feature", "properties": { "内容": "デイサービスセンター太陽【地域密着型通所介護】岐阜県可児市土田4497-1", "url": "https://www.kaigokensaku.mhlw.go.jp/21/index.php?action_kouhyou_detail_004_kani=true&JigyosyoCd=2193100241-00&ServiceCd=780&Type=search", "url2": "https://hp.kaipoke.biz/6nm/169146/base_0004.html" }, "geometry": { "type": "Point", "coordinates": [ 137.009445206745909, 35.422822571592285 ] } },
{ "type": "Feature", "properties": { "内容": "ヒラックス可児【地域密着型通所介護】岐阜県可児市菅刈839-5西可児メディカルセンター３F西", "url": "https://www.kaigokensaku.mhlw.go.jp/21/index.php?action_kouhyou_detail_004_kani=true&JigyosyoCd=2193100274-00&ServiceCd=780&Type=search", "url2": null }, "geometry": { "type": "Point", "coordinates": [ 137.0030903, 35.4048308 ] } },
{ "type": "Feature", "properties": { "内容": "あいデイサービス【地域密着型通所介護】岐阜県山県市藤倉576－152", "url": "https://www.kaigokensaku.mhlw.go.jp/21/index.php?action_kouhyou_detail_004_kani=true&JigyosyoCd=2170800342-00&ServiceCd=780&Type=search", "url2": "http://hp.kaipoke.biz/n8k/" }, "geometry": { "type": "Point", "coordinates": [ 136.731425187966352, 35.531923247334007 ] } },
{ "type": "Feature", "properties": { "内容": "介護予防ジムきぼう【地域密着型通所介護】岐阜県山県市東深瀬585", "url": "https://www.kaigokensaku.mhlw.go.jp/21/index.php?action_kouhyou_detail_004_kani=true&JigyosyoCd=2170800409-00&ServiceCd=780&Type=search", "url2": "http://yamauchi-sekkotsu.com" }, "geometry": { "type": "Point", "coordinates": [ 136.790645400000017, 35.5139921 ] } },
{ "type": "Feature", "properties": { "内容": "瑞穂デイサービスセンター【地域密着型通所介護】岐阜県瑞穂市別府1494番地1ファミリーコート瑞穂内", "url": "https://www.kaigokensaku.mhlw.go.jp/21/index.php?action_kouhyou_detail_004_kani=true&JigyosyoCd=2193200090-00&ServiceCd=780&Type=search", "url2": "http://www.wakokai.or.jp" }, "geometry": { "type": "Point", "coordinates": [ 136.684854911809225, 35.395237883025565 ] } },
{ "type": "Feature", "properties": { "内容": "共生型サービスあこうど【地域密着型通所介護】岐阜県瑞穂市牛牧９０９番地２", "url": "https://www.kaigokensaku.mhlw.go.jp/21/index.php?action_kouhyou_detail_004_kani=true&JigyosyoCd=2173200417-00&ServiceCd=780&Type=search", "url2": "http://www.office-waon.com/" }, "geometry": { "type": "Point", "coordinates": [ 136.667650200000054, 35.38400450000001 ] } },
{ "type": "Feature", "properties": { "内容": "デイサービスセンターあいらすの森【地域密着型通所介護】岐阜県飛騨市古川町下気多85-1あいらすの森", "url": "https://www.kaigokensaku.mhlw.go.jp/21/index.php?action_kouhyou_detail_004_kani=true&JigyosyoCd=2173300209-00&ServiceCd=780&Type=search", "url2": null }, "geometry": { "type": "Point", "coordinates": [ 137.1777816, 36.2436098 ] } },
{ "type": "Feature", "properties": { "内容": "宮川・河合デイサービスセンター【地域密着型通所介護】岐阜県飛騨市河合町角川318番地河合町保健福祉センター", "url": "https://www.kaigokensaku.mhlw.go.jp/21/index.php?action_kouhyou_detail_004_kani=true&JigyosyoCd=2193300072-00&ServiceCd=780&Type=search", "url2": "http://www.yosikifukusikai.jp/" }, "geometry": { "type": "Point", "coordinates": [ 137.101399899999933, 36.3037927 ] } },
{ "type": "Feature", "properties": { "内容": "地域密着型通所介護　まごの手【地域密着型通所介護】岐阜県飛騨市神岡町殿606番地2", "url": "https://www.kaigokensaku.mhlw.go.jp/21/index.php?action_kouhyou_detail_004_kani=true&JigyosyoCd=2193300114-00&ServiceCd=780&Type=search", "url2": "http://www.magonote.life" }, "geometry": { "type": "Point", "coordinates": [ 137.31015309999998, 36.3254569 ] } },
{ "type": "Feature", "properties": { "内容": "古川デイサービスセンター【地域密着型通所介護】古川町高野稲葉通336-1", "url": "https://www.kaigokensaku.mhlw.go.jp/21/index.php?action_kouhyou_detail_004_kani=true&JigyosyoCd=2193300148-00&ServiceCd=780&Type=search", "url2": "https://www.yosikifukusikai.jp" }, "geometry": { "type": "Point", "coordinates": [ 137.176201220206167, 36.23341978934868 ] } },
{ "type": "Feature", "properties": { "内容": "石徹白デイサービスセンター【地域密着型通所介護】岐阜県郡上市白鳥町石徹白39-5-1", "url": "https://www.kaigokensaku.mhlw.go.jp/21/index.php?action_kouhyou_detail_004_kani=true&JigyosyoCd=2171000611-00&ServiceCd=780&Type=search", "url2": null }, "geometry": { "type": "Point", "coordinates": [ 136.770900899999987, 35.9732707 ] } },
{ "type": "Feature", "properties": { "内容": "デイサービスセンターアットホームしろとり【地域密着型通所介護】岐阜県郡上市白鳥町為真１８７８－１", "url": "https://www.kaigokensaku.mhlw.go.jp/21/index.php?action_kouhyou_detail_004_kani=true&JigyosyoCd=2171000678-00&ServiceCd=780&Type=search", "url2": "http://attohome.or.jp/" }, "geometry": { "type": "Point", "coordinates": [ 136.871151700000041, 35.8735309 ] } },
{ "type": "Feature", "properties": { "内容": "デイサービスキャリーオン【地域密着型通所介護】岐阜県郡上市大和町剣240番地2", "url": "https://www.kaigokensaku.mhlw.go.jp/21/index.php?action_kouhyou_detail_004_kani=true&JigyosyoCd=2191000054-00&ServiceCd=780&Type=search", "url2": "http://www.carry-on-251210.co.jp" }, "geometry": { "type": "Point", "coordinates": [ 136.898548139703394, 35.815676760317558 ] } },
{ "type": "Feature", "properties": { "内容": "白鳥北部デイサービスセンター【地域密着型通所介護】岐阜県郡上市白鳥町歩岐島139番地2", "url": "https://www.kaigokensaku.mhlw.go.jp/21/index.php?action_kouhyou_detail_004_kani=true&JigyosyoCd=2191000070-00&ServiceCd=780&Type=search", "url2": null }, "geometry": { "type": "Point", "coordinates": [ 136.829857299999958, 35.9294657 ] } },
{ "type": "Feature", "properties": { "内容": "白鳥東部デイサービスセンター【地域密着型通所介護】岐阜県郡上市白鳥町中西５０９番地１", "url": "https://www.kaigokensaku.mhlw.go.jp/21/index.php?action_kouhyou_detail_004_kani=true&JigyosyoCd=2191000088-00&ServiceCd=780&Type=search", "url2": null }, "geometry": { "type": "Point", "coordinates": [ 136.891172899999987, 35.8922725 ] } },
{ "type": "Feature", "properties": { "内容": "デイサービスセンターおひさまの大地【地域密着型通所介護】岐阜県郡上市高鷲町鷲見5390-5", "url": "https://www.kaigokensaku.mhlw.go.jp/21/index.php?action_kouhyou_detail_004_kani=true&JigyosyoCd=2191000138-00&ServiceCd=780&Type=search", "url2": "http://ohisamanoegao.com/" }, "geometry": { "type": "Point", "coordinates": [ 136.920311172352598, 35.984084612063924 ] } },
{ "type": "Feature", "properties": { "内容": "高鷲デイサービスセンター【地域密着型通所介護】岐阜県郡上市高鷲町大鷲201番地２高鷲保健福祉センターこぶし苑１階", "url": "https://www.kaigokensaku.mhlw.go.jp/21/index.php?action_kouhyou_detail_004_kani=true&JigyosyoCd=2191000153-00&ServiceCd=780&Type=search", "url2": "https://gujo-syakyo.or.jp/" }, "geometry": { "type": "Point", "coordinates": [ 136.8721261, 35.9453366 ] } },
{ "type": "Feature", "properties": { "内容": "リハプライド　下呂白樺【地域密着型通所介護】岐阜県下呂市萩原町上呂８５０－１", "url": "https://www.kaigokensaku.mhlw.go.jp/21/index.php?action_kouhyou_detail_004_kani=true&JigyosyoCd=2172800753-00&ServiceCd=780&Type=search", "url2": "https://www.rehapride.co.jp/gero/" }, "geometry": { "type": "Point", "coordinates": [ 137.204373499999946, 35.908312 ] } },
{ "type": "Feature", "properties": { "内容": "ファミリア下呂デイサービス【地域密着型通所介護】岐阜県下呂市森2273ファミリア下呂", "url": "https://www.kaigokensaku.mhlw.go.jp/21/index.php?action_kouhyou_detail_004_kani=true&JigyosyoCd=2172800787-00&ServiceCd=780&Type=search", "url2": "http://www.yuzankai.com" }, "geometry": { "type": "Point", "coordinates": [ 137.250770298577919, 35.8058631702445 ] } },
{ "type": "Feature", "properties": { "内容": "リハビリデイサービス　街のからだクラス【地域密着型通所介護】岐阜県下呂市湯之島496番地3", "url": "https://www.kaigokensaku.mhlw.go.jp/21/index.php?action_kouhyou_detail_004_kani=true&JigyosyoCd=2192800106-00&ServiceCd=780&Type=search", "url2": null }, "geometry": { "type": "Point", "coordinates": [ 137.23947421163939, 35.811455454943086 ] } },
{ "type": "Feature", "properties": { "内容": "リハビリデイサービス　ケアリハ【地域密着型通所介護】岐阜県下呂市萩原町花池２９３番地", "url": "https://www.kaigokensaku.mhlw.go.jp/21/index.php?action_kouhyou_detail_004_kani=true&JigyosyoCd=2192800114-00&ServiceCd=780&Type=search", "url2": "https://keariha.hp.peraichi.com/rihabili" }, "geometry": { "type": "Point", "coordinates": [ 137.222114, 35.862976 ] } },
{ "type": "Feature", "properties": { "内容": "リハビリデイサービス　ウイル【地域密着型通所介護】岐阜県下呂市萩原町西上田248-1", "url": "https://www.kaigokensaku.mhlw.go.jp/21/index.php?action_kouhyou_detail_004_kani=true&JigyosyoCd=2192800122-00&ServiceCd=780&Type=search", "url2": null }, "geometry": { "type": "Point", "coordinates": [ 137.226973267748662, 35.840969104262449 ] } },
{ "type": "Feature", "properties": { "内容": "デイサービスセンター　つつじ苑【地域密着型通所介護】岐阜県下呂市馬瀬名丸1041番地", "url": "https://www.kaigokensaku.mhlw.go.jp/21/index.php?action_kouhyou_detail_004_kani=true&JigyosyoCd=2192800148-00&ServiceCd=780&Type=search", "url2": "http://gero-city-syakyo.jp/shisetsu/maze_day.html" }, "geometry": { "type": "Point", "coordinates": [ 137.1752722, 35.8700575 ] } },
{ "type": "Feature", "properties": { "内容": "元気デイ小川谷【地域密着型通所介護】岐阜県下呂市小川281-1", "url": "https://www.kaigokensaku.mhlw.go.jp/21/index.php?action_kouhyou_detail_004_kani=true&JigyosyoCd=2192800155-00&ServiceCd=780&Type=search", "url2": null }, "geometry": { "type": "Point", "coordinates": [ 137.267955499999971, 35.794327900000035 ] } },
{ "type": "Feature", "properties": { "内容": "コミュニティベース讃照庵【地域密着型通所介護】岐阜県下呂市金山町金山3479-2", "url": "https://www.kaigokensaku.mhlw.go.jp/21/index.php?action_kouhyou_detail_004_kani=true&JigyosyoCd=2192800163-00&ServiceCd=780&Type=search", "url2": null }, "geometry": { "type": "Point", "coordinates": [ 137.1663974, 35.6458953 ] } },
{ "type": "Feature", "properties": { "内容": "上原デイサービスセンター【地域密着型通所介護】岐阜県下呂市田口678-2", "url": "https://www.kaigokensaku.mhlw.go.jp/21/index.php?action_kouhyou_detail_004_kani=true&JigyosyoCd=2192800171-00&ServiceCd=780&Type=search", "url2": "http://www.gero-city-syakyo.jp" }, "geometry": { "type": "Point", "coordinates": [ 137.28978977486878, 35.731153886224284 ] } },
{ "type": "Feature", "properties": { "内容": "デイサービスおかげ庵下呂【地域密着型通所介護】岐阜県下呂市森２１１番地", "url": "https://www.kaigokensaku.mhlw.go.jp/21/index.php?action_kouhyou_detail_004_kani=true&JigyosyoCd=2192800197-00&ServiceCd=780&Type=search", "url2": "https://a-lifesupport.co.jp/elder/happiness_gero/" }, "geometry": { "type": "Point", "coordinates": [ 137.246633300000013, 35.8014932 ] } },
{ "type": "Feature", "properties": { "内容": "地域密着型リハビリ特化デイサービス　どんぐりの家海津【地域密着型通所介護】岐阜県海津市海津町福江845番地の1", "url": "https://www.kaigokensaku.mhlw.go.jp/21/index.php?action_kouhyou_detail_004_kani=true&JigyosyoCd=2192200109-00&ServiceCd=780&Type=search", "url2": null }, "geometry": { "type": "Point", "coordinates": [ 136.664258100000012, 35.1735613 ] } },
{ "type": "Feature", "properties": { "内容": "オレンジ・ライフ【地域密着型通所介護】岐阜県海津市海津町札野545番地1", "url": "https://www.kaigokensaku.mhlw.go.jp/21/index.php?action_kouhyou_detail_004_kani=true&JigyosyoCd=2192200091-00&ServiceCd=780&Type=search", "url2": "https://orange-t.com" }, "geometry": { "type": "Point", "coordinates": [ 136.651718, 35.205926 ] } },
{ "type": "Feature", "properties": { "内容": "デイサービス　おひさま【地域密着型通所介護】岐阜県海津市海津町高須町1166-3", "url": "https://www.kaigokensaku.mhlw.go.jp/21/index.php?action_kouhyou_detail_004_kani=true&JigyosyoCd=2172200509-00&ServiceCd=780&Type=search", "url2": null }, "geometry": { "type": "Point", "coordinates": [ 136.628768499999978, 35.224911 ] } },
{ "type": "Feature", "properties": { "内容": "デイサービスたんぽぽ【地域密着型通所介護】岐阜県海津市南濃町松山421-1", "url": "https://www.kaigokensaku.mhlw.go.jp/21/index.php?action_kouhyou_detail_004_kani=true&JigyosyoCd=2192200125-00&ServiceCd=780&Type=search", "url2": null }, "geometry": { "type": "Point", "coordinates": [ 136.6338744, 35.1560408 ] } },
{ "type": "Feature", "properties": { "内容": "リハビリ型ディサービス　ひだまり【地域密着型通所介護】岐阜県海津市海津町福江590-2", "url": "https://www.kaigokensaku.mhlw.go.jp/21/index.php?action_kouhyou_detail_004_kani=true&JigyosyoCd=2172200525-00&ServiceCd=780&Type=search", "url2": null }, "geometry": { "type": "Point", "coordinates": [ 136.659621000128425, 35.176394330243753 ] } },
{ "type": "Feature", "properties": { "内容": "アクティブトレーニングセンター【地域密着型通所介護】岐阜県羽島郡笠松町門間46-2アクティブトレーニングセンター", "url": "https://www.kaigokensaku.mhlw.go.jp/21/index.php?action_kouhyou_detail_004_kani=true&JigyosyoCd=2170600890-00&ServiceCd=780&Type=search", "url2": "https://active-training.center" }, "geometry": { "type": "Point", "coordinates": [ 136.741975, 35.3577479 ] } },
{ "type": "Feature", "properties": { "内容": "デイサービスさくらの里【地域密着型通所介護】岐阜県羽島郡笠松町上本町65-2", "url": "https://www.kaigokensaku.mhlw.go.jp/21/index.php?action_kouhyou_detail_004_kani=true&JigyosyoCd=2170601013-00&ServiceCd=780&Type=search", "url2": "https://best-sakura.com/kasamatsu" }, "geometry": { "type": "Point", "coordinates": [ 136.762181, 35.3671636 ] } },
{ "type": "Feature", "properties": { "内容": "デイサービスセンタｰ幸の郷【地域密着型通所介護】岐阜県養老郡養老町押越887", "url": "https://www.kaigokensaku.mhlw.go.jp/21/index.php?action_kouhyou_detail_004_kani=true&JigyosyoCd=2172300291-00&ServiceCd=780&Type=search", "url2": "https://yoshidakai-hp.com/yoshidakai/" }, "geometry": { "type": "Point", "coordinates": [ 136.557378750401313, 35.307026900000515 ] } },
{ "type": "Feature", "properties": { "内容": "デイサービス　空【地域密着型通所介護】岐阜県養老郡養老町鷲巣821-6", "url": "https://www.kaigokensaku.mhlw.go.jp/21/index.php?action_kouhyou_detail_004_kani=true&JigyosyoCd=2172300424-00&ServiceCd=780&Type=search", "url2": null }, "geometry": { "type": "Point", "coordinates": [ 136.5598698, 35.2811591 ] } },
{ "type": "Feature", "properties": { "内容": "かなやデイサービスセンター【地域密着型通所介護】岐阜県養老郡養老町金屋99番地1", "url": "https://www.kaigokensaku.mhlw.go.jp/21/index.php?action_kouhyou_detail_004_kani=true&JigyosyoCd=2192300081-00&ServiceCd=780&Type=search", "url2": null }, "geometry": { "type": "Point", "coordinates": [ 136.554943325027125, 35.319428736058605 ] } },
{ "type": "Feature", "properties": { "内容": "療養通所介護　天音の里【地域密着型通所介護】岐阜県養老郡養老町船附字中代1344番地", "url": "https://www.kaigokensaku.mhlw.go.jp/21/index.php?action_kouhyou_detail_004_kani=true&JigyosyoCd=2192300123-00&ServiceCd=780&Type=search", "url2": "http://www.funacli.jp/amane/" }, "geometry": { "type": "Point", "coordinates": [ 136.600570299999987, 35.2868118 ] } },
{ "type": "Feature", "properties": { "内容": "デーサービスセンターB保維美【地域密着型通所介護】岐阜県不破郡垂井町１５５０番地の１１", "url": "https://www.kaigokensaku.mhlw.go.jp/21/index.php?action_kouhyou_detail_004_kani=true&JigyosyoCd=2192400071-00&ServiceCd=780&Type=search", "url2": null }, "geometry": { "type": "Point", "coordinates": [ 136.528329884269709, 35.371265032849315 ] } },
{ "type": "Feature", "properties": { "内容": "デイサービス　ぽかぽかいぶき【地域密着型通所介護】岐阜県不破郡垂井町府中2527", "url": "https://www.kaigokensaku.mhlw.go.jp/21/index.php?action_kouhyou_detail_004_kani=true&JigyosyoCd=2172400299-00&ServiceCd=780&Type=search", "url2": "https://www.ibukien.jp" }, "geometry": { "type": "Point", "coordinates": [ 136.5244573, 35.3796607 ] } },
{ "type": "Feature", "properties": { "内容": "椿デイサービスセンター【地域密着型通所介護】岐阜県不破郡垂井町大石字下野745番地", "url": "https://www.kaigokensaku.mhlw.go.jp/21/index.php?action_kouhyou_detail_004_kani=true&JigyosyoCd=2172400323-00&ServiceCd=780&Type=search", "url2": "https://www.nisimino.com/aiki/" }, "geometry": { "type": "Point", "coordinates": [ 136.51158138744961, 35.386164523426288 ] } },
{ "type": "Feature", "properties": { "内容": "泰寿デイサービスセンター【地域密着型通所介護】岐阜県安八郡輪之内町楡俣新田391番地", "url": "https://www.kaigokensaku.mhlw.go.jp/21/index.php?action_kouhyou_detail_004_kani=true&JigyosyoCd=2192500078-00&ServiceCd=780&Type=search", "url2": "http://www.taijyu.co.jp" }, "geometry": { "type": "Point", "coordinates": [ 136.650368, 35.2987382 ] } },
{ "type": "Feature", "properties": { "内容": "デイサービス縁楽　揖斐川【地域密着型通所介護】岐阜県揖斐郡揖斐川町北方1475-1", "url": "https://www.kaigokensaku.mhlw.go.jp/21/index.php?action_kouhyou_detail_004_kani=true&JigyosyoCd=2192600183-00&ServiceCd=780&Type=search", "url2": "https://kaigo-enraku.com/" }, "geometry": { "type": "Point", "coordinates": [ 136.543742, 35.5037788 ] } },
{ "type": "Feature", "properties": { "内容": "揖斐川町坂内デイサービスセンターもみの木【地域密着型通所介護】岐阜県揖斐郡揖斐川町坂内広瀬３１０番地３", "url": "https://www.kaigokensaku.mhlw.go.jp/21/index.php?action_kouhyou_detail_004_kani=true&JigyosyoCd=2172600781-00&ServiceCd=780&Type=search", "url2": "http://www.ibi-syakyou.jp/" }, "geometry": { "type": "Point", "coordinates": [ 136.412429100000054, 35.6019181 ] } },
{ "type": "Feature", "properties": { "内容": "揖斐川町春日デイサービスセンター【地域密着型通所介護】岐阜県揖斐郡揖斐川町春日六合３４２０番地", "url": "https://www.kaigokensaku.mhlw.go.jp/21/index.php?action_kouhyou_detail_004_kani=true&JigyosyoCd=2172600799-00&ServiceCd=780&Type=search", "url2": "http://www.ibi-syakyou.jp" }, "geometry": { "type": "Point", "coordinates": [ 136.487623799999938, 35.4678574 ] } },
{ "type": "Feature", "properties": { "内容": "ぎふ愛の里デイサービス【地域密着型通所介護】岐阜県揖斐郡大野町大字大野742-14", "url": "https://www.kaigokensaku.mhlw.go.jp/21/index.php?action_kouhyou_detail_004_kani=true&JigyosyoCd=2172601094-00&ServiceCd=780&Type=search", "url2": "https://www.gifu-ainosato.jp" }, "geometry": { "type": "Point", "coordinates": [ 136.6398388, 35.4799964 ] } },
{ "type": "Feature", "properties": { "内容": "こころデイサービスセンター【地域密着型通所介護】岐阜県揖斐郡池田町草深918-1", "url": "https://www.kaigokensaku.mhlw.go.jp/21/index.php?action_kouhyou_detail_004_kani=true&JigyosyoCd=2172600872-00&ServiceCd=780&Type=search", "url2": "http://www.kaigo-kokoro.com/day_s.htm" }, "geometry": { "type": "Point", "coordinates": [ 136.556684023556471, 35.448308405698285 ] } },
{ "type": "Feature", "properties": { "内容": "いいひとデイサービス【地域密着型通所介護】岐阜県揖斐郡池田町片山字一ノ井２３１１番地いいひとデイサービス", "url": "https://www.kaigokensaku.mhlw.go.jp/21/index.php?action_kouhyou_detail_004_kani=true&JigyosyoCd=2192600191-00&ServiceCd=780&Type=search", "url2": null }, "geometry": { "type": "Point", "coordinates": [ 136.5596027, 35.4181363 ] } },
{ "type": "Feature", "properties": { "内容": "北方町デイサービスセンター円苑【地域密着型通所介護】岐阜県本巣郡北方町高屋白木2丁目38番地", "url": "https://www.kaigokensaku.mhlw.go.jp/21/index.php?action_kouhyou_detail_004_kani=true&JigyosyoCd=2190700076-00&ServiceCd=780&Type=search", "url2": "http://kitagatashakyo.or.jp/facility-f01/" }, "geometry": { "type": "Point", "coordinates": [ 136.6900781, 35.4167074 ] } },
{ "type": "Feature", "properties": { "内容": "デイサービス楽・笑【地域密着型通所介護】岐阜県加茂郡坂祝町酒倉1034番地3デイサービス楽・笑", "url": "https://www.kaigokensaku.mhlw.go.jp/21/index.php?action_kouhyou_detail_004_kani=true&JigyosyoCd=2191300983-00&ServiceCd=780&Type=search", "url2": "https://www.instagram.com/rakusho1234/" }, "geometry": { "type": "Point", "coordinates": [ 137.000269800000069, 35.4399585 ] } },
{ "type": "Feature", "properties": { "内容": "さわやかデイサービスセンター七宗【地域密着型通所介護】岐阜県加茂郡七宗町川並６１１番地", "url": "https://www.kaigokensaku.mhlw.go.jp/21/index.php?action_kouhyou_detail_004_kani=true&JigyosyoCd=2191301015-00&ServiceCd=780&Type=search", "url2": "http://www.jikeikai-sawayaka.jp" }, "geometry": { "type": "Point", "coordinates": [ 137.119801837702084, 35.537734976007023 ] } },
{ "type": "Feature", "properties": { "内容": "ありがとサン八百津【地域密着型通所介護】岐阜県加茂郡八百津町八百津3862-2", "url": "https://www.kaigokensaku.mhlw.go.jp/21/index.php?action_kouhyou_detail_004_kani=true&JigyosyoCd=2171300821-00&ServiceCd=780&Type=search", "url2": "http://arigato3-tnsi.jimdo.com/" }, "geometry": { "type": "Point", "coordinates": [ 137.141769519851664, 35.476632004445065 ] } },
{ "type": "Feature", "properties": { "内容": "ミニデイサービスあさひ【地域密着型通所介護】岐阜県加茂郡八百津町伊岐津志1749-2", "url": "https://www.kaigokensaku.mhlw.go.jp/21/index.php?action_kouhyou_detail_004_kani=true&JigyosyoCd=2171300763-00&ServiceCd=780&Type=search", "url2": null }, "geometry": { "type": "Point", "coordinates": [ 137.129115271666734, 35.468933616181474 ] } },
{ "type": "Feature", "properties": { "内容": "サポート・一心　元気の館【地域密着型通所介護】岐阜県加茂郡白川町河岐305-12", "url": "https://www.kaigokensaku.mhlw.go.jp/21/index.php?action_kouhyou_detail_004_kani=true&JigyosyoCd=2171300771-00&ServiceCd=780&Type=search", "url2": null }, "geometry": { "type": "Point", "coordinates": [ 137.178431, 35.5833767 ] } },
{ "type": "Feature", "properties": { "内容": "デイサービス　かわまた茶寮【地域密着型通所介護】岐阜県加茂郡白川町河岐1729－5", "url": "https://www.kaigokensaku.mhlw.go.jp/21/index.php?action_kouhyou_detail_004_kani=true&JigyosyoCd=2171300805-00&ServiceCd=780&Type=search", "url2": null }, "geometry": { "type": "Point", "coordinates": [ 137.190644346477626, 35.580778646823603 ] } },
{ "type": "Feature", "properties": { "内容": "サンシャイン美濃白川デイサービスセンター【地域密着型通所介護】岐阜県加茂郡白川町坂ノ東5500-1", "url": "https://www.kaigokensaku.mhlw.go.jp/21/index.php?action_kouhyou_detail_004_kani=true&JigyosyoCd=2191301064-00&ServiceCd=780&Type=search", "url2": "https://shirakawa-shakyo.or.jp" }, "geometry": { "type": "Point", "coordinates": [ 137.166162694477435, 35.602543965553124 ] } },
{ "type": "Feature", "properties": { "内容": "佐見デイサービスセンターせせらぎ園【地域密着型通所介護】岐阜県加茂郡白川町下佐見2510-2", "url": "https://www.kaigokensaku.mhlw.go.jp/21/index.php?action_kouhyou_detail_004_kani=true&JigyosyoCd=2191301098-00&ServiceCd=780&Type=search", "url2": "https://shirakawa-shakyo.or.jp" }, "geometry": { "type": "Point", "coordinates": [ 137.238170276092148, 35.662276968292176 ] } },
{ "type": "Feature", "properties": { "内容": "黒川ディサービスセンター気楽園【地域密着型通所介護】岐阜県加茂郡白川町黒川1819番地1", "url": "https://www.kaigokensaku.mhlw.go.jp/21/index.php?action_kouhyou_detail_004_kani=true&JigyosyoCd=2191301106-00&ServiceCd=780&Type=search", "url2": "https://shirakawa-shakyo.or.jp" }, "geometry": { "type": "Point", "coordinates": [ 137.3217984, 35.5961941 ] } },
{ "type": "Feature", "properties": { "内容": "東白川村デイサービスセンター【地域密着型通所介護】岐阜県加茂郡東白川村神土697-1", "url": "https://www.kaigokensaku.mhlw.go.jp/21/index.php?action_kouhyou_detail_004_kani=true&JigyosyoCd=2191301007-00&ServiceCd=780&Type=search", "url2": null }, "geometry": { "type": "Point", "coordinates": [ 137.333320039811696, 35.646873293301006 ] } },
{ "type": "Feature", "properties": { "内容": "白川村デイサービスセンターしゃくなげ荘【地域密着型通所介護】岐阜県大野郡白川村大字長瀬字小保木755-14", "url": "https://www.kaigokensaku.mhlw.go.jp/21/index.php?action_kouhyou_detail_004_kani=true&JigyosyoCd=2172900496-00&ServiceCd=780&Type=search", "url2": "https://iful-jikeikai.com/" }, "geometry": { "type": "Point", "coordinates": [ 136.906694266913405, 36.173702855067361 ] } }
]
}
